name,category,street,city,Website,phone_no,fb_address,contact_email
2B Whole Gluten Free Bakery,Bakery/Cafe,"42 Milton Ave
","Alpharetta, GA 30009",https://www.2bwhole.net,1 470-395-5248,,gf@2bwhole.net
2Good2B Bakery & Cafe,Bakery/Cafe,11975 Bernardo Plaza Drive ,"Rancho Bernardo, CA 92128",https://2good2b.com,1 858-487-4663,,"
INFO@2GOOD2B.COM"
2Good2B Bakery & Cafe,Bakery/Cafe,"204 N El Camino Real
","Encinitas, CA 92024
",https://2good2b.com,1 760-942-4663,,"
INFO@2GOOD2B.COM"
3 Bears Gluten Free,Bakery/Cafe,"51 Market St
","Potsdam, NY 13676
",http://www.3bearsglutenfree.com/,1 315-274-9308,https://www.facebook.com/3BearsGlutenFreeBakery,3bearsglutenfreebakery@gmail.com
5 Points Local,Cafe,1017 N Flores St,"
San Antonio, TX 78212
",http://www.5pointslocal.com,1 210-267-2652,https://www.facebook.com/5pointslocal/?ref=bookmarks,INFO@5POINTSLOCAL.COM
5b's Bakery,Bakery,45597 Main St,"
Concrete, WA 98237
",http://5bsbakery.com/index.html,1 360-853-8700,https://www.facebook.com/5bsBakery,info@5bsbakery.com
A&J Bakery,Bakery,"1458 Park Avenue
","Cranston, RI 02920
",http://www.aandjbakery.net,1 401-228-8696,https://www.facebook.com/Aandjbakery/,
Alby's Gluten Free Bakery,Bakery,"66, Holbrooks Road","Flinders Park, Adelaide, Australia 5025",,61 8 8352 5525,https://www.facebook.com/AjsFineFoodsPtyLtd/,
Aleia's ,Bakery,4 Pin Oak Dr,"Branford, CT 06405",http://www.aleias.com/,1 203-488-5556,https://www.facebook.com/Aleias-Gluten-Free-Foods-263775553639758/,connect@aleias.com
AllerGeena Gluten Free,Bakery,see website for ordering,"South Portland, ME",http://www.allergeena.com/,,https://www.facebook.com/Allergeena/,FB/allergeena@maine.rr.com
Allergy Free Baking Company,Bakery,14011 West Quincy Ave,"Morrison, CO 80465",https://www.allergyfreebakingcompany.com/,1 720-572-7838,https://www.facebook.com/allergyfreebakingcompany/, nicole@allergyfreebakingcompany.com
Allie's GF Goodies,Bakery,1B West Village Green,"Hicksville, NY 11801",https://alliesgfg.com/,1 516-216-1719,https://www.facebook.com/AlliesGfGoodiesHomemadeGlutenFreeGoodness/,Agfgoodies@optimum.net
Almond Butterfly,Bakery,"100 Harbord Street
","Toronto, Ontario, Canada M5S 1G6",http://www.almondbutterfly.com/index.html,1 416-792-7994,https://www.facebook.com/almondbutterfly,info@almondbutterfly.com
Ancient Grains Bakery,Bakery,"687a Fergusson Drive
 ","Elderslea Upper Hutt, New Zealand 5018
",http://www.ancientgrains.co.nz,64 04-528-5100,,lee@ancientgrains.co.nz
Anna B's Gluten Free,Bakery,7426 Brandy Creek Drive,"
Mechanicsville, VA 23111
",http://www.annabsglutenfree.com,1 804-822-0656,,annabglutenfree@gmail.com
Annie May's Sweet Cafe,Bakery/Cafe,3110 Frankfort Ave.,"Louisville, KY 40206",http://www.anniemayssweetcafe.com/,1 502-384-2667,,info@anniemayssweetcafe.com
Apres Food,Restaurant,72 St John Street,"London, UK EC1M 4 DT",https://www.apresfood.com/,44 20 7686 8888,https://www.facebook.com/ApresFoodCo/,hello@apresfood.com
Around my Gluten Free Table,Bakery,"411 Huronia Rd., Unit 10","Barrie, Ontario, Canada L4N 9B3",http://www.amgft.com/,1 705-722-0668,https://www.facebook.com/aroundmyglutenfreetablebarrie,
Asian Box,Cafe,"2121 Cloverfield Boulevard
","Santa Monica, CA 90404
",http://www.asianbox.com,1 424-280-4607,https://www.facebook.com/AsianBoxEats/,
Asian Box,Cafe,"Brokaw Plaza
1078 E Brokaw Road
","San Jose, CA 95131
",http://www.asianbox.com,1 408-441-0477,https://www.facebook.com/AsianBoxEats/,
Asian Box,Cafe,"2031 Chestnut Street
","San Francisco, CA 94123",http://www.asianbox.com,1 415-288-3688,https://www.facebook.com/AsianBoxEats/,
Asian Box,Cafe,"855 El Camino Real
","Palo Alto, CA 94301
",http://www.asianbox.com,1 650-391-9305,https://www.facebook.com/AsianBoxEats/,
Asian Box,Cafe,142 Castro St.,"Mountain View, CA 94041",http://www.asianbox.com,1 650-584-3947,https://www.facebook.com/AsianBoxEats/,
Asian Box,Cafe,"10250 Santa Monica Boulevard
","Los Angeles, CA 90067",http://www.asianbox.com,1 310-203-9702,https://www.facebook.com/AsianBoxEats/,
Asian Box,Cafe,445 South Figueroa Street,"Los Angeles, CA, 90071",http://www.asianbox.com,1 213-265-7955,https://www.facebook.com/AsianBoxEats/,
Asian Box,Cafe,"Campus Plaza 
4503 Campus Drive ","Irvine, CA 92612",http://www.asianbox.com,1 949-769-6196,https://www.facebook.com/AsianBoxEats/,
Asian Box,Cafe,1875 South Bascom Avenue,"Campbell, CA 95008
",http://www.asianbox.com,1 408-628-4228,https://www.facebook.com/AsianBoxEats/,
Asian Box,Cafe,"1401 Burlingame Avenue
","Burlingame, CA 94010
",http://www.asianbox.com,1 650-315-2582,https://www.facebook.com/AsianBoxEats/,
Atentti Gluten Free,Bakery,Superi 620  ,"Rosario, Santa Fe, Argentina",,54 341 297-7283,https://www.facebook.com/atenttiglutenfree/,
Athlete's Kitchen,Cafe,171 E Liberty St Unit 131,"Toronto, Ontario, Canada M6K 3P6",https://athleteskitchen.ca/,1 416-516-0101,,oscar@athleteskitchen.ca
Back to Eden Bakery,Food Truck,4804 SE Woodstock Blvd ,"
Portland, OR 97206
",https://www.backtoedenbakery.com/,1 503-477-5022,https://www.facebook.com/backtoedenbakery,
Back to Eden Bakery,Bakery,2217 NE Alberta St,"Portland, OR 97211
",https://www.backtoedenbakery.com/,1 503-477-5022,https://www.facebook.com/backtoedenbakery,
Back to Eden Bakery,Bakery,"2215 NE Alberta St
","Portland, OR 97211
",https://www.backtoedenbakery.com/,1 503-477-5022,https://www.facebook.com/backtoedenbakery,
Bake Free,Bakery/Cafe,"681/5 Patak Road
Karon","Mueang, Phuket 83100 Thailand
",http://www.bakefree.co/,66 94 583 3262,https://www.facebook.com/bakefreestore/,
Bake Free,Bakery/Cafe,"45/40 Moo 1 Soi Ta-iead, Chalong,","Muang, Phuket 83130, Thailand
",http://www.bakefree.co/,66 92 516 4021,https://www.facebook.com/bakefreestore/,
Bake Free,Bakery/Cafe,"5/61, Moo Viset Rd, Rawai, Muang","Phuket 83130 Thailand
",http://www.bakefree.co/,66 92 516 4021,https://www.facebook.com/bakefreestore/,
Bake Free,Bakery/Cafe,Qornet Chahwan,"Metn, Lebanon",http://www.bakefree.co/,961 76 972 979,https://www.facebook.com/bakefreestore/,
Bites of Delight,Bakery,"Rabweh, Sargi food street Dagher Building 1st Floor","Mount Lebanon, Lebanon",http://bites-of-delight.com,961 70 487 796,,
Bake Me Happy,Bakery,"106 E Moler St
","Columbus, OH 43207",https://www.bakemehappygf.com/,1 614-477-3642,https://www.facebook.com/BakeMeHappyGF/,bakemehappygf@gmail.com
Baker Street Bakeshop,Bakery,"order online or call
","Coopersburg, PA",http://bakerstreetbakeshop.com/,1 484-272-2193,https://www.facebook.com/BakerStreetBakeshop/,contactus@bakerstreetbakeshop.com
Bam Bam Bakery,Bakery,267 Commercial St,"Portland, ME 04101",http://bambambakery.com/,1 207-8994100,https://www.facebook.com/BamBamBakery/?ref=ts,info@bambambakery.com
Bangkok Canteen,Restaurant,72 Westgate St.,"Gloucester, UK GL1 2NZ",http://www.bangkokcanteen.co.uk,44 1452 306288,https://www.facebook.com/BKKCanteenUK/,info@bangkokcanteen.co.uk
Bare Naked Bakery and Cafe,Bakery/Cafe,16 Manetto Hill Road,"Plainview, NY 11803
",http://www.barenakedbakery.com/,1 516-513-0598,,info@barenakedbakery.com
Bare Naked Bakery and Cafe,Bakery/Cafe,2572 Merrick Rd,"Bellmore, NY 11710",http://www.barenakedbakery.com/,1 516-809-7370,,info@barenakedbakery.com
Be Bop,Restaurant,"viale col di lana, 4
","Milan, Italy 20136
",http://www.bebopristorante.it/,39 02 837 6972,https://www.facebook.com/BeBopRistorante,
Beach Town Bakery,Bakery,"307 Cedar Point Blvd.
","Cedar Point, NC 28584
",http://beachtownbakery.com/,1 252-503-3345,https://www.facebook.com/BeachTownBakery/,
Beaming Organic Super Food Cafe,Cafe,"605 N La Cienega Blvd.
","West Hollywood, CA 90069",http://www.livebeaming.com/,1 310-299-7691,,
Beaming Organic Super Food Cafe,Cafe,1426 Montana Avenue,"Santa Monica, CA 90403",http://www.livebeaming.com/,1 310-299-7622,,
Beaming Organic Super Food Cafe,Cafe,300 E Colorado Blvd #201,"Pasadena, CA 91101
",http://www.livebeaming.com/,1 626-360-3103,,isabelle.deburgh@livebeaming.com
Beaming Organic Super Food Cafe,Cafe,"131 S. Barrington Avenue
","Los Angeles, CA 90049
",http://www.livebeaming.com/,,,isabelle.deburgh@livebeaming.com
Beaming Organic Super Food Cafe,Cafe,"10250 Santa Monica Blvd
","Los Angeles, CA 90067",http://www.livebeaming.com/,1 310-421-4500,,isabelle.deburgh@livebeaming.com
Beaming Organic Super Food Cafe,Cafe,"LAX @ Terminal 1
Terminal 1, Southwest","
Los Angeles, CA",http://www.livebeaming.com/,,,isabelle.deburgh@livebeaming.com
Beaming Organic Super Food Cafe,Cafe,"7863 Girard Ave, Suite 201","
La Jolla, CA 92037
",http://www.livebeaming.com/,1 858-263-1702,,isabelle.deburgh@livebeaming.com
Beaming Organic Super Food Cafe,Cafe,"7710 El Camino Real
","La Costa, CA 92009",http://www.livebeaming.com/,1 760-944-3331,,isabelle.deburgh@livebeaming.com
Beaming Organic Super Food Cafe,Cafe,2683 Via de la Valle,"
Del Mar, CA 92014
",http://www.livebeaming.com/,1 858-481-1222,,isabelle.deburgh@livebeaming.com
Bears & Raccoons,Cafe,"21 rue Richard Lenoir
","Paris, France 75011",http://bearsandraccoons.com/,33 9 51 67 87 71,https://www.facebook.com/bearsandraccoons/,bearsandraccoons@gmail.com
Beefsteak,Cafe,7661 Melrose Ave,"
Los Angeles, CA 90046
",https://www.beefsteakveg.com/,1 323-424-7443,,INFO@BEEFSTEAKVEG.COM
Beiju ,Cafe/Restaurant,"Street of the European Champions
 28/198, Store 315A
 ","Porto, Portugal 4350-414
",https://beijutapiocaria.com,351 21 605 2532,https://www.facebook.com/tapiocabeiju/,info@beijutapiocaria.com
Beiju ,Cafe/Restaurant,"Rua de Santa Catarina 326A, store 4.07","
Porto, Portugal 4000-443
",https://beijutapiocaria.com,351 21 605 2532,https://www.facebook.com/tapiocabeiju/,info@beijutapiocaria.com
Beiju ,Cafe/Restaurant,Amoreiras Shopping Center - Piso 1 Av. Eng. Duarte Pacheco,"Lisbon, Portugal 1250-096",https://beijutapiocaria.com,,https://www.facebook.com/tapiocabeiju/,info@beijutapiocaria.com
Beiju ,Cafe/Restaurant,"Rua Dom Duarte
4A Santa Maria Maior","
Lisbon, Portugal 1100-198",https://beijutapiocaria.com,351 21 605 2532,https://www.facebook.com/tapiocabeiju/,info@beijutapiocaria.com
Beiju ,Cafe/Restaurant,"National Road 9 Cascais Kitchen 
Kiosk 4 Cascais
","Portugal 2645-543
",https://beijutapiocaria.com,351 21 605 2532,https://www.facebook.com/tapiocabeiju/,info@beijutapiocaria.com
Benefit Your Life Gluten Free Market & Bakery,Bakery,"620 N Campbell Station Rd, Ste 24","Knoxville, TN 37934",http://www.benefityourlife.com/,1 865-288-3193,https://www.facebook.com/Benefit-Your-Life-Gluten-Free-Market-Bakery-263566147733/?ref=bookmarks,
Better Bites Bakery,Bakery,"11190 Circle Dr
","Austin, TX 78736
",http://www.betterbitesbakery.com,1 512-350-2271,https://www.facebook.com/Betterbitesbakery/,Rachel@betterbitesbakery.com
Beyond Bread,Bakery,Selfridges Food Hall Selfridges,"400 Oxford Street London, UK W1A 1AB",http://www.beyondbread.co.uk/,44 (0) 2073 183 069,https://www.facebook.com/GlutenFreeBeyondBreadBakery/,info@beyondbread.co.uk
Beyond Bread,Bakery,Islington 267 Upper Street,"London, UK N1 2UQ",http://www.beyondbread.co.uk/,44 (0) 2071 833 213,https://www.facebook.com/GlutenFreeBeyondBreadBakery/,info@beyondbread.co.uk
Beyond Bread,Bakery,Fitzrovia 2 Charlotte Place,"London, UK W1T 1SB",http://www.beyondbread.co.uk/,44 (0) 2076 367 055,https://www.facebook.com/GlutenFreeBeyondBreadBakery/,info@beyondbread.co.uk
Big Mike's Gluten Free,Bakery,4602 Coral Ridge Dr,"Coral Springs, FL 33076",https://www.bigmikesglutenfree.com/,1 954-906-8580,https://www.facebook.com/Big-Mikes-Gluten-Free-Baking-Company-538102126295038/,bigmikesglutenfree@gmail.com
Bistro Manalu,Restaurant,Piazza della Vittoria 9,"
Livorno, Italy 57125",http://www.bistrotmanalu.it,39 0586 958326,https://www.facebook.com/bistrotmanalu,
BitterSweet Gluten Free Bakery,Bakery,2105 Cliff Road,"Eagan, MN 55122",http://bittersweetgf.com/,1 651-686-0112,,info@bittersweetgf.com 
Black Ruby Bakeries,Bakery,841 High Street,"Thornbury, Victoria, Australia 3071",,Phone: +61 3 9484 9608,https://www.facebook.com/blackrubybakeries/,
Blondies Vegan Bakery & Cafe,Bakery/Cafe,870 N Congress Ave Suite 110,"Boynton Beach, FL 33426",https://www.blondiesvegan.com/,1 561-767-9066,https://www.facebook.com/blondiesveganbakery/,
Blooming Beets,Restaurant,3303 30th St,"Boulder, CO 80301",http://www.bloomingbeets.com/,1 303-443-3479,https://www.facebook.com/bloomingbeets,iva@bloomingbeets.com
Breakaway Bakery,Bakery,"5264 W. Pico Blvd.
","Los Angeles, CA 90019
",http://breakawaybakery.com/,1 310-968-9380,,breakawaybakery@gmail.com
Brightwok Kitchen,Cafe,21 E Adams St.,"Chicago, IL 60603",https://www.facebook.com/brightwok,1 312-583-0729,https://www.facebook.com/brightwok,hi@brightwok.com
Brio Gluten Free Bakery,Bakery,"Piazzetta Napoleone, 10 San Martino
","Buon Albergo, Italy 37036
",http://www.brioglutenfreebakery.com/,39 327 244 5333,https://www.facebook.com/Brio-Gluten-Free-Bakery-1475758559376276/,
Buddha-Full,Cafe,"106 West 1st Street
","North Vancouver, British Columbia, Canada V7M 1A9",https://www.buddha-full.ca,1 604-973-0231,https://www.facebook.com/Buddhafullcafe,info@buddha-full.ca
Bulletproof Coffee,Cafe,"3110 Main St
","Santa Monica, CA 90405
",https://bulletproofcoffee.com/welcome,1 310-399-1764,,
Bulletproof Coffee,Cafe,300 S Santa Fe Ave,"
Los Angeles, CA 90013
",https://bulletproofcoffee.com/welcome,1 213-265-7040,https://www.facebook.com/Bulletproof/,
Bunch Bakeshop,Bakery,"4647 Highway 280
","Birmingham, AL 35242",http://thefunkymuffinbakery.com/,1 205-408-9825,https://www.facebook.com/TheFunkyMuffinBakery/,info@bunchbakeshop.com
Bunner's,Bakery,244 Augusta Ave,"Toronto, Ontario, Canada M5T 2L7",http://www.bunners.ca/,1 647-350-2975,https://www.facebook.com/BunnersBakeShop,junction@bunners.ca
Bunner's,Bakery,3054 Dundas St. West,"Toronto, Ontario, Canada M6P 1Z7",http://www.bunners.ca/,1 647-352-2975,https://www.facebook.com/BunnersBakeShop,junction@bunners.ca
By the Way Bakery,Bakery,1236 Lexington Avenue,"New York, NY 10028",http://www.btwbakery.com,1 212-988-3300,https://www.facebook.com/bythewaybakery/,helene@btwbakery.com
By the Way Bakery,Bakery,2442 Broadway,"New York, NY 10024",http://www.btwbakery.com,1 212-877-0806,https://www.facebook.com/bythewaybakery/,helene@btwbakery.com
By the Way Bakery,Bakery,"574 Warburton Ave
","Hastings-on-Hudson, NY 10706",http://www.btwbakery.com,1 914-478-0555,https://www.facebook.com/bythewaybakery/,helene@btwbakery.com
By the Way Bakery,Bakery,19 East Putnam Avenue,"Greenwich, CT 06830",http://www.btwbakery.com,1 203-489-3610,https://www.facebook.com/bythewaybakery/,helene@btwbakery.com
Cafe Avalaun,Cafe/Restaurant,"4640 Richmond Road 
","Warrensville Heights, OH 44128",http://www.cafeavalaun.com,1 216-245-6666,http://www.facebook.com/cafeavalaun,cafeavalaun@gmail.com
Cafe Henkel,Cafe,"102 Henkel Street
","Brunswick, Victoria, Australia 3056",,61 3 9381 0099,https://www.facebook.com/cafehenkel/?ref=br_rs,
Cafe Mareva,Cafe,"38 Rue du Faubourg-du-Temple
","Paris, France 75011
",https://www.cafemareva.com/,33 1 43 38 64 57,https://www.facebook.com/cafemareva/,info@cafemareva.com
Cafe Umami,Cafe,60 Goldie Street Wynyard,"Tasmania, Australia 7325",,61 3 6442 4799,https://www.facebook.com/cafeumami60/,
Caffe Strada,Cafe,197 Upper Heidelberg Rd,"Ivanhoe, Victoria, Australia 3079",http://www.caffestrada.com.au,61 3 9497 4875,https://www.facebook.com/Caffe-Strada-150125135026435/,info@caffestrada.com.au
Cal Marius,Restaurant,"Mallorca, 449
","Barcelona, Spain 08013
",http://www.calmarius.es,34 674 91 06 70,https://www.facebook.com/calmarius452/,info@calmarius.es
Capitol Cider,Restaurant,818 E Pike St,"Seattle, WA 98122",http://capitolcider.com,1 206-397-3564,https://www.facebook.com/CapitolCider,info@capitolcider.com
Carmine,Bakery,"Corso Antonio Gramsci 22
","Pistoia, Italy 51100
",,39 393 102 2864,https://www.facebook.com/carminebiorganic/?ref=nf,
Celiac Specialties Gluten Free Bakery,Bakery,1928 Star Batt Dr Suite D,"Rochester Hills, MI 48309",http://www.baking-glutenfree.com/,1 248-860-0680,https://www.facebook.com/CeliacSpecialties/,priscilla@baking-glutenfree.com
Celicioso ,Bakery,"Calle Barquillo, 19","Madrid, Spain 28004",http://www.celicioso.com/default.aspx,34 915 31 88 87,,
Celifamily Gluten Free,Bakery,Ocarrol 560,"Rancagua, Chile 2840483",http://www.celifamilyglutenfree.cl,56 9 5284 3115,https://www.facebook.com/celifamilyglutenfree/,
Chaia ,Restaurant,"3207 Grace Street, NW","Washington, D.C. 20007
",https://www.chaiadc.com/,1 202-333-5222,https://www.facebook.com/ChaiaDCtacos,info@chaiadc.com
Chambelland,Bakery,"14 rue ternaux
","Paris, France 75011
",http://chambelland.com/,33 1 43 55 07 30,https://www.facebook.com/boulangeriechambelland?fref=ts,contact@chambelland.com
Chambelland,Bakery,"42, University, Avenue","Brussels, Belgium 1050",http://chambelland.com/,32 2 751 48 44,https://www.facebook.com/boulangeriechambelland?fref=ts,contact@chambelland.com
Cherbourg Bakery,Bakery,"541 S Drexel Ave
","Columbus, OH 43209
",http://www.cherbourgbakery.com/,1 614-725-4560 ,https://www.facebook.com/Cherbourg-Bakery-171087912917457/,info@cherbourgbakery.com
Chiang Mai Gluten-free CakeAway,Bakery/Cafe,Wuolai Road Lane 2 19,"
Chiang Mai, Thailand 50100",,66 93 291 9361,https://www.facebook.com/Chiang-Mai-Gluten-free-CakeAway-Pink-House-Garden-372551956286935/,
Choice Healthy Foods,Bakery,"7/F BT Centre
23 Wong Chuk Hang Rd","Aberdeen, Hong Kong 2677 7808",,852 2345 8370,https://www.facebook.com/choicehealthyfoods/,
Cloud 9 Specialty Bakery,Bakery,1025 Royal Avenue,"New Westminster, British Columbia, Canada V3M 1K3",http://www.cloud9specialtybakery.com,1 604-249-5008,https://www.facebook.com/Cloud9SpecialtyBakery/,info@cloud9specialtybakery.com
Cocoabeans Bakeshop,Cafe/Bakery,"774 Corydon Avenue
","Winnipeg, Manitoba, Canada R3M 0Y1",http://www.cocoabeansbakeshop.com,1 204-691-6046,,orders@cocoabeansbakeshop.com
Colors,Restaurant,"178 Stanton Street
","New York, NY 10002
",http://www.colorsrestaurantnyc.com/,1 212-777-8443,,
Confluence Kombucha,Cafe,4507 Manchester Avenue,"St. Louis, MO 63110",http://www.confluencekombucha.com,1 314-833-3059,https://www.facebook.com/confluencekombucha,
Cookies and Scream,Bakery,130 Holloway Road,"London, UK N7 8JE",http://www.cookiesandscream.com/,44 7778 691519,,chick@cookiesandscream.com
Cooking Time Gluten Free,Bakery,"Laprida 1954
Recoleta, Distrito Federal","Buenos Aires, Argentina 1425",https://www.facebook.com/CookingTimeBsAs/,54 11 4807-1272,https://www.facebook.com/CookingTimeBsAs/,
Coquette's Bistro & Bakery,Restaurant,616 S Tejon St,"Colorado Springs, CO 80903",http://coquettesbistro.com/,1 719-685-2420,https://www.facebook.com/CoquettesBistro/,
Corbett Fish House,Restaurant,19206 SE 1st Street,"Camas, WA 98607",http://www.corbettfishhouse.com/,1 360-258-1609,https://www.facebook.com/corbettfishhouse/,mediam@corbettfishhouse.com
Corbett Fish House,Restaurant,4343 SE Hawthorne Blvd,"
Portland, OR 97215
",http://www.corbettfishhouse.com/,1 503-548-4434,https://www.facebook.com/corbettfishhouse/,mediam@corbettfishhouse.com
Corbett Fish House,Restaurant,"5901 SW Corbett Ave
","Portland, OR 97239
",http://www.corbettfishhouse.com/,1 503-246-4434,https://www.facebook.com/corbettfishhouse/,mediam@corbettfishhouse.com
Corbin's Confections,Bakery,18 E Main St,"Salem, VA 24153",,1 540-404-0300,https://www.facebook.com/Corbinsconfections/,
Cosme,Restaurant,35 E 21st St,"New York, NY 10010",http://www.cosmenyc.com/,1 212-913-9659,,
Cultured Caveman,Food Truck,"Check website for schedule
","Portland, OR",http://culturedcavemanpdx.com/,,https://www.facebook.com/CulturedCavemanPDX/,CulturedCavemanPDX@gmail.com
Cultured Caveman,Restaurant,8233 N Denver Ave,"Portland, OR 97217",http://culturedcavemanpdx.com/,1 971-254-4948,https://www.facebook.com/CulturedCavemanPDX/,CulturedCavemanPDX@gmail.com
Culver City Salads,Food Truck,"Check website for schedule
","Vancouver, Canada",http://www.culvercitysalads.com,1 604-306-0383,,info@culvercitysalads.com
Cycle Bistro,Cafe,"Dubai Motor City Autodrome
","Dubai, UAE 478414",http://thecyclebistro.com/,971 4 425 3000,https://www.facebook.com/thecyclebistro/,frane@thecyclehub.com
Dana's Bakery,Bakery,"1011 Third Ave (at 60th St.)
","New York, NY 10065
",https://www.danasbakery.com/,1 800-477-1816,,info@danasbakery.com
De Healthy Baker,Bakery,3848 Main Street,"Niagra Falls, Ontario, Canada L2G 6B2",http://www.dehealthybaker.ca,1 905-295-6500,,dehealthybaker@gmail.com
Deanna's Gluten Free,Bakery,"2250 S Escondido Blvd, Ste 110","Escondido, CA 92025",https://www.deannasglutenfree.com/,1 760-432-6100,https://www.facebook.com/Deannas-Gluten-Free-Bakery-87470539141/,Info@DeannasGF.com
Deby's GF,Bakery,"2369 South Trenton Way, Suite M
","Denver, CO, 80231",https://debysglutenfree.com/,1 303-283-4060,,info@debysglutenfree.com
Dedicated,Bakery,"4500 E Speedway Blvd, Suite 41
","Tucson, AZ 85712
",https://www.dedicatedgf.com,1 520-209-2872,,admin@dedicatedgf.com
Dee's One Smart Cookie,Bakery,103 New London Turnpike,"
Glastonbury, CT 06033
",http://www.deesonesmartcookie.com/,1 860-633-8000,https://www.facebook.com/Dees-One-Smart-Cookie-Allergen-Free-Bakery-140459231851/,dee@deesonesmartcookie.com
Defloured,Bakery,1447 W Balmoral Ave.,"Chicago, IL 60640",http://deflouredbakery.com/,1 773-234-5733,https://www.facebook.com/Defloured/,info@deflouredbakery.com
Delhicious ,Restaurant,91 Upper Heidelberg Road,"Ivanhoe, Victoria, Australia 3079",http://delhiciouscuisine.com.au,61 3 9499 1053,https://www.facebook.com/Delhicious-344349635939646/?hc_ref=PAGES_TIMELINE&fref=nf,info@delhiciouscuisine.com.au
Delish Gluten Free Bakery,Bakery,1730 Coast Meridian Rd,"Port Coquitlam, British Columbia, Canada V3C 6R8",http://delishglutenfree.com,1 604-945-9994,,info@delishglutenfree.com
Infiniti C,Bakery,"Shop 6,40 Forbes Street The Hudson","Kennedy Town, Hong Kong",,852 3460 4996,https://www.facebook.com/Infinitichk/,
Dempsey Bakery,Bakery,"323 S Cross St., Ste B
","Little Rock, AR 72201
",http://www.dempseybakery.com/,1 501-375-2257,https://www.facebook.com/Dempsey-Bakery-211651025519197/,
Different Blend Bakery,Bakery,"3403 Carman Rd
","Schenectady, NY 12303
",http://www.differentblendbakery.com,1 518-355-3008,https://www.facebook.com/DifferentBlend,
Donna Marie's Gluten Free Bakery,Bakery,"1694 Penfield Rd
","Rochester, NY 14625",http://www.donnamariesbakery.com/,1 585-397-0649,https://www.facebook.com/RochestersBestGF/,Info@DonnaMariesBakery.com
Duke's Bakery,Bakery,162 Columbia St,"Fall River, MA 02721",,1 508-837-0624,https://www.facebook.com/dukesbakery/,
Eat Performance,Cafe/Online Store,Rennbahnstr 87,"Berlin, Germany 13086",https://eat-performance.com,49 30 4432640,https://www.facebook.com/eatperformance/,info@eat-performance.com
Eats and Treats,Cafe/Restaurant,1644 Main Street,"Philomath, OR 97370",http://eats-treats.com/,1 541-307-0225,,mchenry.lynda@gmail.com
Ecru,Restaurant,Via Acciaioli 13,"
Rome, Italy 00186
",http://www.ecrurawfood.it/,39 393 102 2864,https://www.facebook.com/ecrurawfood/?fref=ts,
El Arepazo,Restaurant,181 Augusta Ave.,"Toronto, Ontario, Canada M5T 2L4",http://arepazo.ca/,1 647-729-5290,https://www.facebook.com/arepazoTO,info@arepazo.ca
Elegant Elephant Baking Co.,Food Truck,150 Shelton Mcmurphey Blvd,"Eugene, OR 97401",http://www.elegantelephantbaking.com/,1 541-556-7540,https://www.facebook.com/ElegantElephantBakingCo/?fref=ts,elegantelephantbaking@gmail.com
Elemental Eats,Food Truck,"2 Mana Esplanade
","Porirua, New Zealand 5381",http://elementaleats.co.nz,,https://www.facebook.com/ElementalEats/posts/1018686268217260:0,elementaleats@gmail.com
Elisa's Love Bites,Bakery,,"Brooklyn, NY",https://elisaslovebites.com/,,https://www.facebook.com/elisaslovebites,info@elisaslovebites.com
Erik's Fish and Chips,Food Truck,54 Ardmore St,"Wanaka, New Zealand 9305",http://www.eriksfishandchips.co.nz,64 03-441-3474,https://www.facebook.com/eriksfishandchips/,anna@eriksfishandchips.co.nz 
Erin McKenna’s Bakery,Bakery,"236 North Larchmont Blvd.
","Los Angeles, CA 90004
",https://www.erinmckennasbakery.com/,1 855-462-2292,https://www.facebook.com/erinmckennasbakery,info@erinmckennasbakery.com
Ethel's Baking Company,Bakery,22314 Harper Ave.,"St. Clair Shores, MI 48080",http://ethelsedibles.net/,1 586-552-5110,https://www.facebook.com/EthelsEdiblesGF,info@ethelsedibles.net
Everybody Eats,Bakery,"294 3rd Ave
","Brooklyn, NY 11215
",http://everybodyeats-inc.com/,1 718-369-7444,https://www.facebook.com/Everybody-Eats-INC-1029513900450798/?ref=aymt_homepage_panel,info@everybodyeats-inc.com
Ezra's Englighted Cafe,Cafe,"6516 Ferguson St
","Indianapolis, IN 46220
",https://ezrasenlightenedcafe.com/,1 317-255-3972,https://www.facebook.com/EzrasEnlightenedCafe,info@ezrasenlightenedcafe.com
Fatamorgana ,Ice Cream,"Via Adda, 103 - 00198
","Rome, Italy",http://www.gelateriafatamorgana.com/web/,39 06 8880 5474,https://www.facebook.com/Fatamorgana.Gelaterie/,info@fmgelato.com
Fatamorgana ,Ice Cream,"12021 Ventura Blvd
","Los Angeles, CA 91604",http://www.gelateriafatamorgana.com/web/,1 818-606-0273,https://www.facebook.com/Fatamorgana.Gelaterie/,
Feed Me Primal,Cafe,Unit 31 Boxpark,"Croydon, UK CR0 1LD",https://www.feedmeprimal.co.uk,,https://www.facebook.com/feedmeprimal/,info@feedmeprimal.co.uk
Feel Good Guru,Catering/Meal Delivery,135 Tecumseth Street,"Toronto, Ontario, Canada M6J 2H2",http://feelgoodguru.com/,1 647-748-5800,,moira@feelgoodguru.com
Firin,Bakery,"Hawalli, Tunis Street Block 3
Building 213/1, Store 9","Kuwait City, Kuwait",https://www.firin.co/,965 22666100,https://www.facebook.com/firinbakery,contact@firin.co
Fita Crepe Bar,Restaurant,"Rua Itupava, 1670 Alto da XV
","Curitiba, Brazil 80045-330",https://www.fitacrepebar.com.br/,55 41 3779 0963,,recrutamento@fitacrepebar.com.br
Five,Restaurant,"69 rue Moncey
","Lyon, France 69003",http://www.restaurantfive.com/,33 9 54 11 05 76,https://www.facebook.com/fiverestaurants/,
Five on Black,Cafe,325 North Higgins,"Missoula, MT 59802",http://www.fiveonblack.com,1 406-926-1860,https://www.facebook.com/FiveonBlack/,tom@fiveonblack.com
Five on Black,Cafe,3850 S Reserve St Ste 140,"Missoula, MT 59801",http://www.fiveonblack.com,1 406-926-1305,https://www.facebook.com/FiveonBlack/,tom@fiveonblack.com
Five on Black,Cafe,242 East Main,"Bozeman, MT 59715",http://www.fiveonblack.com,1 406-551-2692,https://www.facebook.com/FiveonBlack/,tom@fiveonblack.com
Five on Black,Cafe,"1617 California St
","Denver, CO 80202",http://www.fiveonblack.com,1 720-904-5505,https://www.facebook.com/FiveonBlack/,tom@fiveonblack.com
Five on Black,Cafe,"1805 29th St Suite 1138
","Boulder, CO 80301",http://www.fiveonblack.com,1 303-402-5000,https://www.facebook.com/FiveonBlack/,tom@fiveonblack.com
Flour Chylde Gluten-Free Bakery,Bakery,702 San Anselmo Ave,"San Anselmo, California 94960",http://flourchylde.com,1 415-453-3100,,info@flourchylde.com
Flour Chylde Gluten-Free Bakery,Bakery,850 Grant Ave.,"Novato, CA 94945",http://flourchylde.com,1 415-893-7700,,info@flourchylde.com
Flour Craft Bakery,Bakery,129 Miller Avenue #300,"Mill Valley, CA 94941",https://flourcraftbakery.com/,1 415-384-8244,https://www.facebook.com/flourcraft,info@flourcraftbakery.com
Flying Apron,Bakery,"3510 Fremont Ave N
","Seattle, WA 98103
",http://www.flyingapron.com/,1 206-442-1115,,info@flyingapron.com
Flying Apron,Bakery,"16541 Redmond Way, Ste E
","Redmond, WA 98052
",http://www.flyingapron.com/,1 206-442-1115,,info@flyingapron.com
Food for Good Thought,Bakery,"4185 N High Street
","Columbus, OH 43214
",https://www.foodforgoodthought.com/gluten-free-bakery/,1 614-447-0424,,sarah@foodforgoodthought.com
Foucade,Bakery/Cafe,17 rue Duphot,"Paris, France 75001",http://www.foucadeparis.com/,33 1 42 36 11 81,https://www.facebook.com/foucadeparis,afsaneh@linstantc.fr
Fox in the Box,Cafe/Restaurant,"169 Martin Street
","Brighton, Victoria, Australia 3186",http://www.foxinthebox.com.au,Phone: +61 3 9596 0133,https://www.facebook.com/eatingoutGF?ref=tn_tnmn,bookings@foxinthebox.com.au
Free - a Gluténmentes Pékség Fény utca,Bakery,Fény utca 16,"
Budapest, Hungary 1024
",,36 30 500 7994,https://www.facebook.com/freepekseg?fref=ts,
Fresh First,Cafe,1637 SE 17th Street,"Ft. Lauderdale, FL 33316",http://www.freshfirst.com,1 954-763-3344,,eat@freshfirst.com
Fresh Kitchen,Cafe,1350 S Howard Ave.,"Tampa, FL 33606",http://www.eatfreshkitchen.com,1 813-833-2201,https://www.facebook.com/eatfk/,
Fresh Kitchen,Cafe,"4447 4th Street N, Suite 2 St.","Petersburg, FL 33703",http://www.eatfreshkitchen.com,1 727-612-3600,https://www.facebook.com/eatfk/,
Fresh Kitchen,Cafe,8491 Cooper Creek Blvd.,"Sarasota, FL 34201",http://www.eatfreshkitchen.com,1 941-702-0614,https://www.facebook.com/eatfk/,
Fresh Kitchen,Cafe,851 North Alafaya Trail,"Orlando, FL 32828",http://www.eatfreshkitchen.com,1 561-657-1140,https://www.facebook.com/eatfk/,
Fresh Kitchen,Cafe,"5550 N Military Trail, Bay 214","Boca Raton, FL 33496",http://www.eatfreshkitchen.com,1 561-657-1140,https://www.facebook.com/eatfk/,
Fresh Levant Bistro,Cafe,"8450 Honeycutt Rd, Ste 106","Raleigh, NC 27615",http://freshlevant.com,1 984-200-3999,https://www.facebook.com/FreshLevant/,
Fresh Thymes,Restaurant,32500 30th St Unit 101,"Boulder, CO 80301",https://freshthymeseatery.com,1 303-955-7988,https://www.facebook.com/FreshThymesEatery/,help@freshthymeseatery.com
Friendly Food,Cafe,"?migielska 13A, 60-102
","Pozna?, Poland
",,48 665 450 858,https://www.facebook.com/Friendly-Food-204508862955624/,
Fruits & Roots,Cafe,6539 South Las Vegas Blvd. #110,"Las Vegas, NV 89119",http://fruitsnroots.com/,1 702-605-5922,,
Fruits & Roots,Cafe,5020 Blue Diamond Rd.,"Las Vegas, NV 89118",http://fruitsnroots.com/,1 702-790-1014,,
Fruits & Roots,Cafe,7885 W Sunset Rd #180,"Las Vegas, NV 89113",http://fruitsnroots.com/,1 702-202-0922,,
GF Edinburgh,Cafe,37 Dalry Road,"
Edinburgh, UK EH11 2BU
",,44 7515 342420,https://www.facebook.com/gfgoodfoodglutenfree/,
Girls Gone Vegan,Bakery,"order via website or phone
","New Orleans, LA",,1 504-510-3590,https://www.facebook.com/girlsgonevegannola,girlsgonevegannola@gmail.com
Glu Free Bakery,Bakery,"Via Curtatone, 6
","Milan, Italy 20122
",http://www.glufreebakery.it/it/,39 02 5401 9723,https://www.facebook.com/GlufreeBakery/,info@glufreebakery.it
Glu Free Bakery,Bakery,"Viale Gian Galeazzo 6
","Milan, Italy 20136
",http://www.glufreebakery.it/it/,39 02 3676 7679,https://www.facebook.com/GlufreeBakery/,info@glufreebakery.it
Glulu,Bakery,Böszörményi út 138,"
Debrecen, Hungary 4032",http://www.glulu.hu/,36-70-381-6219,https://www.facebook.com/glulupekmanufaktura,
Glunos,Bakery,"300 m Oeste de Taco Bell de San
Pe- dro, contiguo a la Embajada de Colombia
Barrio Dent","San José, Costa Rica",https://www.glunos.com,506 8825 6505,https://www.facebook.com/glunos/,info@glunos.com
Gluten Free 4 U,Bakery,"243 Dorset Road
","Boronia, Victoria, Australia 3155",https://glutenfree4u.com.au/,61 03 9761 1553,https://www.facebook.com/glutenfree4u,info@glutenfree4u.com.au
Gluten Free 4 U,Bakery,4/49 Beach Street,"Victoria, Australia 3199",https://glutenfree4u.com.au/,61 03 8762 8100,https://www.facebook.com/glutenfree4u,info@glutenfree4u.com.au
Gluten Free 4 U,Bakery,1345 Burke Road,"Kew Victoria, Australia 3101",https://glutenfree4u.com.au/,61 03 9817 6981,https://www.facebook.com/glutenfree4u,info@glutenfree4u.com.au
Gluten Free 4 U,Bakery,5 / 1-3 Bignell Road,"Moorabbin, Victoria, Australia 3189",https://glutenfree4u.com.au/,61 03 9555 5175,https://www.facebook.com/glutenfree4u,info@glutenfree4u.com.au
Gluten Free 4 U,Bakery,"110 Pakington Street
","Geelong West, Victoria, Australia 3218",https://glutenfree4u.com.au/,61 03 5229 9297,https://www.facebook.com/glutenfree4u,info@glutenfree4u.com.au
Gluten Free 4 U,Bakery,"2/3 Bishop Street, Woolner","Darwin, Northern Territory, Australia 0820",https://glutenfree4u.com.au/,61 0444 598 570,https://www.facebook.com/glutenfree4u,info@glutenfree4u.com.au
Gluten Free 4 U,Bakery,"1/22 Carrara Street, Mt Gravatt","Brisbane, Queensland 4122",https://glutenfree4u.com.au/,61 07 3849 2713,https://www.facebook.com/glutenfree4u,info@glutenfree4u.com.au
Vin-Chet Gluten Free Baked Goods,Bakery,2178 Kensington Ave.,"Amherst, NY 14226",https://vinchet.com/,1 716-839-0871,,info@VinChet.com
Gluten Free Bakery Girl,Bakery,"116 N. Talbot Street
","St. Michaels, MD 21663
",http://www.glutenfreebakerygirl.com/,1 801-792-3700,https://www.facebook.com/glutenfreebakerygirl/,glutenfreebakerygirl@gmail.com
Gluten free cafe littlebird,Cafe/Restaurant,"JP Building 3F, 1-1-20 Uehara 
","Shibuya-ku, Tokyo, Japan
",,81 3-3460-8282,https://www.facebook.com/cafe.littlebird/,gfree.littlebird@gmail.com
Gluten Free Creations,Bakery,"7607 E McDowell Rd Ste 108
","Scottsdale, AZ 85257",http://www.glutenfreecreations.com/,1 480-990-2253,https://www.facebook.com/GlutenFreeCreations/,glutenfreeenews@cox.net
Gluten Free Gem,Bakery,"140 NE Broadway St.
","Portland, OR 97232",http://www.glutenfreegem.com/,1 503-288-1508,https://www.facebook.com/glutenfreegem/,info@glutenfreegem.com
Gluten Free Gloriously,Bakery,267 Main Ave,"Stirling, NJ 07980",http://www.glutenfreegloriously.com/,1 908-647-7337,https://www.facebook.com/GlutenFreeGloriously/,
Gluten Free Goat Bakery & Cafe,Bakery/Cafe,4905 Penn Ave,"Pittsburgh, PA 15224",http://glutenfreegoat.com,1 412-362-1600,,contact@glutenfreegoat.com
Gluten Free Me Bakery and Cafe,Bakery/Cafe,748 Main Street,"Winchester, MA 01890",http://glutenfreeme.s3-website-us-east-1.amazonaws.com/home,1 781-570-2060,https://www.facebook.com/Gluten-Free-Me-1985412885018774/,info@glutenfreemebakery.com
Gluten Free Miracles,Bakery/Cafe,145 Burt Rd. #20,"Lexington, KY 40503",http://www.glutenfreemiracles.com,1 859-278-8888,https://www.facebook.com/GlutenFreeMiracles/,denise@glutenfreemiracles.com
Gluten Free Sensations,Bakery,53238 N US Highway 131,"Three Rivers, MI 49093",https://www.glutenfreesensations.com/,1 269-273-4090,https://www.facebook.com/gluten.free.sensations/,
Gluten Free Things,Bakery,"11651 West 64th Avenue, Suite A6
","Arvada, CO 80004
",https://glutenfreethings.com,1 303-668-1663,,
GlutenZero,Bakery,9500 S Eastern #130,"Las Vegas, NV 89123",http://www.glutenzerobakery.com/,1 702-767-3408,,cris@glutenzerobakery.com
Glutopia,Bakery,41 Market Place,"London, UK KT11JQ",http://www.glutopiabakery.com/,44 20 8974 5444,https://www.facebook.com/glutenguru/,hello@glutopiabakery.com
Gluuteny Bakery,Bakery,"1923 Murray Ave
","Pittsburgh, PA 15217
",https://www.gluuteny.com,1 412-521-4890,https://www.facebook.com/gluuteny,orders@gluuteny.com
Columbia Gorge Gluten Free,Bakery,740 E Steuben,"Bingen, Washington 98605",https://columbiagorgeglutenfree.com,1 541-645-0570,https://www.facebook.com/GorgeGlutenFree/?ref=ts,info@gorgeglutenfree.com
Gourmet Girls Gluten Free Bakery and Bistro,Bakery,"5845 N Oracle Rd
","Tucson, AZ 85704",http://www.gourmetgirlsglutenfree.com/,1 520-408-9000,https://www.facebook.com/GourmetGIrlsGlutenFree/,gourmet.girls@live.com   
Gout Gluten Free,Bakery,"Montevideo 1480
C1018 ACF","Buenos Aires, Argentina",http://www.goutglutenfree.com.ar/,54 11 4811-3701,https://www.facebook.com/GOUT-GLUTEN-FREE-112817558735825/?fref=ts,
Grams,Catering/Meal Delivery,16 Haymarket Terrace,"Edinburgh, United Kingdom EH12 5JZ",http://www.gramsedinburgh.com/,44 131 337 3599,https://www.facebook.com/gramsedinburgh,
Green Table,Cafe,"113 W de la Guerra St
","Santa Barbara, CA 93101
",https://green-table.com/,1 805-770-7721,https://www.facebook.com/greentablesb/,
Grezzo Raw Chocolate,Bakery,Via Urbana 130,"Rome, Italy 00184
",https://grezzorawchocolate.com/,39 06 483443,,
Guyot ,Restaurant,via Arnaldo da Brescia 3,"Milan, Italy
20159
",http://www.tavernaguyot.com/,39 02 8723 7103,https://www.facebook.com/Guyot-105030999563856/?ref=hl,
HaleLife Bakery,Bakery,3350 Ulmerton Rd. Suite 13,"Clearwater, FL 33762",https://www.halelifebakery.com,1 727-265-3372,https://www.facebook.com/HaleLifeBakery/,contact@halelifebakery.com
Hannah's Gluten Free Bakery,Bakery,"1830 Range Drive, Suite #102","Mesquite, TX 75149",http://www.hannahsglutenfreebakery.com/,1 469-708-9864,https://www.facebook.com/HannahsGlutenFreeBakery,
Hannah's Gluten Free Bakery,Bakery,"1010 S. Pearl Expressway
(Dallas Farmers Market - Weekend Pop Up Shop)","Dallas, TX 75201",http://www.hannahsglutenfreebakery.com/,1 469-708-9864,https://www.facebook.com/HannahsGlutenFreeBakery,
Happy Bellies Bake Shop,Bakery,2107 N Richmond St,"Appleton, WI 54911",http://happybelliesbakeshop.com/,1 920-730-2253,https://www.facebook.com/happybellies,rebecca@happybelliesbakeshop.com
Harlow,Restaurant,3632 SE Hawthorne Blvd,"Portland, OR 97214
",http://www.harlowpdx.com/,1 971-255-0138,https://www.facebook.com/HarlowRestaurant,info@harlowpdx.com
Harmony Bakery,Bakery,3446 Chestnut Ave.,"Baltimore, MD 21211",http://harmonybakery.net/,1 410-235-3870,https://www.facebook.com/Harmony-Bakery-930875086955009/,
Haven on Earth Bakery,Bakery,10855 Double R Blvd,"Reno, NV 89521",http://www.havenonearthbakery.com/,1 775-284-4200,https://www.facebook.com/havenonearthbakery,
Hawk Hallow,Bakery,15101 Chandler Rd,"Bath, MI 48808",https://sites.google.com/site/lansinghawkhollowsimplyfree/,1 517-641-4295,,simplyfree@hawkhollow.com
Healthy Creations,Cafe,"376 N El Camino Real
","Encinitas, CA 92024",WWW.HEALTHYCREATIONSCAFE.COM,1 760-479-0500,,lily@healthycreationscafe.com
Healthy Creations Inc.,Bakery,333 Dougall Square ,"Windsor, Ontario, Canada 9G 1S7",http://www.healthy-creations.com/,1 226-773-7881,https://www.facebook.com/HealthyCreationsInc/,bakery@healthy-creations.com
Healthy Creations Inc.,Bakery,502 Springbank Drive,"London, Ontario, Canada N6J 1G8",http://www.healthy-creations.com/,1 519-472-0111,https://www.facebook.com/HealthyCreationsInc/,bakery@healthy-creations.com
Healthy Creations Inc.,Bakery,33 Amy Croft Dr.,"Lakeshore, Ontario, Canada N9K 1C7",http://www.healthy-creations.com/,1 519-735-0090,https://www.facebook.com/HealthyCreationsInc/,bakery@healthy-creations.com
Heart of the City Bakery,Bakery,"235 N Main Ave
","Parker, SD 57053
",http://www.heartofthecitybakery.com/,1 605-929-9542,https://www.facebook.com/heartofthecitybakery/,orders@heartofthecitysf.com
Heaven Restaurant,Restaurant,#119 1013 17th Ave SW,"Calgary, Alberta, Canada T2T 0A7
",https://heavengf.com,1 403-249-3037,https://www.facebook.com/heavenyyc/,heavenartisancuisine@gmail.com
Hello Dinner,"Catering/Meal Delivery
",12646 West Fairview Avenue,"Boise, ID 83713",http://www.hellodinner.com,1 208-412-0752,,
Helmut Newcake,Bakery,"28 rue Vignon
","Paris, France 75009
",http://www.helmutnewcake.com/,33 9 81 31 28 31,https://www.facebook.com/Helmut-Newcake-255981944449043/,contact@helmutnewcake.com
Hemsley + Hemsley,Cafe,400 Oxford Street (Bond St Tube),"
London, UK W1A 1AB
",http://www.hemsleyandhemsley.com/,44 020 7318 3170,https://www.facebook.com/HemsleyHemsley,
Hi-Vibe,Cafe,160 W Kinzie,"Chicago, IL 60654",http://www.hi-vibe.com/,1 312-724-8423,https://www.facebook.com/HiVibeChicago/,holler@hi-vibe.com
Hillbilly Gluten Free Bake Shop and Icecream and Creamery,Bakery/Ice Cream,153 N Main St,"
Mount Airy, NC 27030
",,1 336-719-1688,https://www.facebook.com/Hillbilly-Gluten-Free-Bake-Shop-and-Creamery-1466236020290279/,
Honesto Gluten Free,Bakery,"R. Estados Unidos, 43","Sion Belo Horizonte, MG, Brazil 30315-270",http://www.honestoglutenfree.com/,55 31 3267 2423,,vendas@honestoglutenfree.com
Honey Hi,Cafe,1620 W Sunset Blvd,"
Los Angeles, CA 90026
",http://honeyhi.co,1 213-221-7810,,hi@honeyhi.co
House of Manchester,Restaurant,2256 Losee Rd. Suite E,"North Las Vegas, NV 89030",http://houseofmanchester.com/,1 702-900-4466,,BlueMahoeLV@gmail.com
Hu Kitchen,Cafe/Restaurant,78 5th Ave,"
New York, NY 10011
",https://hukitchen.com/,1 917-962-0375,https://www.facebook.com/HuKitchen,
I Heart Muffins Bakery,Bakery,"181 W. Harwood Rd.
","Hurst, TX 76054
",http://www.iheartmuffinsbakery.com/,1 817-280-0533,https://www.facebook.com/IHeartMuffinsBakery/,IHeartMuffinsBakery@yahoo.com
I Love My GFF,Food Truck,check website,"Seattle, WA",http://www.ilovemygff.com,,https://www.facebook.com/ilovemygff/,andrea@ilovemygff.com
Il Trifoglio,Restaurant,"Via Piano, 24","Pimonte, Italy 80050",,39 081 879 2138,https://www.facebook.com/Ristorante-Pizzeria-IL-TRIFOGLIO-114464765269790/?fref=ts,
Inday Restaurant,Restaurant,1133 Broadway,"
New York, NY 10010
",http://indaynyc.com,1 917-521-5012,https://www.facebook.com/indaynyc/,
Invita,Bakery/Cafe,"18 rue d’Aubuisson
","Toulouse, France 31000",https://www.invitafreshfood.com/accueil,33 5 34 66 86 57,https://www.facebook.com/Invitafreshfood/,
Isabella Glutenfreie Pâtisserie,Bakery,Arnulfstraße 4,"Du?sseldorf, Germany 40545",https://www.isabella-patisserie.de,49 0211 95599414,https://www.facebook.com/isabella.glutenfreie.patisserie/,
Isaura Bakery,Bakery,204 Diamond Bridge Ave,"Hawthorne, NJ 07506",http://www.ibglutenfree.com/,1 973-304 4500,,
Island Gluten Free Bakery,Bakery,1880 Stickney Point Rd,"Sarasota, FL 34231-8847",http://www.islandgfbakery.com/,1 941-923-0200,https://www.facebook.com/pages/Stellar-Gluten-Free/174859092669778,islandgfbakery@gmail.com
Italia In Tavola Glutenfree,Restaurant,Chaussée de Waterloo 790,"Uccle, Belgium 1180",,32 486 06 38 57,https://www.facebook.com/ItaliaInTavolaGlutenFree,
Izzi B's,Bakery,22 Knight Street,"Norwalk, CT 068",http://www.ibcakes.com,1 203-810-4378,,ordering@ibcakes.com
Izzy's Gluten Free,Bakery,online bakery,"Incheon, Korea",,,https://www.facebook.com/izzysbakery,
Jansana,Bakery,"Balmes, 106","
Barcelona, Spain 08008
",http://www.glutenfree.cat/,34 931 70 07 14,https://www.facebook.com/PastisseriaJansana/,
Jadon Foods,Bakery,"4343 N. Rancho Dr, Suite 120","Las Vegas, NV 89103",http://www.jadonfoods.com/,1 702-395-0249,,jadonfoods@jadonfoods.com
Jewel's Bakery,Bakery,"4041 E Thomas Rd
","Phoenix, AZ 85018
",http://www.jewelsbakeryandcafe.com/,1 602-714-5243,https://www.facebook.com/JewelsCupcakeShop,info@jewelsbakeryandcafe.com
Jo Jo's Gluten Free Goodies,Bakery,995 Kernot Loch Road,"Kernot, Victoria, Australia 3979",,"
61 404 605 086",https://www.facebook.com/Jo-Jos-Gluten-Free-Goodies-1446967141999887/,
Joey's Home Bakery Gluten Free,Bakery/Cafe,1532 SW 8th St,"Boynton Beach, FL 33426",http://www.joeyshomebakeryglutenfree.com/,1 561-292-4004,https://www.facebook.com/JoeysHomeBakeryGlutenFree/,joey@joeyshomebakeryglutenfree.com
Joy and Sweets,Bakery,"10818A Jefferson Blvd
","Culver City, CA 90230
",http://www.joyandsweets.com/,1 310-730-5362,,Amanda@joyandsweets.com
JP's Pastry,Bakery,"111 S Railroad St
","Benson, NC 27504
",http://jpspastry.com/,1 919-894-5000,,
Julie's Gluten Free Bakery,Bakery,6686 Wiltshire Street,"Chilliwack, British Columbia, Canada V2R1P3",,1 604-846-3223,https://www.facebook.com/julies.gluten.free.baking/,
Junior Baker,Bakery,165 Lochiel Street,"Sarnia, Ontario, Canada N7T 4C3",https://juniorbakersarnia.com,1 519-336-0440,,juniorbaker@cogeco.ca
Jurassic Cart,Food Truck,5205 SE Foster Rd ,"Portland,
OR 97206
",http://www.jurassiccart.com,1 971-413-3226,https://www.facebook.com/jurassiccart,jurassiccart@gmail.com
Just Be Kitchen,Cafe/Restaurant,2364 15th St,"Denver, CO 80202",http://justbekitchen.com/,1 303-284-6652,https://www.facebook.com/justbekitchen/,justbeyou@justbekitchen.com
Jute Bäckerei ,Bakery,"Schönhauser Allee 52a
","Berlin, Germany 10437",http://www.xn--jute-bckerei-lcb.de/,49 30 68006558,https://www.facebook.com/jutebaeckerei/,
Kara Lynn's ,Restaurant,421 Cleveland St,"Clearwater, FL 33755",https://karalynnskitchen.com/,1 727-447-2536,https://www.facebook.com/karalynnskitchen/,
Karma Baker,Bakery,1145 Lindero Canyon Rd Suite D3 ,"Westlake 
Village, CA 91362
",https://karmabaker.com,1 747-222-7379,,
Kathy's Creations Bakery,Bakery,2010 Crestview Avenue,"Alliance, OH 44601",http://www.kathyscreationsbakery.com/,1 330-821-8181,,info@kathyscreationsbakery.com
Kim & Jake's,Bakery,"641 S Broadway St
","Boulder, CO 80305
",https://kimandjakes.com,1 303-499-9126,https://www.facebook.com/Kim-and-Jakes-Cakes-164154820669/,info@kimandjakes.com
Kippy's,Ice Cream/Gelato,245 Main Street #3D,"Venice, CA 90291",https://www.kippysicecream.com/,1 424-387-8765,https://www.facebook.com/145802162283590,kippy@kippysicecream.com
Kippy's Coco-Cream,Ice Cream/Gelato,2-6-3 Sendagaya Shibuya-ku,"Tokyo, Japan 151-0051",http://kippyscococream.com/,81 03-6758-0620,,
Kirari West,Bakery,"707 N Pacific Coast Hwy
","Redondo Beach, CA 90277",https://www.kirariwest.com,1 310-376-5313,https://www.facebook.com/kirariwest/,hiro@kirariwest.com 
Kitava,Cafe,"2011 Mission Street
","San Francisco, CA 94110",https://www.kitava.com/,1 415-780-1661,https://www.facebook.com/kitavakitchen/,info@kitava.com
Kivi Paber Käärid,Restaurant,Telliskivi 60a C4,"Tallinn, Estonia 10412",http://kivipaber.ee,372 600 3626,https://www.facebook.com/kivipaberkaarid/,Liisi@kivipaber.ee
Kizbee’s Kitchen,Bakery,734 W White Horse Pike,"Egg Harbor City, NJ 08215",,1 609-553-3383,https://www.facebook.com/KizbeesKitchen,
Kleine Shoppe,Bakery,3027 Notre Dame West,"Saint-Henri, Quebec, Canada H4C 1N9",,1 514-379-1253,https://www.facebook.com/kleineshoppe/,
Kombuchi Brewing Co,Cafe,"Jalan Raya Batu Mejan No.73
","Badung, Bali, Indonesia 80351
",http://www.kombuchibrewingco.com,62 812-8742-8918,,kristierifkin@gmail.com
Kopi Cream,Cafe,"16 rue Daval
","Paris, France 75011",,33 6 30 39 79 54,https://www.facebook.com/kopicreamcoffee/,
Kupfert & Kim,Cafe,2313 Yonge Street ,"Toronto, Ontario, Canada M4P 2C6",http://www.kupfertandkim.com/#kupfertandkim,,https://www.facebook.com/kupfertandkim/,info@kupfertandkim.com
Kupfert & Kim,Cafe,100 Bloor Street West,"Toronto, Ontario, Canada M5S 3L7",http://www.kupfertandkim.com/#kupfertandkim,1 416-925-1222,https://www.facebook.com/kupfertandkim/,info@kupfertandkim.com
Kupfert & Kim,Cafe,140 Spadina Avenue,"Toronto, Ontario, Canada M5V 2L4",http://www.kupfertandkim.com/#kupfertandkim,1 416-504-2206,https://www.facebook.com/kupfertandkim/,info@kupfertandkim.com
Kupfert & Kim,Cafe,"First Canadian Place, 100 King Street West","Toronto, Ontario, Canada M5X 1C7",http://www.kupfertandkim.com/#kupfertandkim,1 416-504-1233,https://www.facebook.com/kupfertandkim/,info@kupfertandkim.com
Kupfert & Kim,Cafe,"Brookfield Place, 181 Bay Street ","Toronto, Ontario, Canada M5J 2T3",http://www.kupfertandkim.com/#kupfertandkim,1 416-601-1333,https://www.facebook.com/kupfertandkim/,info@kupfertandkim.com
Kupfert & Kim,Cafe,Waterpark Place 20 Bay Street,"Toronto, Ontario, Canada M6J 2N8",http://www.kupfertandkim.com/#kupfertandkim,1 416-360-5555,https://www.facebook.com/kupfertandkim/,info@kupfertandkim.com
Kupfert & Kim,Cafe,"Metro Centre, 200 Wellington Street West ","Toronto, Ontario, Canada M5V 3C7",http://www.kupfertandkim.com/#kupfertandkim,1 416-340-7445,https://www.facebook.com/kupfertandkim/,info@kupfertandkim.com
Kupfert & Kim,Cafe,150 King Street West,"Toronto, Ontario, Canada M5H 1J9",http://www.kupfertandkim.com/#kupfertandkim,1 416-260-7777,https://www.facebook.com/kupfertandkim/,info@kupfertandkim.com
Kupfert & Kim,Cafe,417 Rue Notre-Dame Ouest,"Montréal, Canada QC H2Y 1V2",http://www.kupfertandkim.com/#kupfertandkim,1 514-840-3614,https://www.facebook.com/kupfertandkim/,info@kupfertandkim.com
Kupfert & Kim,Cafe,733 Rue Cathcart,"Montreal, QC, Canada H3B 5L6",http://www.kupfertandkim.com/#kupfertandkim,,https://www.facebook.com/kupfertandkim/,info@kupfertandkim.com
Kye's,Cafe,1518 Montana Ave,"Santa Monica, CA 90403",http://www.kyesmontana.com,1 310-395-5937,https://www.facebook.com/KyesMontana?ref=br_tf,jeanne@kyesmontana.com
Kyra's Bake Shop,Bakery,"599 A Avenue
","Lake Oswego, OR 97034
",https://www.kyrasbakeshop.com,1 503-212-2979,https://www.facebook.com/kyrasbakeshop,info@kyrasbakeshop.com
L'Eden Libre De Gluten Strasbourg,Bakery,"15 place du temple neuf
","Strasbourg, France 67000",,33 3 90 41 74 95,https://www.facebook.com/edenstrasbourg/,
La Alacena,Bakery/Cafe,,"Santa Ana, Costa Rica",,506 2208 8740,https://www.facebook.com/LaAlacenaGF/,vivianber@gmail.com
La Casolana Gluten Free,Restaurant,"Músicos del chaco 7344
 c/ Mecánicos de aviación
","Asunción, Paraguay 1871
",,595 984 335075,https://www.facebook.com/pg/lacasolana/about/,
La Coutinelle,Bakery,"25 rue de l’université
","Montpellier, France 34000",http://www.lacoutinelle.fr/,33 4 67 60 95 41,https://www.facebook.com/LaCoutinelleMontpellier,
La Taguara,Cafe/Restaurant,"Carrer Rec, 10, bajos, El Born.","Barcelona, Spain 08003",http://www.lataguara.es/en/,34 932 68 15 72,https://www.facebook.com/lataguara/,
La Tortilleria,Restaurant,72 Stubbs Street,"Kensington, Victoria, Australia 3031",http://latortilleria.com.au,61 13 0055 6084,https://www.facebook.com/latortilleriaau,marketing@latortilleria.com.au
Les Gasteliers,Restaurant,123 rue de Sèze,"Lyon, France 69006",,33 4 78 24 87 11,https://www.facebook.com/Lesgasteliers/?hc_ref=SEARCH&fref=nf,
Le Botaniste NY,Restaurant,833 Lexington Ave,"New York, NY 10065",http://lebotaniste.us,1 917-262-0766,,
Le Marquis,Bakery,"367, Rue De Castelnau East","Montréal, Québec, Canada H2R 1R1",https://boulangerielemarquis.ca/en/,1 514-278-7047,,
Le point sans g,Cafe/Restaurant,6680 Papineau,"Montréal, Québec, Canada H2G 2X2",,1 514-641-7768,https://www.facebook.com/lepointsansg/,
Leggero,Cafe/Restaurant,64 Old Compton Street,"London, UK W1D 4UQ",http://www.leggero-london.com/,44 20 7434 3617,https://www.facebook.com/LEGGEROlondon/,info@leggero-london.com 
Lemonade Gluten Free Bakery,Bakery,"3385 Cambie St.
","Vancouver, British Columbia, Canada V5Z 2W6
",http://www.lemonadebakery.ca,1 604-873-9993,,info@lemonadebakery.ca
Liberated Baking,Bakery,16100 SE 82nd Drive,"
Clackamas, OR 97015",http://www.liberatedbaking.com,1 503-545-9797,https://www.facebook.com/LiberatedBaking/,
Lifehouse Tonics,Cafe,"10250 Santa Monica Blvd
","Santa Monica, CA 90067
",https://www.lifehousetonics.com/,1 424-274-3386,,
Lifehouse Tonics,Cafe,7515 Sunset Blvd,"
Los Angeles, CA 90046
",https://www.lifehousetonics.com/,1 323-378-5691,,
Lilac Patisserie ,Bakery,"1017 State St
","Santa Barbara, CA 93101",http://lilacpatisserie.com/,1 805-845-7400,https://www.facebook.com/lilacpatisserie,info@lilacpatisserie.com
Little Gem,"Cafe/Restaurant
",400 Grove St,"San Francisco, CA 94102",http://www.littlegem.restaurant,1 415-914-0501,https://www.facebook.com/littlegem.restaurant,info@littlegem.restaurant
Live Organic Food,Cafe,264 Dupont St,"Toronto, Ontario, Canada M5R 1V7",https://liveorganicfood.ca/,1 416-515-2002,https://www.facebook.com/LiveOrganicFood/,orders@liveorganicfood.ca
Louise Sans Gluten,Bakery,"475 Avenue Dumont, Suite 109","Dorval, QC H9S 5W2",http://louisesansgluten.com/,1 514 631-3434,https://www.facebook.com/louisesansgluten/,info@louisesansgluten.com
Luce's Gluten-Free Artisan Bread,Bakery,117 Industrial Road,"Berkeley Heights, NJ 07922",https://www.lucegfbread.com,1 201-725-8706,https://www.facebook.com/LucesGlutenFreeArtisanBread,breadshopnj@gmail.com
Lucita Patisserie,Bakery,,"Buenos Aires, Argentina",,,https://en-gb.facebook.com/lucitalibredegluten/,
M Raw,Restaurant,"M, Zig Zag Building
74 Victoria St
","London, UK SW1E 6SQ",https://mrestaurants.co.uk/victoria/,44 020 3327 7776,https://www.facebook.com/mrestaurants.london,victoriastenquiries@mrestaurants.co.uk
Made With Love Not Gluten,Bakery,"1021 W Main St
","Mount Joy, PA 17552
",http://www.madewithlovenotgluten.com,1 717-919-0921,https://www.facebook.com/MadeWithLoveNotGluten/,
Made's Banana Flour Bakery,Bakery,"Jl. Pantai Batu Bolong No.41
Canggu, Kuta Utara, Kabupaten","Badung, Bali, Indonesia 80361",https://www.madesbakery.com,62 821-4466-6001,https://www.facebook.com/madesbananaflourco/,madesbakery@gmail.com
Magic Mix Juicery,Cafe,"102 Fulton Street
","New York, NY 10038
",http://magicmixjuicery.com/,1 646-454-0680,,MMJ@magicmix.us
Mai Grano ,Bakery,"Via San Jacopo, 113
","Pisa, Italy 56123
",,39 050 550243,https://www.facebook.com/maigrano.it/,
Maisie Cafe,Cafe,"32 rue du Mont Thabor
","Paris, France 75001",http://www.maisiecafe.com/,33 1 40 39 99 16,https://www.facebook.com/maisiecafe/,contact@maisiecafe.com
Mama Eat,Cafe/Restaurant,"Via Borgo Pio n.28
","Rome, Italy 00193
",http://www.mamaeat.com/,39 06 4550 8771,https://www.facebook.com/MamaEatStreetFood/,info@mamaeat.it
Mama Resch's ,Bakery,12635 Metcalf Ave,"Overland Park, KS 66213",https://mamareschs.com/,1 913-213-5355,https://www.facebook.com/MamaReschs,
Mama's Cheese Bread Factory,Bakery,594 Federal Road,"Brookfield, CT 06804",http://www.mamascheesebread.com/,1 203-526-5759,,info@mamascheesebread.com
Manicaretti ,Restaurant,"60, rue de Paradis
","Paris, France 75010",,33 9 51 77 57 30,https://www.facebook.com/manicaretti.paris/,
Manna Dew,Bakery,169 Battersea High Street,"
London, UK SW11 3JS
",http://mannadew.co.uk/,44 7503 200020,https://www.facebook.com/mannadewlondon/,indulge@mannadew.co.uk
Marie Antoinette's ,Bakery/Cafe,316 St Joseph St,"Wathena, KS 66090",https://mariesglutenfree.com/,1 785-989-2366,https://www.facebook.com/mariesbakeshoppe/,
Marilyn's Gluten Free,Bakery,"1007 Mansell Road, Suite D","Roswell, GA 30076",http://marilynsglutenfree.com,1 770-587-5874,,
Mariposa,Bakery,"SF Ferry Building One, Suite 32
","San Francisco, CA 94111
",https://www.mariposabaking.com/,1 310-399-1764,https://www.facebook.com/MariposaBaking,patti@mariposabaking.com
Mariposa,Bakery,"5427 Telegraph Ave., Unit D3
","Oakland, CA 94609
",https://www.mariposabaking.com/,1 510-595-0955,https://www.facebook.com/MariposaBaking,patti@mariposabaking.com
Maui Brick Oven Pizza,Restaurant,"1215 S Kihei Rd, Ste D1","Kihei, HI 96753",http://mauibrickoven.com/,1 808-875-7896,https://www.facebook.com/mauibrickoven,
Maui Sugar Shop,Bakery,"878 Front St, Ste A10","Lahaina, HI 96761",http://www.mauisugarshop.com,1 808-662-0033,,
MEA Libera Tutti,Grocery Store,"Calle de la Racchetta, 3788
","Venice, Italy 30121",,39 041 521 0454,https://www.facebook.com/MEA-Libera-Tutti-151997314963984/,
Mehl’s Gluten-Free Bakery,Bakery,"1404 33rd St. S. Suite H.
","Fargo, ND
",http://www.mehlsbakery.com/,1 701-205-4174,https://www.facebook.com/MehlsFlour,mark.mehl@mehlsflour.com
Melinda's Gluten Free Bakery,Bakery,"1420 41st Ave., Ste B
","Capitola, CA 95010",http://www.melindasbakery.com,1 831-687-9098,https://www.facebook.com/Melindasglutenfree/,melindasgf@gmail.com
Messié Sin Gluten,Cafe/Restaurant,"Siracusa, 15","
Barcelona, Spain 08012",http://www.messiepizza.es/messie-sin-gluten/,34 931 19 56 05,https://www.facebook.com/messiesingluten,
Mitchel's Paleo Food Truck,Food Truck,Check website for schedule,"Antwerp, Belgium",http://paleofoodtruck.be,32 495 41 89 01,https://www.facebook.com/mitchelspaleofoodtruck/,mitchel@paleofoodtruck.be
Mixin' It Up,Bakery,106 2nd Ave N,"Sauk Rapids, MN 56379",http://mixinitup.org/index.html,1 320-259-7105,https://www.facebook.com/mixinitupglutenfreebakery/,"info@mixinitup.org
"
Mmm Coffee,Cafe,910 Santa Fe Dr. Studio 6,"
Denver, CO 80204",http://www.mmm-coffee.com/,1 720-881-1750,https://www.facebook.com/mmmPALEO,paleo@mmm-coffee.com
Mo'pweeze Bakery,Bakery,32 Broadway,"Denville, NJ 07834",https://www.mopweezebakery.com/Default.asp,1 973-664-7833,https://www.facebook.com/mopweeze/,
Molly's Gluten Free Bakery,Bakery,N47 W28270 Lynndale Rd. (Hwy JK),"Pewaukee, WI 53072",http://mollysglutenfreebakery.com,1 262-369-1404,https://www.facebook.com/mollysgf/,info@mollysglutenfreebakery.com
Mommi,Restaurant,44 - 48 Clapham High Street,"
London, UK SW4 7UR
",https://www.wearemommi.com/,44 20 3814 1818,https://www.facebook.com/wearemommi/,marketing@wearemommi.com
Morgana's Gluten Free Bakery,Bakery,9711 E. 63rd Street,"Raytown, MO 64133",http://www.morganaskc.com/,1 816-313-5113,https://www.facebook.com/morganasglutenfreebakery/,morgana@morganaskc.com
My Petite Factory,Cafe/Restaurant,17 rue neuve,"Lyon, France 69001",https://mypetitefactory.com/,33 4 78 80 54 56,https://www.facebook.com/mypetitefactory,
Nana Gluten Free,Cafe,España 984 ,"Rosario, Santa Fe, Argentina 2000",,54 341 605-3821,https://www.facebook.com/nanaglutenfree,
Napoleoni Gluten Free,Bakery,"Via Appia Nuova, 592","
Rome, Italy 00179
",http://www.napoleoniglutenfree.it/index.php/it/,39 06 780 4727,https://www.facebook.com/napoleoniglutenfree/,
Nature's Grocer,Bakery/Cafe,81 East St,"Vernon, CT 06066",http://naturesgrocervernon.com/,1 860-870-0020,https://www.facebook.com/NaturesGrocer/,info@naturesgrocers.com
New Beginnings Gluten Free Bakery,Bakery,10 W. Spring St,"New Hampton, IA 50659",https://www.newbeginningsbakery.com/,1 641-229-9734,https://www.facebook.com/NewBeginningsGlutenFreeBakery/,newbeginningsbakery@outlook.com
New Cascadia Traditional Bakery,Bakery,"1700 SE 6th Ave
","Portland, OR 97214
",http://www.newcascadiatraditional.com,1 503-546-4901,https://www.facebook.com/NewCascadiaTraditional,
New Dawn Bakery,Bakery,"1102 Lincoln Way
","Auburn, CA 95603
",http://newdawnbakery.com,1 530-563-6039,https://www.facebook.com/newdawnbakery/,
New Day Gluten Free,Cafe,7807 Clayton Rd.,"St. Louis, MO 63117",https://www.newdayglutenfree.com/,1 314-833-5180,https://www.facebook.com/newdayglutenfree/,"
lillie@newdayglutenfree.com"
New Freedom Gluten Free Bakery,Bakery,26 Short St,"Bendigo, Victoria, Australia 3550
",http://www.newfreedombakery.com.au/,61 3 5441 624,https://www.facebook.com/NewFreedomBakery,
New Generation Bakery,Bakery,219 South Union St,"Mora, MN 55051",http://www.newgenerationbakery.com/,1 320-67906855,https://www.facebook.com/New-Generation-Bakery-137584566665924/,info@rushcitybakery.com
New Grains Gluten Free,Bakery,1281 West 200 North,"Provo, UT 84601",https://www.newgrains.com/,1 877-977-6443,https://www.facebook.com/NewGrains/,
Niche,Restaurant,197-199 Rosebery Avenue,"London, UK EC1R 4TJ",https://www.nichefoodanddrink.com/,44 20 7837 5048,https://www.facebook.com/nichefoodanddrink/,
Niche,Bakery/Cafe,808 12th Ave,"Seattle, WA 98122",https://www.nicheseattle.com,1 206-999-2801,https://www.facebook.com/NICHEGF,nicheseattle@gmail.com
No Gluten Inc.,Bakery,1355 Rock Mountain Blvd,"Stone Mountain, GA 30083",https://www.nogluteninc.com,1 678-406-0003,,
No More Belly Aching,Bakery,10049 E Grand River Ave,"Brighton, MI 48116",http://www.nomorebellyaching.com/,1 810-225-9773,https://www.facebook.com/NMBAbakery/,customerservice@nomorebellyaching.com
Noglla,Bakery/Cafe,Heinrich-Zille Straße 43,"Wiesbaden, Germany 65201",https://www.noglla.de/,49 176 97580172,https://www.facebook.com/noglla.de/,
Noglu,Bakery,"1266 Madison Avenue
","New York, NY 10128",http://www.noglu.fr/en/new-york/bakery/,1 646-895-9798,https://www.facebook.com/nogluny/,nogluny@gmail.com
Noglu,Cafe,"16, passage des Panoramas
","Paris, France 75002 ",http://www.noglu.fr/,33 1 40 26 41 24,https://www.facebook.com/Noglu/,
NoGlu Sorrento,Bakery,Corso Italia 81/A ,"Piano di Sorrento, Italy 80063",http://www.noglusorrento.it/,39 081 1951 9583,https://www.facebook.com/noglusorrento/,
Nuflours,Bakery,"518 15th Ave E
","Seattle, WA 98112",https://www.nuflours.com,1 206-395-4623,https://www.facebook.com/Nuflours,customerservice@nuflours.com
Nutie,Bakery,13 Beattie Street,"Balmain, New South Wales 2041",http://www.nutie.com.au/,,https://www.facebook.com/wearenutie/,hello@nutie.com.au
Nutrition Republic,Cafe,1/100 King William Road ,"Goodwood, Australia 5034",http://www.nutritionrepublic.com.au/,61 08 8377 7551,https://www.facebook.com/nutritionrepublic,
Nutrition Republic,Cafe,"Plant 4, 1 Third Street
","Bowden, Australia 5007",http://www.nutritionrepublic.com.au/,61 08 82487062,https://www.facebook.com/nutritionrepublic,
Oceans & Earth,Restaurant,20305 Yorba Linda Blvd,"Yorba Linda, CA 92886",https://www.oceansandearthrestaurant.com/,1 714-970-7027,https://www.facebook.com/oceansandearth,Eat@OceansAndEarthRestaurant.com
Offbeet,Cafe/Restaurant,"Chesapeake Mill, Bridge Street","Wickham, UK PO17 5JH",http://www.offbeetfood.com/,44 01329 833731,https://www.facebook.com/cafemeon,
Officina 37,Restaurant,"Via Savona 93
","Milan, Italy 20144
",,39 02 4895 1430,https://www.facebook.com/ristoranteofficina37,
Okashi Sanda,"Cafe
","Calle San Vicente ferrer 22
","Madrid, Spain 28005
",https://www.okashisanda.com/,34 913 65 44 02,https://www.facebook.com/155184794522874,
Olive & Chili,Cafe,51 Rue York,"Ottawa, Ontario, Canada K1N 9B7",http://olivechili.com,1 613-789-7172,,
Olivia's Oven,Bakery,Call to place an order,"Kansas City, KS",http://www.oliviasoven.com/,1 913-208-4475,,
OM Sweet Home,Bakery,708 Anderson Ave.,"Cliffside Park, NJ 07010",https://om-sweethome.com/,1 201-943-2253,,
One Dish Cuisine,Bakery/Cafe,8001 Hillsborough Rd,"
Ellicott City, MD 21043",http://www.onedishcuisine.com,1 443-759-6344,https://www.facebook.com/onedishcuisine,
The Butcher's Wife,Restaurant,"19 Yong Siak Street
",Singapore 168650,http://www.thebutcherswifesg.com/,65 6221 9307,,
Origin Bakery,Bakery,713A Goldstream Ave,"Victoria, British Columbia, Canada V9B 2X4",http://www.originbakery.com/,1 250-590-8948,https://www.facebook.com/originbakery/,marion@originbakery.com
Origin Bakery,Bakery,1525 Pandora Ave,"Victoria, British Columbia, Canada V8R 6P9
",http://www.originbakery.com/,1 250-590-4149,https://www.facebook.com/originbakery/,marion@originbakery.com
Ouma’s Cottage & Gluten Free Bakery,Bakery,"Pre-order by phone or website
","Muskego, MI",http://www.oumascottage.com/,1 231-777-3732,https://www.facebook.com/OumasCottage/,oumascottage@gmail.com
Outside the Breadbox,Bakery,2027 West Colorado Ave,"Colorado Springs, CO 80904",http://www.outsidethebreadbox.com/,1 719-633-3434,,Sales@OutsideTheBreadbox.com
P.S. & Co,Cafe,"1706 Locust Street
","Philadelphia, PA 19103
",https://puresweets.com/,1 215-985 1706,,info@puresweets.com
Palaeo – Primal Gastronomi,Cafe/Restaurant,"Pilestræde 32, 1112 København K",Copenhagen Denmark,http://www.palaeo.dk/en/,45 31 49 31 24,,
Paleo Robbie ,Catering/Meal Delivery,website for details,"Bangkok, Thailand",https://paleorobbie.com,66 083-002-3607,https://www.facebook.com/PaleoRobbie/,
Paleoulicious,Cafe/Restaurant,"12, Jalan 7/36, Taman Sri Bintang,
Kepong 52100 Kepong, Wilayah Persekutuan","Kuala Lumpur, Malaysia",http://paleolicious.com.my/,60 12-688 9990,https://www.facebook.com/paleolicious.com.my/,
Pana Chocolate,Cafe/Restaurant,491 Church Street,"Richmond, Victoria, Australia 3121",http://www.panachocolate.com,61 13 0071 7488,https://www.facebook.com/panachocolate/,
Pandali,Bakery,"via di Torre Argentina, 3
","Rome, Italy 00186
",http://www.pandali.it/,39 06 6813 6731,https://www.facebook.com/Pandal%C3%AC-1512833819003511/,
Panne Rizo Gluten Free,Bakery,"1939 Cornwall Ave
","Vancouver, British Columbia, Canada V6J 1C8
",http://www.pannerizo.com/,1 604-736-0885,https://www.facebook.com/pannerizobakery/,
Pantry 15,Cafe,15/62 Grafton St ,"Cairns City, Queensland, Australia 4870",,61 7 4041 3885,https://www.facebook.com/pantry15cairns/,
Pastelería SinTrazas,Bakery,"sells at farmers market
","Escazú, Costa Rica ",,506 8832 0063,https://www.facebook.com/pasteleriasintrazas/,
Pasticceria Navotti,Bakery,"Via Giovanni Paisiello 7 (fronte 10)
","Milan, Italy 20131",http://www.pasticcerianavottisenzaglutine.com/,39 02 2940 1244,https://www.facebook.com/pasticceria.navotti.senzaglutine/,
Senza Glutine Pastepartout,Bakery,"via Cavalieri di Vittorio Veneto 28
","Rivoli, Italy 10098
",http://www.pastepartout.com/,39 333 979 5996,https://www.facebook.com/pastepartout.senzaglutine,"
info@pastepartout.com"
Pasticceria Rosa,Bakery,"Via Giulia 25
","Trieste, Italy 34126
",http://www.pasticceriarosa.info,39 040 573079,https://www.facebook.com/Pasticceria-Rosa-127095110808149,
Pasticelia,Bakery,"Carrer de París, numero 165
","Barcelona, Spain 08036
",http://www.pasticelia.com/en/,34 931 59 79 59,https://www.facebook.com/pasticelia,
Pâtisserie Petit Lapin,Bakery,342A Victoria Ave.,"Westmount, Québec, Canada H3Z 2M8",http://patisseriepetitlapin.com/en/,1 514-507-4077,https://www.facebook.com/PetitLapinMtl/,
Peace Pies,Cafe,4230 Voltaire Street,"San Diego, CA 92107",http://www.peacepies.com/,1 619-223-2880,,peacepies.contact@gmail.com
Peace Pies,Cafe,133 Daphne Street,"Encinitas, CA 92024
",http://www.peacepies.com/,1 760-479-0996,,peacepies.contact@gmail.com
Pearl & Groove Bakery,Bakery,"341 Portobello Road
","London, UK W10 5SA
",http://www.pearlandgroove.com/,44 0203 6013 316,,cakes@pearlandgroove.com
Petunia's Pies & Pastries,Bakery,610 SW 12th Ave ,"Portland,
 OR 97205",http://petuniaspiesandpastries.com,1 503-841-5961,https://www.facebook.com/PetuniasPiesandPastries,
Pica Pica,Cafe/Restaurant,"401 Valencia Street
","San Francisco, CA 94103",http://picapica.com/,1 415-400-5453,https://www.facebook.com/PicaPicaLOVE,info@picapica.com
Picnik,Cafe,"4801 Burnet Road
","Austin, TX 78756
",https://picnikaustin.com/pages/visit,1 737-226-0644,https://www.facebook.com/PicnikAustin/,press@picnikaustin.com
Plants,Cafe,"1F., No.10, Ln. 253
Sec. 1 Fuxing S. Rd. Da-an Dist.
","Taipei City 106, Taiwan
",https://www.plantseatery.com.tw,886 2 2784 5677,https://www.facebook.com/plantseatery/,
Plum Bakery,Bakery,179 Glenridge Ave.,"Montclair, NJ 07042",http://www.plumonpark.com,1 973-509-7586,https://www.facebook.com/plumbakerygf,
P?k the Raw Bar,Restaurant,"3699 McKinney Ave #306
","Dallas, TX 75204
",http://www.poktherawbar.com,1 214-484-1139,https://www.facebook.com/poktherawbar/,
Pomegranate,Restaurant,"8556 W 3rd St
","Los Angeles, CA 90048
",http://pomegranatela.com/,1 424-335-0506,,
Pomegranate on Main ,Restaurant,"618 S Main St
","Greenville, SC 29601
",http://www.pomegranateonmain.com,1 864-241-3012,,
Popo Jito,Restaurant,"46 Christie Place
","Scarsdale, NY 10583
",http://www.popojito.com/,1 914-713-8946,,
Posana Restaurant,Restaurant,"1 Biltmore Ave
","Asheville, NC 28801
",https://posanarestaurant.com,1 828-505-3969,https://www.facebook.com/posanarestaurant,
Posh Pop,Bakery,"192 Bleecker St.
","New York, NY 10012",https://poshpopbakeshop.com/,1 212-674-7674,https://www.facebook.com/PoshPopBakeshop/,
Powerplant Superfood Cafe,Cafe,"5671 W. Pico Blvd.
","Los Angeles, CA 90019
",http://www.powerplantsuperfoodcafe.com/,1 323-965-2233,,
Primal Kitchen,Cafe,1641 S. Rose Ave,"Oxnard, California 93033",http://www.primalkitchenrestaurants.com,1 888-774-6259,https://www.facebook.com/primalkitchenrestaurants,
Puglia Bakery,Bakery,"via oldofredi 25
","Milan, Italy 20124",https://pugliabakery.com/,39 02 3674 6132,https://www.facebook.com/PugliaB/,
Pumpkin Brown,Cafe,"16 Grassmarket
","Edinburgh, UK EH1 2JU
",http://www.pumpkinbrown.com/,44 131 629 1720,https://www.facebook.com/pumpkinbrownedinburgh,
Pure Gluten Free Bakery,Bakery,"150 Harris Gully Rd
","Warrandyte, Victoria, Australia 3113",https://pureglutenfreebakery.wordpress.com,61 3 9844 3464,https://www.facebook.com/pureglutenfreebakery,
Pure Gluten Free Bakery,Bakery,13 Follett Road,"Cheltenham, Victoria, Australia 3192",https://pureglutenfreebakery.wordpress.com,61 3 9583 1940,https://www.facebook.com/pureglutenfreebakery,
Pushkin's,Bakery,"1820 29th St
","Sacramento, CA 95816
",http://pushkinskitchen.com,1 916-376-7752,https://www.facebook.com/PushkinsBakery/,info@pushkinsbakery.com
Quesava ,Bakery,"products are now available in
 160+ stores in Canada","Vancouver, Canada",http://quesava.com,1 604-420-0832,https://www.facebook.com/quesava/,melita@quejos.com
Quiero Arepas,Food Truck,check website,"Denver, CO",http://quieroarepas.com/,0 720-432-4205,https://www.facebook.com/quieroarepas,
Quiero Arepas,Cafe,1859 S Pearl St,"Denver, CO 80210",http://quieroarepas.com/,1 720-432-4205,https://www.facebook.com/quieroarepas,
Quiero Arepas,Cafe,3200 Pecos St (Avanti),"Denver, CO 80211",http://quieroarepas.com/,1 720-432-4205,https://www.facebook.com/quieroarepas,
Raegamuffin’s Gluten Free Bakery,Bakery,1552 State Street,"Veazie, ME 04401",http://www.raegamuffins.com/,1 207-942-9400,,raegamuffins@gmail.com
Raw Trader,Cafe/Bakery,10 Sutherland Street,"Melbourne, Victoria, Australia 3000",https://www.rawtrader.com.au/,61 4 7869 2008,https://www.facebook.com/rawtrader14,info@rawtrader.com.au
Rawberri,Cafe,"8582 Santa Monica Blvd
","West Hollywood, CA 90069
",http://rawberri.com/,1 310-652-7010,,hello@rawberri.com
Rawlicious,Cafe,120 Dundas Street West,"Whitby, Ontario, Canada L1N 2L9",http://rawlicious.ca/canada/,1 905-493-7070,,info@rawlicious.ca
Rawlicious,Cafe,785 Bathurst Street,"Toronto, Ontario, Canada M5S 0B7 Phone: +1 416-519-7150",http://rawlicious.ca/canada/,1 416-519-7150,,info@rawlicious.ca
Rawlicious,Cafe,381 Cooper St,"Ottawa, Ontario, Canada K2P 0G8",http://rawlicious.ca/canada/,1 613-565-8030,,info@rawlicious.ca
Rawlicious,Cafe,116 Main Street North,"Markham, Ontario, Canada L3P 1Y1",http://rawlicious.ca/canada/,1 905-554-4729,,info@rawlicious.ca
Rawlicious,Cafe,8 Belmont Ave W,"Kitchener, Ontario, Canada N2M 1P2",http://rawlicious.ca/canada/,1 519-603-8281,,info@rawlicious.ca
Rawlicious,Cafe,1044 King Street West,"Hamilton, Ontario, Canada L8S 1L5",http://rawlicious.ca/canada/,1 289-389-9997,,info@rawlicious.ca
Real Food Kitchen,Cafe,"1/4 Park Ave Burleigh Heads         
","Gold Coast, Queensland, Australia 4220",https://www.realfoodkitchenburleigh.com.au,61 7 5659 1808,https://www.facebook.com/realfoodkitchenburleigh/,info@realfoodkitchenburleigh.com.au
Red Robyn,Cafe/Restaurant,393 Camberwell Rd,"Camberwell, Victoria, Australia 3124",http://redrobyn.com.au,61 3 9077 3763,https://www.facebook.com/redrobyncafe,redrobyncafe@gmail.com
RegCakes,Bakery ,748 CR 250N,"Pesotum, IL 61863",http://www.regcakes.com/,1 217-299-9457,https://www.facebook.com/RegCakesBakery/,Regina@RegCakes.com
Remixed Bakery,Bakery ,"(No Storefront - order for pickup) 5600 Wilshire Blvd.
","Los Angeles, CA
",http://www.remixedbakery.com/,1 323-591-0638 ,https://www.facebook.com/remixedbakery,info@remixedbakery.com
"Kafé-Kafó
",Cafe,Avenida 52A San Sebastián,"San José, Costa Rica 10105",http://kafe-kafo.com,506 8382 3370,,
Restaurante Café-Tal,Restaurant,Plaza Itskatzu Local 116,"San José, Costa Rica 320-1230",,506 2228 8171,https://www.facebook.com/pg/RestauranteCafeTal/about/?ref=page_internal,
Revolve True Food & Wine Bar,Restaurant,10024 Main St,"Bothell, WA 98011",http://revolvefoodwine.com,1 425-287-6420,https://www.facebook.com/revolvetruefoodwine/,info@revolvefoodwine.com
Rica Gluten Free,Bakery,Verdijeva 3b,"Rijeka, Croatia 51000",http://www.rica.hr/hr/rica-_-prvi-gluten-free-lokal-u-hrvatskoj/91/13,385 51 374 593,https://www.facebook.com/ricagf,info@rica.hr
Rise Gluten Free Bakery,Bakery,"2409 18th Street NW
","Washington, D.C. 20009",http://www.riseglutenfree.com/,1 202-525-5204,https://www.facebook.com/riseglutenfree/,info@riseglutenfree.com
Rise Authentic Baking Company,Bakery,"1220 Fulton Street West
","Grand Rapids, MI 49504
",http://www.risegrandrapids.com/,1 616-283-5226,https://www.facebook.com/riseauthenticbaking,nick@risegrandrapids.com
Rising Hearts Bakery,Bakery,"10836 1/2 Washington Blvd.
","Culver City, CA 90232
",http://www.risingheartsbakery.com/,1 310-815-1800,https://www.facebook.com/RisingHeartsBakery,info@RisingHeartsBakery.com 
Risotteria Melotti,Restaurant,"309 E 5th Street
","New York, NY 10003
",http://www.risotteriamelottinyc.com,1 646-755-8939,https://www.facebook.com/RisotteriaMelottiNYC,nyc@risotteriamelotti.com
Ristorante Quinoa,Restaurant,"Vicolo di Santa Maria Maggiore, 1
","Florence, Italy 50123
",http://www.ristorantequinoa.it,39 055 290876,https://www.facebook.com/ristorantequinoa/,info@ristorantequinoa.it
Ristorante Sanafollia,Restaurant,"Via Bacchini 23
","Fidenza, Italy 43036",,39 334 130 0603,https://www.facebook.com/Ristorante-Sanafollia-Gluten-Free-274627049386507/,
Riz on Yonge,Restaurant,"3321 Yonge Street
","Toronto, Ontario, Canada M4N 2L9",http://www.rizonyonge.com,1 416-322-6789,,
Rough and Bare,Cafe,1/1 Bungan Lane,"Mona Vale, New South Wales, Australia 2103",https://www.roughandbare.com.au,61 02 9999 1950,https://www.facebook.com/roughandbare/,
Rough and Bare,Cafe,3/9 Albany Street,"St Leonards New South Wales, Australia 2065",https://www.roughandbare.com.au,61 02 9437 9102,https://www.facebook.com/roughandbare/,
Ruca Umel,Bakery,"Avenida de los Pioneros 
4962-Local 1","Bariloche, Argentina 8400",,54 294 445-8888,https://www.facebook.com/ruca.umel/,
Rumi's Passion,Bakery,41116 5 Mile Rd,"Plymouth, MI 48170",http://www.rumispassion.com/,1 734-335-7145,,rumisgfbakery@gmail.com
Saba Ethiopian,Cafe/Restaurant,328 Brunswick St,"Fitzroy, Victoria, Australia 3065",http://sabasethiopianrestaurant.com/,61 3 8589 0442,https://www.facebook.com/SabasEthiopianRestaurant/,"	team@sabasethiopianrestaurant.com"
Sally's Gluten Free,Bakery,"5920 Roswell Road, Suite 108A ","Sandy
 Springs, GA 30328",http://www.sallysglutenfreebakery.com/,1 404-847-0211,https://www.facebook.com/SallysGlutenFreeBakeryAlpharetta/,sallysglutenfreebakery@gmail.com
Sally's Gluten Free,Bakery,"4390 Kimball Bridge Road, Suite B2","Alpharetta, Georgia 30022",http://www.sallysglutenfreebakery.com/,1 470-226-7965,https://www.facebook.com/SallysGlutenFreeBakeryAlpharetta/,sallysglutenfreebakery@gmail.com
Samuel Pepy's Cafe,Cafe,"23 Yorktown Square Launceston
","Tasmania, Australia 7250",,61 3 6334 2583,https://www.facebook.com/samuelpepyscafe/,
Sana Locura Gluten Free Bakery,Bakery,"C/ General Oraa, 49
","Madrid, Spain",http://www.sanalocura.es/,34 917 29 57 47,https://www.facebook.com/sana.locura.gluten.free.bakery/,
Sans de blé,Bakery,"Via Gabriello Chiabrera 58/c
","Rome, Italy 00145",http://www.sansdeble.it/#3,39 06 6465 0277,https://www.facebook.com/sansdeble/,
Sans Gluten Artisan Bakery,Bakery,39 Greenville Avenue,"Johnston, RI 02919",http://www.sansglutenbakery.com/,1 401-437-6735,https://www.facebook.com/Sansglutenartisanbakery,sansgluten@yahoo.com
Santeez Cafe,Cafe,"93 Kerikeri Road
","Kerikeri, New Zealand 0230
",,64 9-407 1185,https://www.facebook.com/santeezcafeaglutenfree/,
Sara Bella's Gluten Free,Bakery/Cafe,101-8705 Young Rd,"Chilliwack, British Columbia, Canada V2P 4P3",http://sarabellasgf.com,1 604-392-3378,https://www.facebook.com/sarabellasglutenfree/,katherine@sarabellasgf.com
Saratoga Gluten Free,Bakery,"176 Broad Street
","Schuylerville, NY 12871",,1 518-695-6565,https://www.facebook.com/SaratogaGlutenFreeGoods/,
Sassy Spoon,Cafe,5011 34th Ave. S,"Minneapolis, MN 55417",http://www.sassyspoonmpls.com/,1 612-886-1793,https://www.facebook.com/SassySpoonMpls/,info@sassyspoonmpls.com
Scopello,Bakery,Moore Park Foodies & Farmers Market      ,"Sydney, Australia",https://www.scopello.com.au,61 411 111 111   ,,
Seedling Cafe,Cafe/Restaurant,275 Flinders Ln,"Melbourne, Victoria, Australia 3000",http://www.seedlingcafe.com.au/contact-us.php,61 0450 190 365,https://www.facebook.com/seedlingcafeau/,seedlingcafeau@gmail.com
Seedling Cafe,Cafe/Restaurant,349 Little Collins,"Melbourne, Victoria, Australia 3000
",http://www.seedlingcafe.com.au/contact-us.php,61 0450 190 365,https://www.facebook.com/seedlingcafeau/,seedlingcafeau@gmail.com
Sensitive Sweets,Bakery,17431 Brookhurst St,"Fountain Valley, CA 92708",http://www.sensitivesweets.com,1 714-968-9169,https://www.facebook.com/SensitiveSweets-119303238084350/?ref=ts,
Senza Gluten,Restaurant,"206 Sullivan St
","New York, NY 10012
",http://senzaglutennyc.com/,1 212-475-7775,https://www.facebook.com/SenzaGlutenNYC,info@senzaglutennyc.com
Seoul Spice,Restaurant,"145 N St NE #400
","Washington, DC 20002
",http://www.seoulspice.com/,1 202-792-8879,https://www.facebook.com/seoulspice/,
Serendpity Cafe,Cafe,664 Main St,"Dunedin, FL 34698",http://myserendipitycafe.com,1 727-483-9233,https://www.facebook.com/SerendipityCafe?ref=ts&fref=ts,
Shana Cake,Bakery,435 S Kansas Ave,"Topeka, KS 66603",https://shanacake.com/,1 785-408-1272,https://www.facebook.com/shanacaketopeka/,kelly@shanacake.com
Shana Cake,Bakery,914 Massachusetts St,"Lawrence, KS 66044",https://shanacake.com/,1 785-551-7211,https://www.facebook.com/shanacaketopeka/,kelly@shanacake.com
Sherry Lynn's Gluten Free Bakery,Bakery,"1760 State Street
","Schenectady, NY 12304",http://www.sherrylynnsglutenfree.net,1 518-344-6464,,
Shine Restaurant and Potion Bar,Restaurant,2480 Canyon Blvd0,"
Boulder, CO 80302
",http://www.shineboulder.com,1 303-449-012,https://www.facebook.com/ShineBoulder,jessica@shineboulder.com
Shojin,Restaurant,"12406 Washington Blvd.
","Culver City, CA 90066
",http://www.theshojin.com/,1 760-432-6100,,
Sift Gluten Free,Bakery,4557 Bloomington Ave.,"Minneapolis, MN 55407",http://siftglutenfree.com/,1 612-503-530,,yummy@siftglutenfree.com
Silex and Fourchette,Cafe,"138 grande rue Saint Michel
","Toulouse, France 31400",http://www.silexetfourchette.com,33 7 61 25 65 72,https://www.facebook.com/Silexetfourchette/,
Simple Taste,Bakery,"622 South Rangeline Rd., Suite E","Carmel, IN 46032",http://www.simple-taste.com/,1 317-408-6258,https://www.facebook.com/SimpleTaste.AllergyFreeFoods/,
Simply Gluten Free Bakery,Bakery,123 Lower Dandenong Rd,"Melbourne, Victoria, Australia 3194",http://www.simplyglutenfree.com.au,61 3 9583 6256,https://www.facebook.com/simplyglutenfreee/,
Sinfully Gluten Free,Bakery,9146 Dayton Lebanon Pike,"Centerville, OH 45458",http://www.sinfullygf.com/,1 937-433-1044,https://www.facebook.com/SinfullyGlutenFree/,Contact@sinfullygf.com
Sitron,Bakery,"59 rue des Batignolles
","Paris, France 75017",http://sitron-sansgluten.com/,33 1 40 00 20 95,https://www.facebook.com/sitronsansgluten/,contact@sitron-sansgluten.com
Sitron,Bakery,"15 rue Marie Stuart
","Paris, France 75002 ",http://sitron-sansgluten.com/,33 1 40 20 92 31,https://www.facebook.com/sitronsansgluten/,contact@sitron-sansgluten.com
SMAK Healthy Fast Food,Cafe,1139 West Pender St,"Vancouver, British Columbia, Canada V6E 2P4",https://smakfastfood.com,1 604-559-7625,https://www.facebook.com/SMAK-healthy-fast-food-240321769434057/?ref=br_rs,info@smakfastfood.com
Smart Green Corner,Restaurant,20 rue Castelnau d’Auros (Gambetta),"Bordeaux, France 33000",,33 5 56 23 17 555,https://www.facebook.com/SMARTGREENCORNER,
Snackin' Free,Bakery,"41539 Kalmia St, Ste. 102
","Murrieta, CA 92562
",https://www.snackinfree.com,1 951-304-2433,https://www.facebook.com/snackinfree,mrs.s@snackinfree.com
Something Sweet Without Wheat,Bakery,19 Sixth Road,"Woburn, MA 01801",http://www.somethingsweetwithoutwheat.com/,1 781-281-2003,https://www.facebook.com/sweetwithoutwheat/,sales@somethingsweetwithoutwheat.com
Springbone Kitchen,Restaurant,"90 W 3rd St
","New York, NY 10012
",http://springbone.com/,1 646-368-9192,https://www.facebook.com/springbonekitchen,info@springbone.com
Spudbar,Cafe/Restaurant,"95 Malop Street
","Geelong, Victoria, Australia",http://www.spudbar.com.au/,61 03 5223 1649,https://www.facebook.com/SpudbarHQ/,
Spudbar,Cafe/Restaurant,175 Maroondah Hwy,"Ringwood, Victoria, Australia",http://www.spudbar.com.au/,61 03 8202 5001,https://www.facebook.com/SpudbarHQ/,
Spudbar,Cafe/Restaurant,"1239 Nepean Hwy
","Cheltenham, Victoria, Australia",http://www.spudbar.com.au/,61 03 9585 5156,https://www.facebook.com/SpudbarHQ/,
Spudbar,Cafe/Restaurant,176 High Street,"Ashburton, Victoria, Australia",http://www.spudbar.com.au/,61 03 9939 8827,https://www.facebook.com/SpudbarHQ/,
Spudbar,Cafe/Restaurant,28 Beach St,"Frankston, Victoria, Australia",http://www.spudbar.com.au/,61 03 9783 5835,https://www.facebook.com/SpudbarHQ/,
Spudbar,Cafe/Restaurant,Werribee Plaza,"Victoria, Australia",http://www.spudbar.com.au/,61 03 9974 6524,https://www.facebook.com/SpudbarHQ/,
Spudbar,Cafe/Restaurant,619 Doncaster Rd,"Doncaster, Victoria, Australia",http://www.spudbar.com.au/,61 03 9840 2007,https://www.facebook.com/SpudbarHQ/,
Spudbar,Cafe/Restaurant,246 Clarendon S,"South Melbourne, Victoria, Australia",http://www.spudbar.com.au/,61 03 9078 7717,https://www.facebook.com/SpudbarHQ/,
Spudbar,Cafe/Restaurant,717 Glenferrie Rd,"Hawthorn, Victoria, Australia",http://www.spudbar.com.au/,61 03 9818 1089,https://www.facebook.com/SpudbarHQ/,
Spudbar,Cafe/Restaurant,590 Chapel St,"South Yarra, Victoria, Australia",http://www.spudbar.com.au/,61 03 9826 4399,https://www.facebook.com/SpudbarHQ/,
Spudbar,Cafe/Restaurant,43 Blessington Street,"St Kilda, Victoria, Australia",http://www.spudbar.com.au/,61 03 9534 8888,https://www.facebook.com/SpudbarHQ/,
Spudbar,Cafe/Restaurant,"226 Swan Street
","Richmond, Victoria, Australia",http://www.spudbar.com.au/,61 03 9421 6033,https://www.facebook.com/SpudbarHQ/,
Spudbar,Cafe/Restaurant,"25-55 Overland Dr
","Narre Warren, Victoria, Australia",http://www.spudbar.com.au/,61 03 9705 0521,https://www.facebook.com/SpudbarHQ/,
Spudbar,Cafe/Restaurant,"11 Commercial Road
","Melbourne, Victoria, Australia",http://www.spudbar.com.au/,61 03 9533 6051,https://www.facebook.com/SpudbarHQ/,
Spudbar,Cafe/Restaurant,"Level 3, 287 Lonsdale St","Melbourne, Victoria, Australia",http://www.spudbar.com.au/,61 03 8609 8205,https://www.facebook.com/SpudbarHQ/,
Spudbar,Cafe/Restaurant,Cnr Lonsdale & Swanston Street,"Melbourne, Victoria, Australia",http://www.spudbar.com.au/,61 03 9662 3224,https://www.facebook.com/SpudbarHQ/,
Spudbar,Cafe/Restaurant,398 Little Bourke St,"Melbourne, Victoria, Australia",http://www.spudbar.com.au/,61 03 9602 3841,https://www.facebook.com/SpudbarHQ/,
Spudbar,Cafe/Restaurant,600 Bourke Street,"Melbourne, Victoria, Australia",http://www.spudbar.com.au/,61 03 9642 1973,https://www.facebook.com/SpudbarHQ/,
Spudbar,Cafe/Restaurant,567 Collins Street,"Melbourne, Victoria, Australia",http://www.spudbar.com.au/,61 039629 3770,https://www.facebook.com/SpudbarHQ/,
Spudbar,Cafe/Restaurant,"LG Food Court, Wintergarden
171-209 Queen St Mall","Brisbane, Queensland, Australia",http://www.spudbar.com.au/,61 07 3210 1945,https://www.facebook.com/SpudbarHQ/,
Squirrel & The Bee,Bakery,515 Millburn Ave.,"Short Hills, NJ 07078",https://www.squirrelandthebee.com/,1 973-376-4888,https://www.facebook.com/squirrelbeebakeshop/,info@squirrelandthebee.com
Stacy's Gluten Free Goodies,Bakery,5130 S. Dale Mabry Hwy.,"Tampa, FL 33611",https://www.gluten-free-goodies.com,1 813-440-8028,,stacy@gluten-free-goodies.com
Stacy's Gluten Free Goodies,Bakery,14379 N. Dale Mabry Hwy.,"Tampa, FL 33618",https://www.gluten-free-goodies.com,1 813-477-4247,,stacy@gluten-free-goodies.com
Starbene Senza Glutine,Bakery,"Via Frà Bartolomeo, 203","Prato PO, Italy 59100
",http://www.starbenesenzaglutine.it,39 0574 726422,,
Starry Lane Bakery,Bakery,"3925 4th Ave
","San Diego, CA 92103
",http://www.starrylanebakery.com,1 619-328-0500,,Help@starrylanebakery.com
Starseed Bakery,Bakery,100 Hibernia Avenue,"Rockaway, NJ 07866",http://www.starseedbakery.com/,1 973-957-0500,https://www.facebook.com/starseedbakery?fref=ts,StarseedBakery@gmail.com
Station 26,Restaurant,"Coldharbour Lane Unit 26
Brixton Village Market","London, UK SW9 8PR",https://www.station26.co.uk/,44 20 3689 7124,https://www.facebook.com/station26Glutenfree/,station26brixton@gmail.com
Still Delicious,Bakery,13 Boston Post Road,"Westbrook, CT 06498",http://stilldelicious.com,1 860-552-4662,,stilldeliciousbakedgoods@gmail.com
Strange Grains ,Bakery,197 Onslow Rd,"Shenton Park, Australia 6008",https://www.strangegrainsbakery.com.au/,61 468 858 157,https://www.facebook.com/strangegrainsbakery,strangegrains@yahoo.com.au
Sugar Daddy's Gluten Free Bakery,Bakery,5 Rodney Street,"
Edinburgh, UK EH7 4EA
",http://www.sugardaddysedinburgh.com/,44 131 629 6789,https://www.facebook.com/sugardaddysedinburgh,heysugar@sugardaddysedinburgh.com
Sunny Bread,Bakery/Cafe,"736-49 Yongsan-gu
 Hannam-dong
 ","Seoul, Korea",http://www.sunnykr.com/,82 010-2262-5282,https://www.facebook.com/sunnybreadkr/,"
sunny4370@naver.com
"
1823 Bakehouse,Bakery,25 E Court St,"Franklin, IN 46131",,1 317-739-0800,https://www.facebook.com/1823bakehouse/,
Sweet 27,Restaurant,127 West 27th St.,"Baltimore, MD 21218",http://www.sweet27.com,1 410-464-7211,,
Sweet Ali's Gluten Free Bakery,Bakery,"13 W. 1st Street
","Hinsdale, IL 60521
",http://www.sweetalis.com/,1 630-908-7175,https://www.facebook.com/SweetAlis,
Sweet Ali's Gluten Free Bakery,Bakery,1107 Waukegan Road,"Glenview, IL 60025",http://www.sweetalis.com/,1 224-432-5530,https://www.facebook.com/SweetAlis,
Sweet Bree's,Bakery,Find around Metro Detroit or place an order online,"Rochester, MI",https://www.ilovesweetbrees.com/,1 586-925-0555,https://www.facebook.com/sweetbrees/,bree@ilovesweetbrees.com
Sweet Cake Bake Shop,Bakery,"457 E 300 S
","Salt Lake City, UT 84111",http://sweetcakebakeshop.squarespace.com,1 801-478-6830,https://www.facebook.com/SweetCakeBakeShop,
Sweet Encounter,Bakery,"call or place an order online
","Lansing, MI",https://www.sweetencounterbakery.com/,1 517-763-2479,https://www.facebook.com/sweetencounterbakery/,desserts@sweetencounterbakery.com
Sweet Felicity,Bakery,"311 Walnut Street
","Felicity, OH 45120
",https://www.sweetfelicity.com/,1 513-876-7600,https://www.facebook.com/sweetfelicitybakeshop/,info@sweetfelicity.net
Sweet Freedom Bakery,Bakery,"1424 South St
","Philadelphia, PA 19146
",http://www.sweetfreedombakery.com,1 215-545-1899,https://www.facebook.com/SweetFreedomBakery/,sweetfreedombakery@gmail.com
Sweet Love Pastry,Bakery,6678 Stirling Rd,"Hollywood, FL 33024",https://www.sweetlovepastries.com,1 954-322-8291,https://www.facebook.com/sweetlovepastry,Lovepastrysugar@gmail.com
Sweet Megan,Bakery,"234 Holland Rd.
","Southampton, PA 18966",http://www.sweetmeganbakery.com/,1 267-288-5080,https://www.facebook.com/gfsweetmegan,info@sweetmeganbakery.com
Sweet Natalie's,Bakery,228 S 3rd St,"Geneva, IL 60134",http://sweetnataliesgeneva.com/,1 630-232-7434,https://www.facebook.com/SweetNatalies,sweetnataliesgeneva@yahoo.com
Sweetah's Gluten Free Bake Shop,Bakery,"50 S. Main Street
","Doylestown, PA 18901
",https://www.sweetahs.com/,1 267-736-6663,,sweetahs1@gmail.com
Sweetfin Poke,Cafe,"6256 Topanga Canyon Blvd, Suite 1310","Woodland Hills, CA 91367",https://www.sweetfinpoke.com/,1 818-888-8970,,INFO@SWEETFIN.COM
Sweetfin Poke,Cafe,1146 Abbot Kinney Blvd.,"Venice, CA 90291",https://www.sweetfinpoke.com/,1 310-355-8590,,INFO@SWEETFIN.COM
Sweetfin Poke,Cafe,829 Broadway,"Santa Monica, CA 90401",https://www.sweetfinpoke.com/,1 310-395-1097,,INFO@SWEETFIN.COM
Sweetfin Poke,Cafe,"4301 La Jolla Village Dr., Suite 2035
","San Diego, CA 92122",https://www.sweetfinpoke.com/,1 858-251-4840,,INFO@SWEETFIN.COM
Sweetfin Poke,Cafe,"3112 Sunset Blvd
","Los Angeles, CA 90026",https://www.sweetfinpoke.com/,1 323-300-6210,,INFO@SWEETFIN.COM
Sweetfin Poke,Cafe,735 West 7th Street,"Los Angeles, CA 90017",https://www.sweetfinpoke.com/,1 213-599-8050,,INFO@SWEETFIN.COM
Sweetfin Poke,Cafe,"8075 West 3rd Street, Suite 100
","Los Angeles, CA 90048
",https://www.sweetfinpoke.com/,1 323-934-3701,,INFO@SWEETFIN.COM
Sweetfin Poke,Cafe,"1146 Westwood Blvd
","Los Angeles, CA 90024
",https://www.sweetfinpoke.com/,1 310-231-0190,,INFO@SWEETFIN.COM
Sweetfin Poke,Cafe,135 North Larchmont Blvd,"
Los Angeles, CA 90004
",https://www.sweetfinpoke.com/,1 323-465-6040,,INFO@SWEETFIN.COM
Sweetopia,Bakery/Cafe,217 West Ayre Street,"Newport, DE 19804",https://www.sweetopia.biz,1 302-668-1490,,info@Sweetopia.biz
t.Loft,Cafe,8025 Stateline Road,"Kansas City, MO 64114",http://www.tloft.net,1 816-214-5750,https://www.facebook.com/t.teabar,
t.Loft,Cafe,200 W. 47th Street,"Kansas City, MO 64112",http://www.tloft.net,1 816-541-4849,https://www.facebook.com/t.teabar,
t.Loft,Cafe,3924 W. 69th Ter,"Prairie Village, KS 66208",http://www.tloft.net,1 913-217-7930,https://www.facebook.com/t.teabar,
t.Loft,Cafe,5225 W. 116th Place,"Leawood, KS 66211",http://www.tloft.net,1 913-912-7211,https://www.facebook.com/t.teabar,
t.Loft,Cafe,4801 Bauer Farm Drive,"Lawrence, KS 66049",http://www.tloft.net,1 785-505-0770,https://www.facebook.com/t.teabar,
Taffets Bakery and Store,Bakery,"1024 S 9th St
","Philadelphia, PA 19147
",http://www.taffets.com/,1 215-551-5511,https://www.facebook.com/totebakery/,taffetsbakery@gmail.com
Tandem Doughnuts,Bakery,Missoula's Farmer's Market S Pattee St,"Missoula, MT 59802",http://www.tandemdoughnuts.com,1 406-239-3997,https://www.facebook.com/TandemDoughnuts,tandemdoughnuts@gmail.com
Tao-Organics,Cafe/Restaurant,"210-150 Esplanade West
","North Vancouver, British Columbia, Canada V7M 1A3
",http://www.taoorganics.com,1 604-971-5108,https://www.facebook.com/TAOOrganics,cafe@taoorganics.com
TAP NYC,Cafe,267 Columbus Ave.,"
New York, NY 10023
",http://tapnyc.com/,1 917-261-2094,https://www.facebook.com/tapiocarianyc,simonsenroberto@tapnyc.com
TAP NYC,Cafe,"103 North 3rd St.
","Brooklyn, NY 11249",http://tapnyc.com/,1 917-261-2094,https://www.facebook.com/tapiocarianyc,simonsenroberto@tapnyc.com
Tapateria,Restaurant,"2607 W Colorado Ave
","Colorado Springs, CO 80904
",http://www.tapateria.com/,1 719-471-8272,https://www.facebook.com/TAPAteria/?v=wall,
Tapioca Toronto,Food Truck,Dufferin Grove Farmer’s Market,"Toronto, Ontario, Canada M6P5A2",,1 416-837-0302,https://www.facebook.com/tapiocatoronto/,
Tasty Bakery,Bakery,416 West Huron St. Suite 24,"Ann Arbor, MI 48103",http://www.tastysansgluten.com/,1 734-707-1046,,julie@tastysansgluten.com
Tawa Bakery,Bakery,"Al Muneera, Raha Beach
","Abu Dhabi, United Arab Emirates Al Muneera
 Plaza",https://tawa.ae/,971 2 556 6900,https://www.facebook.com/tawabakery/,stefan@tawa.ae
Thank you My Deer,Cafe,"112, rue Saint Maur
","Paris, France 75011",http://thankyoumydeer.com/coffeeshop/,33 1 71 93 16 24,https://www.facebook.com/thankyoumydeer/,contact@thankyoumydeer.com
The BakeHouse,Bakery,"Cartago, Costa Rica","Cartago, Costa Rica",,506 2278 2256,https://www.facebook.com/TheBakehouseGlutenfree/,
The Cookie Connection,Bakery,705 Park Ave,"
Syracuse, NY 13204
",http://www.tccglutenfree.com/,1 315-422-2253,https://www.facebook.com/The-Cookie-Connection-Gluten-Free-Bake-Shop-209241299158672/,
The Food Forest,Cafe,135 Hunter Street,"West Peterborough, Ontario, Canada K9H 2K7",http://www.foodforestcafe.com,1 705-874-1888,https://www.facebook.com/FoodForestcafe,
The Gluten Escape ,Bakery,"7255 S. Havana Street, Suite 110","Centennial, CO 80112",http://theglutenescape.com,1 303-694-9999,,info@theglutenescape.com
The Gluten Free Bakery,Bakery,"54 Main St.
","Chatham, NY 12037
",http://www.odbefree.com/,1 518-380-0170,,ORDER.ODB@GMAIL.COM
The Gluten Free Epicurean,Bakery/Cafe,633 East 15th Avenue,"Vancouver, British Columbia, Canada V5T 2R6",http://www.glutenfreeepicurean.ca,1 604-876-4114,https://www.facebook.com/THE-GLUTEN-FREE-EPICUREAN-121625667855607/,info@glutenfreeepicurean.ca
The Gluten Free Kitchen,Bakery,"Unit 4d, Leyburn Business
Park, Harmby Road","Leyburn, UK DL8 5QA
",https://www.theglutenfreekitchen.co.uk/,44 1969 622222,https://www.facebook.com/theglutenfreekitchen,info@theglutenfreekitchen.co.uk
The Gluten Free Oven,Bakery,125 West Main Street,"Mount Pleasant, PA 15666",http://theglutenfreeoven.net/,1 724-542-4457,,
The Good Cookies,Bakery,2081 Torrance Blvd,"Torrance, CA 90501",http://www.thegoodcookies.com/,1 310-320-7900,https://www.facebook.com/thegoodcookiesglutenfree,info@thegoodcookies.com
The Grain Exchange,Bakery,"order online or find in local shops
","Doylestown, PA",https://www.thegrainexchange.net/,1 215-531-1261,,
The Happy Mixer,Bakery,32 S. Main Street,"New Hope, PA 18938",https://www.thehappymixer.com,1 267-664-4886,https://www.facebook.com/TheHappyMixerBakery,info@thehappymixer.com
The Happy Mixer,Bakery,12 Summit Square,"Langhorne, PA 19047",https://www.thehappymixer.com,1 215-860-1989,https://www.facebook.com/TheHappyMixerBakery,info@thehappymixer.com
The Happy Mixer,Bakery,"4275 County Line Rd
","Chalfont, PA 18914",https://www.thehappymixer.com,1 267-663-7209,https://www.facebook.com/TheHappyMixerBakery,info@thehappymixer.com
The Happy Tart,Bakery,410 S Maple Ave.,"Falls Church, VA 22046",https://www.happytartbakery.com/,1 571-395-8280,https://www.facebook.com/TheHappyTartFallsChurch/,info@happytartbakery.com
The Happy Tart,Bakery,"2307A Mt Vernon Ave.
","Alexandria, VA 22301
",https://www.happytartbakery.com/,1 571-290-0166,,info@happytartbakery.com
The Joy of Gluten Free,Bakery,617 Bank St.,"Ottawa, Ontario, Canada K1S 3T5",http://www.thejoyofglutenfree.com,1 613-656-5252,,thejoyofglutenfree@gmail.com
The Joy of Gluten Free,Bakery,250 Greenbank Rd.,"Ottawa, Ontario, Canada K2H 8X4",http://www.thejoyofglutenfree.com,1 613-907-1252,,thejoyofglutenfree@gmail.com
The Joyful Food Co,Bakery/Cafe,"759 Shades Mountain Plaza
","Bluff Park, AL 35226",https://www.thejoyfulfoodco.com/,1 205-538-7967,,info@thejoyfulfoodco.com
The Juice Truck,Food Truck,Corner of Robson & Burrard Street,"Vancouver, British Columbia, Canada",https://www.thejuicetruck.ca,1 604-260-6943,https://www.facebook.com/JuiceTruck/,drink@thejuicetruck.ca
The Juice Truck,Cafe,1022 Mainland Avenue,"Vancouver, British Columbia, Canada",https://www.thejuicetruck.ca,"1 604-428-7825
",https://www.facebook.com/JuiceTruck/,drink@thejuicetruck.ca
The Juice Truck,Cafe,28 W 5th Ave,"Vancouver, British Columbia, Canada",https://www.thejuicetruck.ca,1 604-260-6943,https://www.facebook.com/JuiceTruck/,drink@thejuicetruck.ca
The Juice Truck,Cafe,12151 First Ave,"Richmond, British Columbia, Canada V7E 3M1",https://www.thejuicetruck.ca,1 604-285-5404,https://www.facebook.com/JuiceTruck/,drink@thejuicetruck.ca
The Juice Truck,Cafe,4236 Main St,"Vancouver, British Columbia, Canada V5V 2H1",https://www.thejuicetruck.ca,1 604-620-6768,https://www.facebook.com/JuiceTruck/,drink@thejuicetruck.ca
The Little Beet ,Cafe,1212 18TH Street NW & Connecticut,"Washington, D.C. 20036",https://www.thelittlebeet.com,1 202-796-5100,https://www.facebook.com/littlebeet,
The Little Beet ,Cafe,1800 North Lynn Street,"Arlington, VA 22209",https://www.thelittlebeet.com,1 212-459-9601,https://www.facebook.com/littlebeet,
The Little Beet ,Cafe,2 Penn Plaza,"
New York, NY 10121
",https://www.thelittlebeet.com,1 212-682-0650,https://www.facebook.com/littlebeet,
The Little Beet ,Cafe,"1140 Broadway
","New York, NY 10001",https://www.thelittlebeet.com,1 212-367-8015,https://www.facebook.com/littlebeet,
The Little Beet ,Cafe,"320 Park Ave.
","New York, NY 10022",https://www.thelittlebeet.com,1 212-459-9601,https://www.facebook.com/littlebeet,
The Little Beet ,Cafe,"135 West 50TH Street
","New York, NY 10020
",https://www.thelittlebeet.com,1 212-459-2338,https://www.facebook.com/littlebeet,
The Little Beet ,Cafe,630 Old Country Rd,"Garden City, NY 11530",https://www.thelittlebeet.com,1 516-387-6300,https://www.facebook.com/littlebeet,
The Little Beet Table,Cafe,333 Park Ave. South,"New York, NY 10010",http://www.thelittlebeettable.com,1 212-466-3330,https://www.facebook.com/littlebeettable,
The Little Beet Table,Cafe,"845 N. State St., Suite 101","Chicago, IL 60610",http://www.thelittlebeettable.com,1 312-549-8600,https://www.facebook.com/littlebeettable,
Mason Dixon Bakery,Bakery,"2358 Whitesburg Drive South
","Huntsville, AL 35801
",https://masondixonbakery.com/,1 256-213-7545,https://www.facebook.com/MasonDixonBakery/,masondixonbakery@gmail.com
The nilk Factory,Bakery/Cafe,523-17 Sinsa-dong,"Gangnam-gu, 
Seoul, Korea 06028
",http://nilkfactory.com,82 02-2039-0821,https://www.facebook.com/The-nilk-factory-639966419504416/,customer@nilkfactory.com
The Oxford Place,Restaurant,2 Oxford Place,"Leeds, UK LS1 3AX",https://2oxfordplace.co.uk/,44 113 234 1294,https://www.facebook.com/theoxfordplace/,
The Raw Kitchen,Cafe/Restaurant,"181A High St
","Fremantle, Australia 6160",http://www.therawkitchen.com.au/,61 8 9433 4647,https://www.facebook.com/rawkitchenfreo,emma@therawkitchen.com.au
The Red Bandana,Bakery,8218 Wisconsin Ave.,"Bethesda, MD 20814",http://theredbandanabakery.com/,1 240-284-6523,https://www.facebook.com/theredbandanabakery/?modal=composer&notif_id=1509751350672616&notif_t=page_fan_growth_drop,jaimie@theredbandanabakery.com
The Willow,Restaurant,"16 The Triangle
","Kingston upon Thames, UK KT1 3RT",http://www.yourwillow.co.uk/,44 20 3034 2424,https://www.facebook.com/yourwillow/,ped@blueskyconnexions.co.uk
Theta Healthy Eating Cuisine,Cafe/Restaurant,"Andrea Drousioti, 9, Heroes Square","Limassol, Cyprus 3040",http://www.thetacuisine.com.cy,357 25 013738,,
Thri1ve Emporium,Cafe/Restaurant,287 Lonsdale St,"Melbourne, Victoria, Australia 3000",,61 2 9042 1220,https://www.facebook.com/THR1VEEmporium/,
Tiann's,Bakery/Cafe,"71 Seng Poh Road, #01-35
","Singapore 160071
",https://www.tianns.com.sg/,65 6222 1369,https://www.instagram.com/tiannsbakery/,
Tina’s Sweet Treats,Bakery,4271 S Dixie Hwy.,"Franklin, Ohio 45005",https://www.tinassweettreats.com/,1 513-429-9428,https://www.facebook.com/TinasSweetTreatsGlutenFreeBakery/,tina@tinassweettreats.com  
Totally Gluten Free Bakery,Bakery/Cafe,290B Colombo Street,"Christchurch, New Zealand 8023",https://www.glutenfreebakery.co.nz,64 3-341 1172,https://www.facebook.com/GlutenFreeNZ/,sales@glutenfreebakery.co.nz
Tribeca Ice Cream,Ice Cream/Gelato,"Rykestr 40
","Berlin, Germany 1040",http://www.tribecaicecream.com/,49 1512 6993433,https://www.facebook.com/tribecaicecream/,klaus@tribecaicecream.com
Triple Oak Bakery,Bakery,11692A Lee Highway,"
Sperryville, VA 22740
",http://www.tripleoakbakery.com/,1 540-987-9122,https://www.facebook.com/TripleOakBakery/,TripleOakBakery@gmail.com
Tu-Lu’s Gluten-Free Bakery,Bakery,"338 East 11th Street
","New York, NY 10003
",http://tu-lusbakery.com,1 212-777-2227,https://www.facebook.com/Tu-Lus-Gluten-Free-Bakery-339559997169/,arianne@tu-lusbakery.com
Twice Baked Gluten Free Baking Company,Bakery,8185 E Wardlow Rd,"Long Beach, CA 90808",http://twice-baked.com,1 562-343-5715,https://www.facebook.com/Twice-Baked-Gluten-Free-Baking-Company-241430029263525/,judykarni1@yahoo.com
Twins Cafe GF,Cafe,"Jr. Colina 108 Barranco
","Lima, Peru 4
",,51 991 597 997,https://www.facebook.com/TWINSCafeGF/,
Twist Bakery & Cafe,Bakery/Cafe,30 Milliston Rd,"Millis, MA 02054",http://www.twist-bakery.com/,1 508-376-1163,https://www.facebook.com/TwistBakeryCafe/,
Two Daughters Bakeshop,Bakery,121 East 1st Street,"North Vancouver, British Columbia, Canada V7L 1B2",http://www.twodaughtersbakeshop.ca,1 604-836-2229,https://www.facebook.com/twodaugthersbakeshop/,info@twodaughtersbakeshop.com
Two Wild Seeds,Bakery,320 W Main Street,"Saint Charles, IL 60174",https://www.twowildseeds.com/,1 630-797-5350,https://www.facebook.com/twowildseeds/,twowildseeds@gmail.com
Ubud Gluten Free Kitchen,Cafe,"Jl Sri-Wedari 2
","Ubud, Bali, Indonesia 80571
",,62 812-4643-9515,https://www.facebook.com/Ubud.Gluten.Free.Bali/,
Unrefined Bakery,Bakery,557 E I-30,"Rockwall, TX 75087 ",https://unrefinedbakery.com/,1 972-948-2414,,info@unrefinedbakery.com
Unrefined Bakery,Bakery,"3411 Preston Road Suite 8
","Frisco, TX 75034
",https://unrefinedbakery.com/,1 972-668-2414,,info@unrefinedbakery.com
Unrefined Bakery,Bakery,3250 Hulen Street #130,"Fort Worth, TX 76107",https://unrefinedbakery.com/,1 972-467-2494,,info@unrefinedbakery.com
Unrefined Bakery,Bakery,"6055 Sherry Lane
","Dallas, TX 75225
",https://unrefinedbakery.com/,1 469-816-2414,,info@unrefinedbakery.com
Unrefined Bakery,Bakery,"3426 Greenville Ave Suite 150
","Dallas, TX 75206
",https://unrefinedbakery.com/,1 214-826-2414,,info@unrefinedbakery.com
Unrefined Bakery,Bakery,6464 E NW HWY Suite 326,"Dallas, TX 75214",https://unrefinedbakery.com/,1 214-414-2414,,info@unrefinedbakery.com
Vegan Vee,Bakery,"306 46th Ave N
","Nashville, TN 37209",http://www.veganvee.com,,https://www.facebook.com/viviveganvee/,vivi@veganvee.com
Verde Cocina,Restaurant,5515 SW Canyon Court,"Portland, OR 97221",https://www.verdecocinamarket.com,1 503-297-5568,https://www.facebook.com/Verde-Cocina-118006988280243/,verdecocina@verdecocinamarket.com
Verde Cocina,Restaurant,524 NW 14th,"Portland, OR 97209",https://www.verdecocinamarket.com,1 503-894-9321,https://www.facebook.com/Verde-Cocina-118006988280243/,verdecocina@verdecocinamarket.com
Verde Cocina,Restaurant,3746 N. Mississippi Avenue,"Portland, OR 97227",https://www.verdecocinamarket.com,1 503-206-7586,https://www.facebook.com/Verde-Cocina-118006988280243/,verdecocina@verdecocinamarket.com
Verde Cocina,Restaurant,6446 SW Capitol Hwy,"Portland, OR 97239",https://www.verdecocinamarket.com,1 503-384-2327,https://www.facebook.com/Verde-Cocina-118006988280243/,verdecocina@verdecocinamarket.com
Vida365,Restaurant,16129 FL - 50 #104,"Clermont, FL 34711",http://vida365.com,1 352-474-8432,https://www.facebook.com/vidacuisine365/?fref=gc&dti=706329499390562&hc_location=ufi,vidacuisine365@gmail.com
Violette Gluten Free Bakery,Bakery,1786 Mass Ave,"Cambridge, MA 02140",http://violettegf.com/,1 857-500-2748,https://www.facebook.com/Violette-Gluten-Free-503117259714865/,info@violettegf.com
Vital Root,Restaurant,3915 Tennyson St.,"Denver, CO 80212",http://www.vitalrootdenver.com/,1 303-474-4131,,INFO@VITALROOTDENVER.COM
Von Walden,Cafe/Grocery Store,Nelkengasse 8,"Vienna, Austria 1060
",https://www.vonwalden.at,43 1 9258067,https://www.facebook.com/vonwalden.at,
West Meadow Farm Bakery,Bakery,4 Park St.,"Essex Junction, VT 05452",http://westmeadowfarmbakery.com,1 802-878-1646,https://www.facebook.com/West-Meadow-Farm-Bakery-90486264484/,
Wheat's End Cafe,Cafe,2873 N Broadway St.,"Chicago, IL 60657",http://www.wheatsend.com/,1 773-770-3527,https://www.facebook.com/wheatsend,jacqueline@wheatsend.com
White Envelope,Restaurant,301 W 29th Street,"Baltimore, MD 21211",http://www.weeatarepas.com/#about,1 443-681-1906,https://www.facebook.com/WEeatArepas/?hc_ref=PAGES_TIMELINE,info@weeatarepas.com
Blueu Bear Bakery,Bakery,109 Kings Hwy E ,"Haddonfield, NJ 08033",http://bleubearbakery.com/,1 856-429-3703?,,
WHOS Gluten Free,Cafe,80 Mallory Ave,"Jersey City, NJ 07304",http://www.whosglutenfree.com/,1 201-654-1266,https://www.facebook.com/WhosGlutenFree/,
Wild & the Moon,Cafe,"Dubai Festival City, 1st Floor
","Dubai, UAE",http://www.wildandthemoon.ae/,971 43855120,,social@wildandthemoon.com
Wild & the Moon,Cafe,"Alserkal Avenue Street 8, H77
Al Quoz","Dubai, UAE
",http://www.wildandthemoon.ae/,971 43433392,,social@wildandthemoon.com
Wild & the Moon,Cafe,"55, rue Charlot
","Paris, France 75003",http://www.wildandthemoon.fr/,33 1 86 95 40 46,https://www.facebook.com/WildAndTheMoon/,
Wildflour Bakery/Cafe,Bakery/Cafe,2691 Main Street,"Lawrenceville, NJ 08648",https://www.wildflourbakery-cafe.com/,1 609-620-1100,https://www.facebook.com/WildflourBakeryCafe,wildflour2691bakery@gmail.com
Wild Living Foods,Cafe,"760 S Main Street
","Los Angeles, CA 90014
",http://www.wildlivingfoods.com/,1 213-266-8254,,
Wild Wood Bakehouse,Bakery,3016 Guadalupe St,"Austin, TX 78705",http://www.wildwoodbakehouse.com,1 512-327-966,https://www.facebook.com/Wild-Wood-Bakehouse-411244325618496/,info@wildwoodbakehouse.com
Wildcraft Bakery,Bakery,"Unit 13, Penraevon Industrial Estate
Penraevon Avenue","Leeds, UK LS7 2AW",http://www.wildcraftbakery.com/,44 7944 785394,https://www.facebook.com/WildcraftBakery/?timeline_context_item_type=intro_card_work&timeline_context_item_source=61301810&pnref=lhc,
Wildflour Gluten-Free Bakery,Bakery,"13600 NE 20th St, Ste B
","Bellevue, WA 98005
",https://www.wildflourglutenfree.com/,1 425-765-6115,https://www.facebook.com/wildflourglutenfree/,info@wildflourglutenfree.com
Winnie's Gluten-Free Kitchen,Bakery,181 Park Street,"Waterloo, Ontario, Canada N2L 1Y7",http://winniesglutenfree.com,1 519-590-2769,https://www.facebook.com/WinniesGlutenFree,winniesglutenfree@gmail.com
Woodside Cafe,Cafe,"134A Hinemoa St,
Birkenhead ","Auckland, New Zealand 0626
",https://www.woodsidecafe.co.nz,64 9-419 8084,https://www.facebook.com/Woodside-Cafe-NZ-842401019239534/,mark@woodsidecafe.co.nz
Yarralicious ,Bakery,486 Warrandyte-Ringwood Rd,"Melbourne, Victoria, Australia 3113",,61 3 9844 4480,https://www.facebook.com/YaraliciousCafe/,info@yarralicious.com.au
Yem'a,Cafe,41 Rue Godot de Mauroy,"
Paris, France 75009",http://www.yemafood.com/,33 1 42 94 07 73,,
Yorica,Ice Cream/Gelato,"130, Wardour Street
","London, UK W1F 8ZN",http://www.yorica.com/,44 20 7434 4370,https://www.facebook.com/YoricaMoments/,anna@yorica.com
Yum Yum's Gluten Free Bakery,Bakery/Cafe,601 1/2 W Manlius Street East,"Syracuse, NY 13057",http://www.yumyumsglutenfree.com/,1 315-314-7542,,yumyumsbakery@mail.com
Yummy and Guilt Free,Cafe,3 rue du Temple,"Paris, France 75004",https://www.yummyandguiltfree.com/,33 1 45 66 56 68,https://www.facebook.com/yummyandguiltfree/,iris@yummyandguiltfree.com
Zarzuela,Cafe/Restaurant,"Rua Bernardino Costa 23
","Lisbon, Portugal 1200-052
",http://www.zarzuela.pt/pt,351 21 605 2532,https://www.facebook.com/zarzuelapt/,info@zarzuela.pt
Zest Kitchen & Bar,Restaurant,"275 South 200 West
","Salt Lake City, UT 84101
",https://www.zestslc.com,1 801-433-0589,,casey@zestslc.com
Zum Wohl,Restaurant,Stumpergasse 61,"Vienna, Austria 1060",http://www.zumwohl-gastro.com,43 1 5953166,https://www.facebook.com/zumwohl.wien.stumpergasse/,
Good Food Gluten Free,Bakery,"423 West 800 S Ste A-113
","Salt Lake City, UT 84101
",http://www.goodfoodglutenfree.com/,1 801-413-4978,,
City Cakes Bakery,Bakery,1860 S 300 W Ste D,"Salt Lake City, UT 84115",http://citycakescafe.com/,1 801-572-5500,,contact@citycakescafe.com
City Cakes Bakery,Bakery,192 E 12300 S,"Draper, UT 84020",http://citycakescafe.com/,1 801-572-5500,,contact@citycakescafe.com
Brick Canvas,Cafe/Restaurant,2455 W Executive Pkwy,"Lehi, UT 84043",https://www.brickcanvas.com/cafe,1 801-407-8620,,
Bad Boys Donuts,Bakery,look online to find them!,"Brisbane, Queensland, Australia",,61 413 023 151,https://www.facebook.com/BadBoysDoughnuts/,
Su Jus Bar ,Cafe,"Shop 87 Pialba Place Shopping Centre, Hervey Bay","Hervey Bay, Australia",https://sujus.com.au/,61 0422 765 768,,sujusbar@sujus.com.au
Coronados Gluten Free Pantry,Bakery,check website,"San Diego, CA",https://www.coronadosglutenfreepantry.com/,1 858-270-9863,,coronadosglutenfreepantry@gmail.com
Newark Artisan Gluten Free Bakery,Bakery,12 Chain Ln,"Newark, UK NG24 1AU",http://www.artisangfbakery.co.uk/,44 1636 361605,,enquiries@artisangfbakery.co.uk
The Southern Olive,Restaurant,"8356 Charlotte Hwy, Suite 102
","Fort Mill, SC 29707
",https://www.thesouthernolive.com/,1 803-547-6606,https://www.facebook.com/thesouthernolive%20/,
B'Gabs Goodies,Bakery,1450 East 57th St.,"Chicago, IL 60637",https://www.bgabsgoodies.com/,1 773-256-1000,,
CheSa's Gluten Tootin Free Food Truck,Food Truck,"check online
","Chicago, IL",,1 312-576-5955,https://www.facebook.com/chesasgtf/,
Cassava,Cafe,3929 N Central Park Ave.,"Chicago, IL 60618",http://cassavachicago.com/,1 872-242-7088,,
Redemption,Restaurant,15 Shorts Gardens,"London, UK WC2H 9AT",https://www.redemptionbar.co.uk,,,
Redemption,Restaurant,320 Old Street,London EC1V 9DR,https://www.redemptionbar.co.uk,"44 020 7613 0720
",,
Redemption,Restaurant,6 Chepstow Road,"London, UK W2 5BH",https://www.redemptionbar.co.uk,44 020 7313 9041,,
Alt Brewery,Brewery,"1808 Wright Street
","Madison, WI 53704",http://www.altbrew.com/,,,
Aurorchs Brewery,Brewery,8321 Ohio River Blvd.,"Emsworth, PN 15202",http://www.aurochsbrewing.com/,1 720-260-8737,,
Bierly Brewing,Brewery,214 NE 11th St,"McMinnville, OR 97128",http://www.bierlybrewing.com/,1 541-257-5126,,
Burning Brothers Brewery,Brewery,1750 W Thomas Ave,"Saint Paul, MN 55104",https://www.burnbrosbrew.com,1 651-444-8882,,
Evasion Brewery,Brewery,"4230 NE Riverside Dr, Unit B
","McMinnville, OR 97128
",,1 503-835-5322,,
Ghostfish Brewering Company,Brewery,2942 1st Ave. S,"Seattle, WA 98134",http://ghostfishbrewing.com/,1 206-397-3898,,brian@ghostfishbrewing.com
Ground Breaker,Brewery,"2030 SE 7th Ave.
","Portland, OR 97214
",https://www.groundbreakerbrewing.com/,1 503-928-4195,,
Holidaily,Brewery,801 Brickyard Cir,"Golden, CO 80403",http://holidailybrewing.com/,1 303-278-2337,,
Moonshrimp Brewing,Brewery,8428 SW 22nd Ave,"Portland,
 OR 97219
",http://www.moonshrimpbrewing.com/,1 503-970-2234,,
Glutenberg,Brewery,2350 Dickson,"Montreal, Quebec, Canada H1N 3T1",https://glutenberg.ca,1 514-933-2333,,
Bellfield Brewery,Brewery,46 Stanley Place,"Edinburth, UK EH7 5TB",https://www.bellfieldbrewery.com/,44 0131 656 9390,,info@bellfieldbrewery.com
Cupcakes and shttt,Bakery,Unit 10,"London, UK SE17 1AY",https://www.cupcakesandshhht.com/,44 7545 980977,,
Vichenzo ,Restaurant,"C1074AAK, AAK 
Salta 529, C1074 CABA","Buenos Aires, Argentina",http://www.vichenzo.com.ar/,54 011 4381-5639,https://www.facebook.com/pg/Vichenzo-1672506359650724/about/,
Green Mix,Restaurant,"Rua Itupava, 1670 Alto da XV","Curitiba, Brazil 80045-330",,55 41 3779 0963,https://www.vivagreenmix.com.br/restaurante,
Glutenno,Restaurant,Masarykova 11 (u dvorištu),"Zagreb, Croatia 10000",,,https://www.facebook.com/glutennorestaurant/,
Zero Bakery,Bakery,"43 Hoenamu-ro, Itaewon 2(i)-dong","Yongsan-gu, Seoul
",https://zerobakery.kr/,82 02-338-8226,,
Zero Bakery,Bakery,"3 Sowol-ro 44ga-gil, Itaewon 2(i)-dong","Yongsan-gu, Seoul",https://zerobakery.kr/,82 02-338-8226,,
Skinny Genie,Bakery,"warehouse No 9 Close to Noor Islamic
 Bank Metro station
","Dubai, United Arab Emirates PO Box 66618",http://www.skinny-genie.com/,971 800 754669,,
Kitchen Confidential,Cafe/Restaurant,Independence Street,"Beirut, Lebanon 0000",http://www.kitchenconfidential.org/,961 1 201 353,https://www.facebook.com/KitchenConfidentialBeirut/,order@kitchenconfidential.org
Bitter Brown,Restaurant,"10th street, Zaidan Center,
Royal Hotel bridge
Dbayeh","Mont-Liban, Lebanon
",,961 4 547 725,https://www.facebook.com/BitterBrownFineDining/,
Oh Bake House!,Bakery,Monot,"Beruit, Lebanon",,961 76 662 552,https://www.facebook.com/OHBakehouse/,
Ellas Bellas Bakery,Bakery,,"Beacon, NY",http://www.ellasbellasbeacon.com/,,,
Hygge Cakes,Bakery,634 Sycamore St.,"Cincinnati, OH 45202",https://www.hyggecakes.com/,1 309-678-8002,,taylor@hyggecakes.com
Copita Tequileria y Comida,Restaurant,739 Bridgeway,"Sausalito, CA 94965",https://www.copitarestaurant.com/,1 415-331-7400,,
Kickshaws Downtown Market,Bakery,101 William Street,"Fredericksburg, VA 22401",http://kickshawsdowntownmarket.com/the-bakery/,1 540-374-2080,,
The Morning Dove,Bakery/Cafe,"25 Soledad Dr
","Monterey, CA 93940",http://www.themorningdoveglutenfree.com/,1 831-747-1667,,order@themorningdoveglutenfree.com
Dottie's Tearoom,Bakery/Cafe,"6, Beechwood Road, Arnold","Nottingham, UK NG5 8BA",http://dottiestearoom.weebly.com/,44 0115 952 4738,,dottiestearoom@yahoo.co.uk
Wild Flours Gluten Free Bakery,Bakery,526 Kilmarncok Rd.,"Giffnock, Glasgow G43 2BL",https://www.wildflours.co.uk,44 0141 811 0441,https://www.facebook.com/WildFloursBakery/,
No Grainer,Bakery,22a Plateau Road,"Reservoir, Victoria, Australia 3073",http://nograiner.com.au/,61 401 922 541,,
Trilogy Cafe,Cafe,"7650 Girard Avenue, Suite 400
","La Jolla, CA 92037
",https://www.trilogysanctuary.com/cafe/,1 858-633-3893,,
Anatani Yummy & Gluten Free,Cafe,"Juramento 3076
C1428DOB CABA","Buenos Aires, Argentina",http://www.anatani.com.ar/,54 4783-2255 ,,
Guilt Free Pleasures,Bakery,,"Hucknall, Nottingham, UK NG15",https://www.gfpfoodsandnutrition.co.uk/,44 7849 356178,,
Pies by Domonic,Bakery,"order online
","Hunington Beach, CA",https://www.piesbydomonic.com/,1 562-640-1405,,info@piesbydomonic.com
Denver Poke Company,Cafe/Restaurant,1550 Platte St Suite C,"Denver, CO 80202",http://denverpokecompany.com,1 303-283-4060,,tonya.robertson2@gmail.com
Flur Bakery,Bakery,1 Riverside Road,"Riverside, IL 60546",http://flurflavorfirst.com/,1 708-442-6801,,adriana@flurllc.com
Frankie & Jo's,Ice Cream/Gelato,"1010 E Union St
","Seattle, WA 98112",https://frankieandjos.com,1 206-557-4603,,hello@frankieandjos.com
Frankie & Jo's,Ice Cream/Gelato,"1411 NW 70th Street
","Seattle, WA 98117",https://frankieandjos.com,1 206-257-1676,,hello@frankieandjos.com
Points South Latin Kitchen,Restaurant,1640 Thames Street,"Baltimore, MD 21231",http://www.pointssouthbaltimore.com,1 443-563-2018,,info@pointssouthbaltimore.com
A Better Choice Bakery,Bakery,6 W Potomac St,"Brunswick, MD 217167",https://abetterchoicebakery.com/,1 301-712-413,,
The Real Coconut,Cafe Restaurant,"Sanara, KM8.2 Boca Playa","Tulum, Qroo, Mexico",https://www.therealcoconut.com/,1 310-933-6408,,
Borough22 Doughnuts,Bakery,Plumstead Common,"London, UK SE18 2",https://www.borough22.com/,,,hello@borough22.com
Yoga-urt,Ice Cream/Gelato,Address: 1407 W Kenneth Road,"Glendale, CA 91201",http://www.yoga-urt.com/,1 818-545-3880,,
Rawsome Treats,Bakery,"158 Orchard St
","New York, NY 10002",http://www.rawsometreats.com/,1 646-767-0373,,
Søstrene Fryd,Cafe/Restaurant,Kongensgate 28,"
Ålesund, Norway 6002
",http://www.sostrenefryd.no/,47 70 10 05 12,https://www.facebook.com/S%C3%B8strene-Fryd-342511289286677/,
The Rocks and Dirt Bakery,Bakery,"contact online
","Camano Island, WA",http://therocksanddirtbakery.com/,,https://www.facebook.com/therocksanddirtbakery/,
Aletta,Restaurant,"Nerima-ku
Tokyo Sekimachikita 3-50-1
","Tokyo, Japan",http://alettapark.com/,81 03-6279-7304,https://www.facebook.com/Aletta-491626757715281/?fref=ts,
Nectarine Grove,Cafe,948 N Coast Hwy 101,"Encinitas, CA 92024",https://www.nectarinegrove.com/,1 760-944-4525,,info@nectarinegrove.com
Marché du Macaron,Cafe,97 Thistle Street Gordon Park ,"Brisbane, Queensland, Australia",http://www.marchedumacaron.com.au/,61 07 3857 3456,https://www.facebook.com/marchedumacaron/,
Marché du Macaron,Cafe,54 Frasers Road,"Ashgrove, Queensland, Australia",http://www.marchedumacaron.com.au/,61 07 3366 6865,https://www.facebook.com/marchedumacaron/,
Where is a Dog?,Restaurant,"52, Kikuicho, Shinjuku
","Tokyo 162-0044, Japan
",http://www.whereisadog.net/,81 3-6205-9750,,
Gluten Free 61 Cafe & Bar,Cafe/Restaurant,"???3?4?6
 Minato-ku","Tokyo, Japan 106-0032
",,81 3-6874-7719,https://m.facebook.com/glutenfree.organic.cafebar/,
Wilde Cafe,Cafe,Cnr Florence & Macquarie Sts Teneriffe,"Brisbane, Queensland, QLD 4006 Australia",http://www.wildekitchen.com.au/,61 07 3161 2088,,info@wildekitchen.com.au
Papu Gluten Free,Bakery,"200 Este de la Iglesia Santa Teresita
Barrio Escalante","San José, Costa Rica",,506 4001 2870,https://www.facebook.com/papuglutenfree/,
Gorge Gluten Free,Ice Cream/Gelato,11 3rd St,"Hood River, OR 97031",https://www.gorgeicecream.com,1 541-436-3287,,
Whole Green Bakery,Bakery,24 Arden Street,"Waverley, New South Wales, Australia",http://www.wholegreenbakery.com.au/,61 02 9664 2211,https://www.facebook.com/Kitchen-Green-1442155462679020/,
Beska Chella Bakery,Bakery,online,"Sydney, Australia",https://beskachella.com.au/,61 497 487 623,https://www.facebook.com/BeskaChella/,
La Otilia Bakery,Bakery,"Valladolid 76 A, Roma Nte., 06700
","Ciudad de México, CDMX, Mexico
 ",http://laotilia.com.mx/,52 55 5207 2546,,
Gula Sana,Cafe,"Diputación 361/Paseo San Juan
","Barcelona, Spain 08009",http://www.gulasana.com/,34 930 24 52 35,https://www.facebook.com/gulasanaglutenfree/,
Sweetpea Cafe,Bakery,4 Shin Hing Street,Central Hong Kong,http://www.sweetpeacafe.hk/,852 3689 7269,https://www.facebook.com/pg/SweetpeaPatisserieHK/photos/?ref=page_internal,
As Quoted,Restaurant,3613 Sacramento St,"t
San Francisco, CA 94118
",http://www.eatasquoted.com/,1 415-914-0689,https://www.facebook.com/asquoted,hello@eatasquoted.com
Gokuraku Curry,Restaurant,3 Chome-3-9-47 Yuigahama,"Kamakura-shi, Kanagawa-ken, Japan 248-0014",https://gokurakucurry.com/,81 467-61-1807,,
Strawberry Blonde Bakery,Bakery,114B Grange Ave.,"Ottawa, Ontario, Canada K1Y 3B1",https://www.strawberryblondebakery.com/,1 613-725-2253,,
The Sweet Beet,Bakery/Cafe,498 Salmon Brook St,"Granby, CT 06035",https://www.thesweetbeet.net/,1 860-653-2338,,thesweetbeetllc@gmail.com
Choice,Cafe/Restaurant,2Q5F+QG Kyoto,"Kyoto Prefecture, Japan",http://choice-hs.net/,81 75-762-1233,,
Vitapek,Bakery,Domanjševci 139,Domanjševci 9206 Križevci v Prekmurju,https://vitapek.si/,386 51 766 555,,
The Gluten Free Place,Cafe,"1654 N Coast Hwy
","Newport, OR 97365
",http://www.thegfplace.com/,1 541-574-8437,,thegfplace@gmail.com
The Juice Laundry,Cafe,"1411 University Ave.
","Charlottesville, VA 22903
",https://www.thejuicelaundry.com/,1 434-202-8839,,
The Juice Laundry,Cafe,"722 Preston Ave. Ste 105
","Charlottesville, VA 22903
",https://www.thejuicelaundry.com/,1 434-234-3044,,
Taco Revolution,Food Truck,check online for location,"Vancouver, Canada",http://www.tacorevolution.ca/,1 250-244-6492,https://www.facebook.com/TacoRev,uprise@tacorevolution.ca
Hell Yeah Gluten Free,Bakery,Order online,"Atlanta, GA",https://www.hygf.co/,1 813-514-5275,,
Ella's Bellas,Bakery/Cafe,418 Main Street,"Beacon, NY 12508",,1 845-765-8502,,
Della Bowls,Cafe/Restaurant,56 NW 29th St,"Miami, FL 33127",http://www.dellabowls.com/,1 303-351-2961,,
Cure Cafe,Cafe,1800 SW 1st Ave,"Miami, FL 33129",https://www.curecafemiami.com,1 786-601-1949,,
Manna Life Food,Cafe,80 NE 2nd Ave.,"Miami, FL 33132",http://mannalifefood.com,1 786-717-5060,,
Paleo Brio,Cafe/Restaurant,"1650 W. SR 89A Ste. A
","Sedona, AZ 86336
",http://www.cafepaleobrio.com/,1 928-862-4202,,
Paleo Brio,Cafe/Restaurant,"601 E Piccadilly Dr #35
","Flagstaff, AZ 86001
",http://www.cafepaleobrio.com/,1 928-440-5357,,
Chocolatree,Cafe/Restaurant,"1595 W State Route 89A
","Sedona, AZ 86336
",https://chocolatree.com/,1 928-282-2997,,
Gluten Free is the New Black,Bakery,"??? 11-43??????? ????
??? 114?
","Nara, Japan 630-8114",https://www.glutenfreeisthenewblack.info/,81 80-6189-7925,,
Revitalive,Cafe,50 Water Street,"Newburyport, MA 01950",http://www.revitalive.com/,1 855-584-2328,,
Revitalive,Cafe,93 Main St,"Andover, MA 01810",http://www.revitalive.com/,1 855-584-2328,,
Mother Juice,Cafe,"625 West Kendall St.
","Cambridge, MA 02142
",http://www.motherjuice.com/,1 617-945-7357,,
Mother Juice,Cafe,"291 Newbury St.
","Boston, MA 02115",http://www.motherjuice.com/,1 857-263-7401,,
Mother Juice,Cafe,100 Hanover St.,"Boston, MA 02108",http://www.motherjuice.com/,,,
Thirst Juice Co.,Cafe,44 School St,"Boston, MA 02108",http://www.thirstjuiceco.com/,1 857-233-4535,,
Brodo,Cafe,2144 Broadway,"New York, NY 10023",https://www.brodo.com/,1 646-858-1494,,
Brodo,Cafe,236 Lafayette St,"New York, NY 10012",https://www.brodo.com/,1 646-490-4010,,
Brodo,Cafe,281 Bleecker St,"New York, NY 10014",https://www.brodo.com/,1 212-462-4682,,
Brodo,Cafe,200 1st Avenue,"New York, NY 10009",https://www.brodo.com/,1 646-602-1300,,
Gingersnap's Organic,Cafe,20 West 20th street Suite 215,"New York, NY 10011",https://organicallyjamie.com/menu/,1 917-397-2930,,
Pure Organic Kitchen & Juicery,Cafe,"9925 SW Bank Rd
","Vashon, WA 98070
",https://www.facebook.com/purevashon/,1 206-259-3179,,
Better Eats,Cafe,3308 Uddenberg Lane,"
Gig Harbor, WA 98335",https://www.facebook.com/bettereatsgigharbor/,1 253-649-4318,,
Longevity Foods,Cafe,14701 Main Street NE Suite A1,"Duvall, WA 98109",https://longevityfoodz.com/index.html,1 425-788-2332,,
Viva,Restaurant,"2602 N Proctor St Ste D
","Tacoma, WA 98407
",http://www.viva4life.com/,1 253-503-6498,,
Café Organique,Cafe,"11656 98th Ave NE
","Kirkland, WA 98034
",http://www.cafeorganique.us/,1 425-298-4575,,
Essence Cuisine,Cafe/Restaurant,94 Leonard Street,"London, UK EC2A 4RH",https://www.essence-cuisine.com/,44 20 7729 5678,,
GFQ,Restaurant,26 Chapel Hill,"Huddersfield, UK HD1 3EB",https://www.facebook.com/gfqltd/,44 1484 300523,,
Aime's Love,Bakery/Cafe,331 Main Street,"Longmont, CO 80501",http://www.aimeslove.com/,1 720-340-4636,,
Boulder Tamales,Catering/Meal Delivery,"Pick up by appointment from
upstairs kitchen at The Boulder Broker:
555 30th St., ","Boulder, CO 80303",http://www.bouldertamales.com,1 303-415-1916,,
Thrive,Restaurant,"1509 Arapahoe Ave
","Boulder, CO 80302
",http://thriveraw.com/,1 720-616-7785,,thriveraw@gmail.com
honey B's macarons,Bakery,40 Springer Dr,"Highlands Ranch, CO 80129",,1 303-565-6700,https://www.facebook.com/honeybsmacarons/,
Butterfly Belly Asian Cuisine,Restaurant,"6036 SE Division St
","Portland, OR 97206
",http://www.butterflybellyasiancuisine.com/,1 503-788-7327,,
Prasad,Restaurant,"21 NE 12th Ave.
","Portland, OR 97232
",https://www.prasadpdx.com/,1 503-224-3993,,info@prasadpdx.com
Bang Bang,Restaurant,"4727 NE Fremont
","Portland, OR 97213
",http://www.bangbangpdx.com/,1 503-287-3846,,
Pines Coffee,Cafe,"8086 E Mill Plain Blvd
","Vancouver, WA 98664
",https://www.pinescoffee.co/,1 360-524-2748,,
Rolling Table Newberg,Food Truck,"910 E 1st St
","Newberg, OR 97132
",,1 360-525-7606,https://www.facebook.com/rollingtablenewberg/,
Delta Blues Hot Tamales,Restaurant,"1318 Cobb Ln
","Birmingham, AL 35205",https://www.deltablueshottamales.com/,1 205-502-7298,,
Hype Food Co.,Bakery/Restaurant,1060 Gerrard St E,"Toronto, Ontario, Canada M4M 1Z8",https://www.hypefoodco.ca/,1 416-840-7430,,media@hypefoodco.ca
Gluten Free Revolution Cafe,Cafe,155 Long Road “Gallery Walk”     ,"Eagle Heights, Queensland 4272",,61 431 918 848,https://www.facebook.com/glutenfreerev/,
Misters,Cafe,"Ground Floor, 12 Wyndham St.
","Auckland City, New Zealand",https://misters.co/,64 9-379 9939,,hello@misters.co
Gluten Free Donuts,Bakery,look online to find them!,"Queensland, Australia",,61 407 924 655,https://www.facebook.com/gfreedonuts/,
Taco Medic,Food Truck,South Searle Lane,"Queenstown, New Zealand 9300",,64 3-442 8174,https://www.facebook.com/tacomedic/,
Blue Moon Bakery,Bakery,"560 SE 4th Ave
","Hillsboro, OR 97123",https://www.bluemoonbakingco.com/,1 503-730-2844,,bluemoonbakery@gmail.com
Health Freak Cafe,Cafe,"Shop 2, Power Centre Bussleton
86 West Street","West Bussleton, Western Australia 6280",http://www.healthfreakcafe.com.au/,61 (08) 9754 6590,,
Health Freak Cafe,Cafe,420 Joondalup Drive,"Joondalup, Western Australia 6027",http://www.healthfreakcafe.com.au/,61 (08) 9301 5547,,
Health Freak Cafe,Cafe,"Shop G-333 Cockburn Gateway
Shopping City, 816 Beeliar Drive","Success, Western Australia 6164",http://www.healthfreakcafe.com.au/,61 (08) 9414 6799,,
Health Freak Cafe,Cafe,22 Scarborough Beach Rd,"Scarborough, Western Australia 6019",http://www.healthfreakcafe.com.au/,61 (04) 3106 1020,,
Health Freak Cafe,Cafe,"Shop 5, 787 Canning Highway
Cnr of Kearns Cres","Applecross, Western Australia 6153",http://www.healthfreakcafe.com.au/,61 (08) 6150 7011,,
Health Freak Cafe,Cafe,"Shop 37B, 85 The Esplanade","South Perth, Western Australia 6151",http://www.healthfreakcafe.com.au/,61 (08) 9474 2729,,
Health Freak Cafe,Cafe,"1st Level, Quest Apartments
(Bottom of Jacobs Ladder) 130 Mounts Bay Road
","Perth, Western Australia 6000",http://www.healthfreakcafe.com.au/,61 (08) 9321 2279,,
Health Freak Cafe,Cafe,"Shop 3347 Macquarie Centre
Herring & Waterloo Road","North Ryde New South Wales, Australia 2113",http://www.healthfreakcafe.com.au/,61 02 9888 6282,,
Kith & Kin Bakeshop,Bakery,5850 South Transit Road,"Lockport , NY 14094",http://www.kkbakeshop.com/,1 716-471-3305,https://www.facebook.com/KithandKinBakeshopandBistro/,
Iki Japanese Bistro,Restaurant,633 East 15th Avenue,"Vancouver, British Columbia, Canada V5T 2R6
",https://lazymeal.com/menu/iki?frame=t,1 604-876-4114,https://www.facebook.com/Iki-Japanese-Bistro-244511665676500/,
SushiLOVE,Food Truck,"1112 SE Tacoma St
","Portland, OR 97202",,,https://www.facebook.com/sushilovepdx/,
Teote ,Restaurant,"1615 SE 12th Ave.
","Portland, OR 97214
",http://www.teotepdx.com/,1 971-888-5281,,
Schilling Cider House,Restaurant,930 SE 10th Ave,"Portland, OR 97214",https://www.schillingciderhouse.com/,1 971-352-6109,,jennie@schillingcider.com
Life is Sweet Bakery & Cafe,Bakery/Cafe,"155 Railroad Avenue
","Danville, California 94526",https://lifeissweetbakeryandcafe.com/,1 925-718-5818,,
AnnWich,Cafe,2209 Falcon Ave,"Bettendorf, IA 52722",https://www.annwich.com/,1 563-424-1583,,
Simple Superfood Cafe,Cafe,1132 West Locust Street,"Davenport, IA 52804",https://www.simplesuperfoodcafe.com/,1 563-355-9000,,
Organic Bliss Deli & Bakery,Bakery/Cafe,"Sylvania, OH 43617","Sylvania, OH",http://organicblissmarket.com/,1 419-517-7,,
Renee's Gourmet Pizzeria,Restaurant,1937 W. Maple Rd.,"Troy, MI 48084",http://www.reneesgourmetpizzeria.com/,1 248-280-7800,,
Renee's Gourmet Pizzeria,Restaurant,29705 Northwestern Hwy.,"Southfield, MI 48034",http://www.reneesgourmetpizzeria.com/,1 248-208-6000,,
Stuff'd Dumpling,Restaurant,6909 Melrose Ave.,"Los Angeles, CA 90038",https://www.stuffdco.com/,1 323-424-7148,,info@stuffdco.com
Vibe Organic Kitchen & Juice,Cafe,1000 Bristol St N,"Newport Beach, California 92660",https://www.eatdrinkvibe.com/,1 949-478-4118,,hello@eatdrinkvibe.com
Rae Rae's,Bakery,1505 Rehberg Lane,"Billings, MT 59102",http://raeraesbakery.com/,1 406-534-2609,,tselkranch@gmail.com
BettyBOT,Bakery,7100 S Shore Drive 1st Floor,"Chicago, IL 60649",https://squareup.com/store/bettybot-shop,1 773-495-4615,https://www.facebook.com/botbakery/,
Spudz Fish and Chips,Cafe,"Unit 4/1 Caslani Lane, Pyes Pa","Tauranga, New Zealand 3112",https://www.spudz.kiwi/,64 7-562 8004,https://www.facebook.com/spudzcafe/,spudzacc@gmail.com
Pan Per Me,Bakery,Viale Monte Nero 57,"Milan, Italy",http://www.panperme.it/,39 02-3598 8094,,
Boris Bistro,Restaurant,465 McGill St.,"Montreal, Quebec, Canada H2Y 2H1",http://borisbistro.com/en/,1 514-848-9575,,
Edible Options,Bakery,"300 E Fourth Avenue, Unit 7","St. Catharine’s, Canada L2R 6P9",,1 905-688-1000,https://m.facebook.com/Edible-Options-454474674651965/?__tn__=%2Cg,
Crystany's Brasserie,Restaurant,9848 NS-221,"Canning, Nova Scotia, Canada B0P 1H0, CA",https://crystanysbrasserie.com/,1 902-582-3663,,
Crumbs & Roses,Bakery,443 Banks Rd.,"Kelowna, British Columbia, Canada V1X 7C6",http://crumbsandroses.ca/wp/,1 250-575-0154,,info@crumbsandroses.ca
Kinnikinnick,Bakery,10940-120 Street,"Edmonton, Alberta, Canada T5h 3P7",https://getitfresh.ca/,1 780-732-7527,,
Wild Orchid,Restaurant,"1818 Mountain Ave
","Canmore, Alberta, Canada",http://www.wildorchidbistro.com/,1 403-675-0755,,dine@wildorchidbistro.com
GlutenNo,Restaurant,"Jurija Gagarina 14e, naselje Belville,
Zgrada Ljubicica, lokal 11","Novi Beograd, Serbia 11070",http://www.glutenno.rs/en/welcome/,381 66 6306042,,info@glutenno.rs
Sintaxis Gluten Free,Restaurant,"Nicaragua 4849
C1414 CABA","Buenos Aires, Argentina",http://www.sintaxisglutenfree.com/,54 11 2071-2960 ,,
Mor Bakery & Cafe,Bakery/Cafe,"2018 S 1st St, Unit 102","Milwaukee, WI 53207",http://www.morfoodsmke.com/,1 414-249-3316,,info@morfoodsmke.com
Wauwatiki Bar & Grill,Restaurant,6502 W North Ave,"Wauwatosa, WI 53213",https://www.wauwatikis.com/,1 414-323-7555,,
Café Grüner Salon,Cafe,Hirschengasse 8,"Vienna, Austria 1060",,43 677 61965445,https://www.facebook.com/cafegruenersalon/,
Vegana Indiana,Restaurant,Schönbrunnerstraße 235,"Vienna, Austria 1120",,43 1 8102300,https://www.facebook.com/veganaindiana/,
Wave the Grain,Bakery,"8172 South Holly Street
","Centennial, CO 80122",https://wavethegrain.com/,1 303-721-7547,https://www.facebook.com/WaveTheGRAIN/,info@wavethegrain.com
Fox and Son Fancy Corn Dogs,Food Truck,"51 N. 12th Street
","Philadelphia, PA 19107
",http://www.foxandsonphilly.com/,1 215-372-7935,,foxandsonphilly@gmail.com
Wilder Wood,Restaurant,"1300 E 7th St.
","Austin, Texas 78702
",http://www.wilderwoodrestaurantandbar.com/,1 512-628-0184,,
Pie Jacked,Bakery,"1105 S Mays St, Ste. 200
","Round Rock, TX 78664
",http://piejacked.wixsite.com/glutenfreepies,1 512-815-7959,,
Nancy's Sky Garden,Cafe,"501 S Austin Ave, 4th Floor
","Georgetown, TX 78626
",http://www.nancysskygarden.com/,1 512-554-2060,https://www.facebook.com/nancysskygarden,
Zero Zero Grano,Restaurant,"Via Carlo de Cesare, 40","Naples, Italy 80132",,39 081 060 6698,https://www.facebook.com/zerozerograno/,
Amiette Bakery,Bakery,"Calabria, 65
","Barcelona, Spain 08015
",http://www.amiette.com/,34 935 30 79 06,,
Rio Gostoso,Cafe,"Wiedner Hauptstrasse 34
","Vienna, Austria 1040",http://www.riogostoso.at/,,https://www.facebook.com/riogostoso/,info@riogostoso.at
Ballin' Out,Food Truck,check website,"Denver, CO",https://ballinoutco.com/,1 720-295-7115,,info@ballinoutco.com
Mediterranea,Restaurant,332 Ormond St SE,"Atlanta, GA 30315",https://www.mediterraneaatl.com,1 404-748-4219,,info@mediterraneaatl.com
Gr8Ful Pie,Bakery,6 Stillwater Ave.,"Orono, ME 04473",https://www.gr8fulpie.com/,1 207-817-0701,,
Rolln,Cafe,"38 E 23rd St
","New York, NY 10010
",https://www.rollnco.com,1 646-869-0826,,
Red Oak Bakery,Bakery,"596 S Castell Ave.
","New Braunfels, TX 78130
",http://redoakbakery.com/,1 830-609-9912,,redoakbakery@gmail.com
pikanik,Bakery,"#127 - 1959 152nd St
","South Surrey, British Columbia, Canada V4A 9E3",https://pikanik.ca/,1 604-210-6585,,
ATX Cocina,Restaurant,"110 San Antonio St Suite 170
","Austin, TX 78701
",http://atxcocina.com/,1 512-263-233,,ATXInfo@atxcocina.com
Fiocco di Neve,Ice Cream/Gelato,"Via Adda, 103 - 00198
","Rome, Italy
",,39 06 8880 5474,https://www.facebook.com/FioccodiNeveRoma/,
Chomp Vegan Eatery,Cafe/Restaurant,2234 E Hastings,"Vancouver, British Columbia, Canada",https://www.chompveganeatery.com,1 604-917-0201,https://www.facebook.com/chompveganeatery/?tn-str=k*F,info@chompveganeatery.com
East London Juice Co.,Cafe,"Ace Hotel
","London, UK E1 6J",https://eastlondonjuice.com/,44 7553 791315,,
Grom,Ice Cream/Gelato,18 Piccadilly,"London, UK W1J 0DF",https://www.grom.it/en/gelateria-London.html,44 20 7287 5300,,
The Silly Yak,Bakery,1365 Midland Ave unit 130,"Kingston, Ontario, Canada K7P 2W5",,1 613-583-2014,https://www.facebook.com/sillyyak.ca/,
Juliet Gluten Free Bakery,Bakery,787 Lea Bridge Road,"London, UK E17 9DZ",https://www.e17glutenfree.com/,44 20 8509 3213,,
Vida Bakery,Bakery,139 Brick Lane,"London, UK E1 6SB",http://vidabakery.co.uk/,,,
Ardiciocca,Restaurant,"461 465 North End Rd, Fulham","London, UK SW6 1NZ",https://www.ardiciocca.com,44 20 3848 6830,,
Cafe-Creperie,Cafe,"25 E Woodin Ave
","Chelan, Washington 98816
",http://bearfoodsmarket.com/cafe-and-creperie/,1 509-682-5535,,
Mullner Gluten Free Bakery,Bakery,"Sabana Sur, Calle 66, Avenida 16B
casa #97","San José, Costa Rica 1000",https://mullner-gluten-free-bakery-pastry-shop.negocio.site/,506 8847 3054,,
Marie Anita's Gluten Free Health Cafe,Cafe,2364 Gold Coast Hwy,"Mermaid Beach, Queensland, Australia 4218",www.marieanitas.com.au,61 07 3857 3456,https://www.facebook.com/marieanitas/,
Sweet Pepper Venezualan Food Bar,Cafe,2604 West Lawrence Avenue,"Chicago, Illinois 60625",https://www.sweetpepperchgo.com/,1 872-208-5665,https://www.facebook.com/sweetpepperchicago/,SWEETPEPPERCHICAGO@GMAIL.COM
Sunddail Gluten-Free Cafe,Cafe,2435 Hilyard St.,"Eugene, OR 97401",https://www.sundialcafeeugene.com/,1 541-636-3838,,
BimBeriBon,Cafe,"697 Haywood Rd
","Asheville, North Carolina 28806
",http://bimberibon.com/,1 828-505-0328,,
Dobra Tea,Cafe,707 Haywood Rd,"Asheville, North Carolina 28806",http://www.dobrateanc.com,1 828-505-4307,,
Dobra Tea,Cafe,78 N. Lexington Ave,"Asheville, North Carolina 28801",http://www.dobrateanc.com,1 828-575-2424,,
C Casa,Cafe,"610 1st Street
","Napa, CA 94559",http://www.myccasa.com/,1 707-226-7700,,
C Casa,Cafe,5959 Shellmound St,"Emeryville, CA 94608",http://www.myccasa.com/,1 510-679-1800,,
Love Yourself Cafe,Cafe,199 Paseo De Peralta Ste D,"Santa Fe, New Mexico 87501",https://www.lightvesselsantafe.com/love-yourself-cafe/,1 505-473-1200,,
Raw Vega,Bakery/Cafe,"762/13 sukhumvit rd, khwaeng khlong
tan, khet khlong toei
","Bangkok, Thailand 10110
",,66 2 261 4118,https://www.facebook.com/rawvega.bkk/,
Mama Jim's Gluten Free Kitchen,Food Truck,check website,"Phoenix, AZ",http://mamajims.com/,1 480-213-5577,,Contact@MamaJims.com
Craft Kafe,Bakery,6653 Central Ave,"St. Pete, Florida 33710",http://www.craftkafe.com/,1 727-914-7443,,
Craft Kafe,Bakery,200 Central Ave.,"St. Petersburg, FL 33703",http://www.craftkafe.com/,1 727-256-8587,,
Fittnass Cukormentes Cukrászda,Cafe/Restaurant,"Zichy Jen? utca 43.
","Budapest, Hungary 1066
",,36 309074214,https://www.facebook.com/fittnass.cukraszda/,
Bite Me Kupcakez,Bakery,4 Mound Ct,"Merrimack, NH 03054",https://www.bitemekupcakez.com/,1 603-674-4459,,
Dakhin,Restaurant,"89 Candleriggs, Merchant City","Glasgow, UK G1 1NP",https://www.dakhin.com,44 0141 553 2585,https://www.facebook.com/dakhinrestaurant/,info@dakhin.com
Tio Pablo,Restaurant,1703 East Franklin Street,"
Richmond, VA 23223
",https://www.tiopablotacos.com,1 804-643-4828,https://www.facebook.com/TioPabloTacos/,tiopablorichmond@gmail.com
Thingy Ma Jigs café,Cafe,5 Bow Street,"Guisborough, UK TS14 6BP",,44 7849356178,https://www.facebook.com/thingymajigs5/,
Sincerity & Food,Restaurant,"Via Roma, 5 36051
","Creazzo, Italia",http://sincerityandfood.it/en/,39 3938104610,https://www.facebook.com/sincerityandfood/,
Kitch Organic,Cafe,75 Leighton Avenue,"Red Bank, NJ 07701
",http://www.kitchorganic.com/,1 732-741-5400,,team@kitchorganic.com
Smokin’ Bowls,Cafe,295 Southwest Blvd.,"Rohnert Park, CA 94528",http://www.smokinbowls.com/,1 707-665-5265,,contact@smokinbowls.net
Eugene Glutenvrije Bakery,Bakery,"Volkstraat 15, 2000","Antwerp, Belgium",https://www.zondergluten.be/,32 32331989,,
Mastino V,"Cafe/Restaurant
","Bilderdijkstraat 192
","Amsterdam, Netherlands",https://mastinovegan.nl/,31 20 845 0731,https://www.facebook.com/mastinov/, info@mastinovegan.nl
Nourish Cafe & Market ,Cafe,"1201 E Broadway, Ste B","Columbia, MO 65201",https://nourishcafemarket.com/,1 573-818-2240,,kalle@nourishcafemarket.com
Whole Sol,Cafe,"1735 Chestnut Place
","Denver, CO 80202
",https://wholesol.com/,1 720-372-7862,,HI@WHOLESOL.COM
Whole Sol,Cafe,"1420 Pearl St
","Boulder, CO 80302
",https://wholesol.com/,1 720-475-1355,,HI@WHOLESOL.COM
Bedrock Eats & Sweets,Cafe,"327 S. Main
","Memphis, TN 38103
",https://bedrockeatsandsweets.com/,1 901-512-5374,,
Bounty on Broad,Cafe,"2519 Broad Ave
","Memphis, TN 38112
",https://bountyonbroad.com/,1 901-410-8131,,
100% Vivre,Cafe,"Rua 1º de Dezembro, nº38
","Loulé, Portugal 8100-505
",,351 968 739 024,https://www.facebook.com/cemporcentolivre/,cemporcentolivre.3@gmail.com
Wholesome Eating,Bakery,13455 Blanco Rd.,"San Antonio, TX 78216",https://www.wholesomeeatingllc.com/,1 913-522-3098,,
PharmTable,Cafe,"106 Auditorium Cir
","San Antonio, TX 78205
",https://www.pharmtable.com/,1 210-802-1860,,support@pharmtable.com
Viva Vegeria,Restaurant,"1422 Nogalitos Street
","San Antonio, TX 78204",http://www.myvegeria.com/,1 210-465-9233,,
Powerhouse Bakery,Bakery,"4902 Golden Quail, Ste. 101
","San Antonio, TX 78240
",https://powerhousebakery.com/,1 210-722-8464,,
The Preacher's Son,"Bakery
","201 NW A St
","Bentonville, AR 72712
",http://www.thepreachersson.com/,1 479-445-6065,,
Olly Makes Bakery,Bakery,"220 N Main St
","Bentonville, AR 72712
",,1 501-470-6978,https://www.facebook.com/ollymakesbakery/,
Arepa Mia,Cafe,10 N Claredon Ave.,"Avondale Estates, GA 30002",http://www.arepamiaatlanta.com/,1 404-880-8575,,
Arepa Mia,Cafe,"209 Edgewood Ave. SE
","Atlanta, GA 30303",http://www.arepamiaatlanta.com/,1 404-880-8575,,
Good Karma Coffee House,Cafe,31 N. Avondale Plaza,"Avondale Estates, GA 30002",http://www.goodkarmacoffeehouse.com/,1 404-499-0999,,
Foo Dog Curry Traders,Cafe,869 Stockton St,"Jacksonville, FL 32204",http://www.badwolftraders.com/,1 904-551-0327,,pr@foodogjax.com
Comeconoco Laboratory & Cafe,Bakery/Cafe,"2-2-3 #101 Shimamachi, Chuo-ward","Osaka, Japan",https://comeconoco.com/en,,,
Silly Axe Cafe,Cafe,2216 Dundee Rd,"Louisville, KY 40205",,1 502-290-7197,https://www.facebook.com/thesillyaxe/,
Blooming Lotus,Bakery,"2215 East North Avenue
","Milwaukee, WI 53202",http://www.blbmke.com/,1 414-212-8010,,info@blbmke.com
Brazilian Tapioca,Food Truck,"Noosa Farmers Markets 
155 Weyba Rd, Noosaville QLD 4566","Queensland, Australia",https://braziliantapioca.com.au/,61 488137310,https://www.facebook.com/braziliantapioca/,
Brazilian Tapioca,Food Truck,"80 Memorial Drive – Eumundi QLD 462 

Every Sunday at Noosa Farmers Markets 
155 Weyba Rd, Noosaville QLD 4566","Queensland, Australia",https://braziliantapioca.com.au/,61 488137310,https://www.facebook.com/braziliantapioca/,
Zest Ubud,Cafe,Jl Raya Penestanan Kelod no.8,"
Ubud, Bali, Indonesia 80571
",https://www.zestubud.com/,62 82340065048,,
Sawobali Sapodilla,Cafe,"Jalan Hanoman #73
","Ubud, Bali, Indonesia 80571
",http://sawobali.com/,62 361737061,https://www.facebook.com/sawobaliveganglutenfree/,
The Fussy Bird,Cafe,"Jl. Tirta Tawar No. 32 Kutuh Kelod
","Ubud, Bali 80571
",http://fussybirdbali.weebly.com/,62 361 4792356,,
Rice Manhattan Beach,Restaurant,"820 Manhattan Ave
","Manhattan Beach, CA 90266
",https://www.ricemb.com/,1 310-798-7722,,
F?nuts,Bakery,"8104 West 3rd Street
","Los Angeles, CA 90048",https://fonuts.com/,1 323-592-3075,,
Figg's Ordinary,Cafe/Restaurant,207 S. Cross St. #102,"Chestertown, MD 21620",https://www.figgsordinary.com/,1 443-282-0061,,ingrid@figgsordinary.com
Lucky Santo,Cafe/Restaurant,3127 NW 85th St.,"
Seattle WA 98117
",luckysanto.com,1 206-294-3921,,
Third Coast Bakery,Bakery,523 Munson Ave,"Traverse City, MI 49686",http://www.thirdcoastbakery.com,1 231-421-8696,,
Straight up Coffee and Food,Cafe,202 Liverpool Street,"Hobart, Tasmania, Australia 7000",http://www.straightupcoffeeandfood.com.au/,61 3 6236 9237,,
Intentional Foods,"Cafe/Restaurant
","Address: 1837 W. Guadalupe Rd. #103
","Mesa, AZ 85202
",https://intentionalfoods.org,1 480-264-7002,,
Wild Poppy Bistro,Cafe,541 1st Ave,"Ladysmith, British Columbia, Canada V9G 1A1",http://www.wildpoppybistro.ca/,1 250-924-8696,,
Sapiens Paleo Kitchen,Cafe,"10411 E McDowell Mt Ranch Rd
","Scottsdale, AZ 85255
",https://sapienskitchen.com/,1 480-771-5123,,
Joi Cafe,Cafe,"2855 Agoura Road
","Westlake Village, CA 91361",https://www.joicafe.com/,,,INFO@JOICAFE.COM
Choice Superfood Bar & Juicery,Cafe,Address: 437 Hwy 101 #118,"Solana Beach, CA 92075",http://choicejuicery.com/,1 858-704-4346,,
Choice Superfood Bar & Juicery,Cafe,"1425 India St
","San Diego, CA 92101
",http://choicejuicery.com/,1 619-450-7970,,
Choice Superfood Bar & Juicery,Cafe,"17135 Camino Del Sur Suite 125
","San Diego, CA 92127",http://choicejuicery.com/,1 858-832-7905,,
Choice Superfood Bar & Juicery,Cafe,"430 Carlsbad Village Dr.
","Carlsbad, CA 92008
",http://choicejuicery.com/,1 760-994-0013,,
AERA Bread,Bakery,Fasanenstrasse 74,"Berlin, Germany 10719",https://aerabread.com/,,,
Glutanada,Cafe,"Nostitzstraße 33
","Berlin, Germany 10965",https://www.glutanada.com/,49 30 22329650,,
Glutenfreie Bäckerei Konditorei Eis Voh,Bakery,"Bundesallee 118
","Berlin, Germany 12161 Phone: +49 30 85402065",https://m.facebook.com/Eisvoh.glutenfrei/?ref=page_internal,49 30 85402065,,
Simply Keto,Bakery/Cafe,"Invalidenstraße 154
","Berlin, Germany 10115
",https://simplyketo.de/,49 1575 3671914,,
Primal Santa Cruz,Cafe,"1203 Mission Street
","Santa Cruz, CA 95060
",primalsantacruz.com,1 831-226-2328,,
Yellow Button Bakery,Bakery,"Home based business
","Home based biz in Diamond Springs, CA",,1 530-676-1598,https://www.facebook.com/yellowbuttonbakery/,
Randy's Pizza,Restaurant,6030 50th St N,"Oakdale, MN 55128-1349",http://www.randyspizza.com/,1 651-777-1400,,
Celebrate Gluten Free Bakery & Cafe,Bakery,15213 Stony Plain Road NW,"Edmonton, Alberta, Canada T5P 3Y4",https://www.celebrateglutenfree.com,1 780-758-8030,,
Patti's Perfect Pantry,Bakery,435 Vineyard Town Center,"Morgan Hill, CA 95037",http://www.pattisperfectpantry.com,1 408-779-7300,https://www.facebook.com/PattisPerfectPantry,patti@pattisperfectpantry.com
Pizelle Bakery,Bakery,"Find inside: Blue Dogwood Public
Market
306 W. Franklin St., Suite G","Chapel Hill, NC 27516",https://www.pizzellebakery.com,1 919-943-5130,https://www.facebook.com/pizzellebakery/,kelly@pizzellebakery.com
Sunny Bridge Gluten-Free Bakery,Bakery,"130 Gallery Drive
","McMurray, PA 15317",https://sunnybridgenaturalfoods.com/gluten-free-bakery/,1 724-942-5800,,
Eat Well PDX Food Truck,Food Truck,"6035 SE Halsey - Stall 8
","Portland, Oregon 97202
",,1 971-352-1889,https://www.facebook.com/EatWellPDX/,
Portland Juice Co,Cafe,500 NW 14th Ave,"Portland, OR 97209",http://www.portlandjuicepress.com/,1 503-888-3808,,
Portland Juice Co,Cafe,"1212 SE Powell Blvd. Suite B
","Portland, OR 97202
",http://www.portlandjuicepress.com/,1 503-913-3367,,
The Whole Bowl,Food Truck,"4615 NE Sandy Blvd
","Portland, OR 97213",http://www.thewholebowl.com/,1 971-212-6154,,
The Whole Bowl,Food Truck,"1100 NW Glisan St
","Portland, OR 97209",http://www.thewholebowl.com/,1 971-212-5849,,
The Whole Bowl,Cafe,SW 9th and Alder,"
Portland, OR 97205",http://www.thewholebowl.com/,1 971-212-4626,,
The Whole Bowl,Food Truck,"4411 SE Hawthorne
","Portland, OR 97215",http://www.thewholebowl.com/,1 503-753-7071,,
The Whole Bowl,Cafe,"3540 N Vancouver Ave
","Portland, OR 97227",http://www.thewholebowl.com/,1 503-493-5991,,
The Whole Bowl,Cafe,"827 SW. 2nd Ave
","Portland, OR 97204",http://www.thewholebowl.com/,,,
The Whole Bowl,Food Truck,701 SW. 6th Ave,"Portland, OR 97204",http://www.thewholebowl.com/,1 503-901-0405,,
The Whole Bowl,Cafe,1515 NW 23rd,"Portland, OR 97210",http://www.thewholebowl.com/,1 503-449-0891,,
The Whole Bowl,Food Truck,"240 SE Clay
","Portland, OR 97214",http://www.thewholebowl.com/,,,
The Whole Bowl,Food Truck,"Unitis Plaza, 1300 SW 6th Ave","Portland, OR 97201",http://www.thewholebowl.com/,,,
The Whole Bowl,Food Truck,"364 Ludlow Ave
","Cincinnati, OH 45220
",http://www.thewholebowl.com/,1 513-751-2695,,
The Whole Bowl,Food Truck,"11 E Adams St.
(SE corner of Central & Adams)
","Phoenix, AZ 85034",http://www.thewholebowl.com/,1 602-339-4415,,
Tiffin Asha,Restaurant,"1670 NE Killingsworth Street
","Portland, OR 97211
",http://tiffinasha.com/,1 503-936-7663,,tiffinasha@gmail.com
The Green Spork,Cafe,10747 Ford Avenue,"Richmond Hill, GA 31324",https://greensporkcafe.wordpress.com,1 912-323-6046,,info@greensporkcafe.com
Cole's Gluten Free Bakery & Cafe,Bakery/Cafe,"521 E. Holland, Suite 20","Spokane, WA 99218",https://www.colesfinefoods.com,1 509-413-1739  ,https://www.facebook.com/colesbakeryandcafe ,
Picazzo’s Organic Italian Kitchen,Restaurant,440 W. Warner Rd.,"
Tempe, AZ 85284
",https://picazzos.com,1 480-785-0522,,
Picazzo’s Organic Italian Kitchen,Restaurant,"1855 W. Highway 89A
","Sedona, AZ 86336
",https://picazzos.com,1 928-282-4140,,
Picazzo’s Organic Italian Kitchen,Restaurant,"7325 Frank Lloyd Wright
","Scottsdale, AZ 85260
",https://picazzos.com,1 480-990-2212,,
Picazzo’s Organic Italian Kitchen,Restaurant,"4669 E. Cactus Rd.
","Phoenix, AZ 85032
",https://picazzos.com,1 602-923-6001,,
Picazzo’s Organic Italian Kitchen,Restaurant,"8280 W. Union Hills Dr.
","Glendale, AZ 85308
",https://picazzos.com,1 623-466-0228,,
Vanilla Jill's Cafe,Cafe,"298 Blair Blvd
","Eugene, Oregon 97402
",,1 541-345-2466,https://www.facebook.com/pg/VanillaJillsScoopsSoups,
The Dotted Lime,Cafe,"1907 Shady Brook St.
","Columbia, TN 38401
",https://www.thedottedlime.com,1 931-548-8445,,eat@thedottedlime.com
The Green Plate,Cafe,167 Church St,"Whitinsville, MA 01588",https://thegreenplatellc.com/,1 774-813-0200,,
The Bald Strawberry,Bakery,427 Fifth Avenue,"Indialantic, Florida 32903",,1 321-458-5529,https://www.facebook.com/TheBaldStrawberry,
Ad Hoc Fish n Chips,Cafe/Restaurant,"2281, rue Ontatio Est","Montreal, H2K 1V9",https://adhocfishandchips.wixsite.com/adhoc,1 514-419-8777,,
Carnivore,Restaurant,5313 Ballard Ave NW,"
Seattle, WA 98107
",http://carnivoreballard.com,1 206-566-6113,,info@carnivoreballard.com
The Creperie and Cafe,Cafe,"113 N. Main St.
","Weaverville, NC, 28787",https://creperieandcafe.com,1 828-484-9448,https://www.facebook.com/Creperie.Cafe.Of.Weaverville/,
C and D’s Kuntry Kitchen,Cafe,"3511 Courthouse Road
","Richmond, VA 23236",,1 804-447-5462,https://www.facebook.com/pg/cadskuntrykitchen,
521 Biscuits & Waffles,Cafe,"521 E Main St
","Richmond VA 23219
",https://521rva.com/,1 804-482-8924,,
Thyme & Caramel Cakes Bali,Bakery,order online,"Bali, Indonesia",https://www.thymeandcaramel.com/,62 813-3892-7578,,
Leyda's Cafe,Cafe,112 20th St W,"Saskatoon, SK S7M 0W6",http://www.leydas.com,1 306-244-0707,,
The Little Mustard Seeds Cafe,Cafe,51111 Washington,"New Baltimore, MI 48047",http://www.thelittlemustardseedcafe.com/,1 586-716-9255,,
The Cackling Goose Market,Cafe,38 York Street,"Sackville, NB, Canada E4L 4R4",https://cacklinggoosemarket.ca,1 506-536-2303,,cacklinggoosemarket@gmail.com
Guncles Gluten Free Bakery,Bakery,"11247 US Hwy 31
","Spanish Fort, AL 36527
",https://www.gunclesgf.com,1 251-800-1348,,Yum@GunclesGF.com
White Lion Baking,Bakery,Find online and in MA,"Mashpee, MA",http://www.whitelionbaking.com/,1 774-228-2946,,
Stars and Dreams Gluten Free Paradise,Bakery,"2345 Ashland St, Ste 201
","Ashland, OR 97520
",https://glutenfreeparadise.vpweb.com/,1 541-631-1502,,info@glutenfreeparadise.vpweb.com
Healthy Sins Inc,Cafe,"928 S State Street
","Lockport, IL 60441
",http://www.hsvegancafelockport.com/,1 815-838-4626,,rum96@comcast.net
K Fresh,Cafe,"1105 Hewitt Avenue
","Everett, WA 98201
",https://www.hellokfresh.com/,1 425-212-9863,,
Celest Cafe,Cafe,"1100 North 115th Street
","Seattle, WA 98133
",https://celestcafemagic.wixsite.com/home,1 206-370-0036,,
Newton's No Gluten,Bakery,340 Woodlawn Rd W,"Guelph, Ontario, Canada N1H 7K6",http://www.newtonsnogluten.com,1 519-837-3337,,
The Polly Fox,Bakery/Cafe,"33780 Essendene Ave Unit 130
","Abbotsford, British Columbia Canada V2S 2H2",http://www.thepollyfox.com,1 604-744-1881,,
Circle Kitchen,Cafe,1 - 709 Corydon Avenue,"Winnipeg, MB, Canada R3M 0W4",https://www.circlekitchenwpg.com,,,hello@circlekitchenwpg.com
Happy Goat Bakery,Bakery,608 Forest Rose Ave,"Lancaster, OH 43130",https://www.happygoat.biz,1 740-621-4628,https://www.facebook.com/happygoatgf/,
Bradley Gluten-Free Bake Shop,Bakery,55B River Road,"Bogota, NJ 07603",https://thebradleybakeshop.com,1 201-343-0444,,
TnD Bakery,Bakery,Downtown Punta Gorda Farmers Market - Taylor St & Olympia Ave.,"Punta Gorda, FL",http://tndglutenfreebakery.com,,https://www.facebook.com/T-n-D-Bakery-1263150630378704/,
TnD Bakery,Bakery,122 Nesbit St Unit 114 ,"Punta Gorda, FL 33950",http://tndglutenfreebakery.com,1 941-585-9443,https://www.facebook.com/T-n-D-Bakery-1263150630378704/,
Wildflour - Gluten Free Cupcakes,Bakery,"order online
","Holden, MA",http://www.wildflourgfree.com/,1 978-771-5244 ,https://www.facebook.com/wildflourgfree/,wildflourgfree@gmail.com
Tamaliza,Restaurant,"1155 W State Rt. 89A
","Sedona, AZ 86336
",http://www.sedonatamaliza.com/,1 928-202-9056,,claudi_tqm@icloud.com
De Glutenvrije Winkel,Bakery,"Pretoriusstraat 37
","Amsterdam, Netherlands 1092 EZ
",https://www.glutenvrijewinkelamsterdam.nl/,31 20 210 0251,https://www.facebook.com/GlutenvrijewinkelAmsterdam,
New EraNew Era: Fine Fermentations,Restaurant,"321 S Frankfort Ave.
","Tulsa, OK 74120
",https://neffbrewing.com/,1 918-367-0640,,
Valley Girl Sweets,Bakery,"409 S Pennsylvania Ave
","Centre Hall, PA 16828
",https://www.valleygirlsweets.com/,1 814-364-1685,,
Pu’uwai Aloha Bakery,Bakery,1670 Lusitana Street,"Honolulu, HI 96813",,1 808-631-1717,https://www.facebook.com/puuwaialohabakeryofficial/,
Deliciously Alicia's,Bakery,669 Westwood Avenue,"River Vale, NJ 07675",,1 201-957-5938,https://www.facebook.com/DeliciouslyAlicia/,kristen@valleygirlsweets.com
Kind Crumbs,Bakery,"find all throughout Grand Rapids area
","Grand Rapids, MI",http://www.kindcrumbs.com,1 616-881-6388,,
No Label at the Table,Bakery,"111 W Main St, Suite 145","Carmel, IN 46033",https://nolabelatthetable.com/,,,
Los Loros,Cafe/Restaurant,14 Xenofontos & Nikis,"Athens, Greece 10554",http://www.losloros.gr/index.php,30 21 0324 3232,https://www.facebook.com/pg/loslorosathens,
Sano Pecado,Bakery/Cafe,"San Francisco, Calle 68, Casa rosada una
cuadra antes de llegar a Vía Porras","Panama City, Panama",,507 388-6575,https://www.facebook.com/SanoPecado/,
Ro's Pantry,Bakery/Cafe,"Ave. Samuel Lewis, Plaza Downtown
 Obarrio (Calle 59)","
Panama City, Panama
",,507 209-4005,https://www.facebook.com/Rospantry/,
AVOCAT Organic Deli,Bakery/Cafe,71 East Street,"San Francisco, Panama
",https://avocat-organic-deli.negocio.site/,507 388-2138,,
Karaköy Güllüoglu,Bakery,R?ht?m Cad. No:3 - 4 Karaköy,"Istanbul, Turkey 34425",https://www.karakoygulluoglu.com/,90 212 293 09 10,,info@karakoygulluoglu.com
Glutensiz ADA,Restaurant,Sahil Yolu Yaylada 195/6 Maltepe,"Istanbul, Turkey",https://shop.glutensizada.com,90 216 441 34 22,,
Shimmy Shack,Cafe,1440 Sheldon Road,"Plymouth, MI 48170",https://shimmyshack.com/,1 734-228-5990,,
Grainmaker,Cafe,91 Summer St.,"Boston, MA 02110",https://www.eatgrainmaker.com,1 617-482-0131,,info@eatgrainmaker.com
DeLepel,Bakery,Vollenhovenschans 94,"Almere-Stad, Flevoland, Netherlands 1324HW",,31 6 57143435,https://www.facebook.com/delepel/,
The Cold Pressed Juicery,Cafe,"Prinsengracht 154
1016 HA
","Amsterdam, Netherlands
",https://www.thecoldpressedjuicery.com/,31 (0)20 370 11 84,,info@thecoldpressedjuicery.com
The Cold Pressed Juicery,Cafe,"Nieuwe Passeerdersstraat 12
1016 HP","Amsterdam, Netherlands",https://www.thecoldpressedjuicery.com/,31 (0)20 215 94 99,,info@thecoldpressedjuicery.com
The Cold Pressed Juicery,Cafe,"Herengracht 245
1016 BH
","Amsterdam, Netherlands",https://www.thecoldpressedjuicery.com/,31 (0)20 370 11 83,,info@thecoldpressedjuicery.com
The Cold Pressed Juicery,Cafe,"Willemsparkweg 8III
1071 HD","Amsterdam, Netherlands",https://www.thecoldpressedjuicery.com/,31 (0)20 753 09 19,,info@thecoldpressedjuicery.com
Odell's Gluten Free Bakery & Cafe,Bakery/Cafe,"30 Farnham Gate Rd, Halifax","Nova Scotia, Canada B3M 4R8",,1 902-405-6465,https://odellscafe.com,
Lifestyle Cafe,Cafe,"1598 S County Trl
","East Greenwich, RI 02818
",,1 401-885-4154,https://www.facebook.com/lifestylecaferi,
Det Glutenfri Bageatelier,Cafe/Restaurant,"Stationsvej 2, 3480","Fredensborg, Denmark",https://detglutenfribageatelier.dk/,45 60550003,,
Lilóri,Bakery,"Rua Peixoto Gomide, 1486 - Jardins","São Paulo - SP, 01409-002, Brazil",http://www.lilori.com.br/,55 1130688061,,
Nambu Cozinha de Raiz,Restaurant,"R. Alagoas, 651 - Higienópolis
","São Paulo - SP, 01242-001, Brazil",http://namburestaurante.com/,55 1138041577,,
Joylato,Ice Cream/Gelato,"Njálsgata 1, 101
","Reykjavík, Iceland",http://www.joylato.is/,35 45551327,https://www.facebook.com/joylato.is/,
Wheat Free For You,Bakery,"contact online
","Kuala Lumpur, Malaysia",,60 13-879 2833,https://www.facebook.com/wheatfreeforyou/,
Coney Island,Catering/Meal Delivery,"contact on website or call
","Jerusaelm, Israel",https://www.coneyisland.co.il,97 2545696135,,Avi@coneyisland.co.il
Grom,Ice Cream/Gelato,"1796 Broadway
","New York, NY 10019",https://www.grom.it/en/gelateria-newyork.html,1 212-974-3444,,
Grom,Ice Cream/Gelato,233 Bleecker Street,"New York, NY 10014",https://www.grom.it/en/gelateria-newyork.html,1 212-206-1738,,
Grom,Ice Cream/Gelato,"3888 Cross Creek Rd.
","Malibu, CA 90265
",https://www.grom.it/en/gelateria-malibu.html,1 310-456-9797,,
Grom,Ice Cream/Gelato,"10250 Santa Monica Blvd.
","Los Angeles, CA 90067",https://www.grom.it/en/gelateria-losangeles%20.html,213-349-0999,,
Grom,Ice Cream/Gelato,"6801 Hollywood Blvd.
","Los Angeles, CA 90028
",https://www.grom.it/en/gelateria-hollywood.html,1 323-873-2990,,
Grom,Ice Cream/Gelato,"Financial Centre Road Downtown
","Dubai, UAE",https://www.grom.it/en/gelateria-dubai%20.html,971 564080079,,
Grom,Ice Cream/Gelato,"Al Wasl Road, Boxpark
","Dubai, UAE",https://www.grom.it/en/gelateria-dubai%20.html,971 43445574,,
Grom,Ice Cream/Gelato,"Rua Garrett 42, Chiado
","Lisbon, Portugal
",https://www.grom.it/en/gelateria-lisbona.html,351 939 990 567,,
Grom,Ice Cream/Gelato,"Via Mazzini, 75 37121
","Verona, Italy
",https://www.grom.it/en/gelateria-verona.html,39 045 592794,,
Grom,Ice Cream/Gelato,C.so Libertà 4,"Vercelli, Italy",https://www.grom.it/en/gelateria-vercelli.html,39 016-1212619,,
Grom,Ice Cream/Gelato,"Cannaregio, 3844 Strada Nuova (Cà d'Oro) 30121","Venice, Italy",https://www.grom.it/en/gelateria-venezia.html,41 2602349,,
Grom,Ice Cream/Gelato,"Via Pietro Arduino, 20 30175 Marghera
","Venice, Italy",https://www.grom.it/en/gelateria-venezia.html,39 041 920648,,
Grom,Ice Cream/Gelato,"Via Rialto 12/c angolo via Cancian
 33100","Udine, Italy",https://www.grom.it/en/gelateria-udine.html,39 0432 500877,,
Grom,Ice Cream/Gelato,"Via Accademia delle Scienze, 4 – 10123
","Turin, Italy
",https://www.grom.it/en/gelateria-torino.html,39 011 5579095,,
Grom,Ice Cream/Gelato,"Piazza Paleocapa, 1/D – 10121
","Turin, Italy",https://www.grom.it/en/gelateria-torino.html,39 011 5119067,,
Grom,Ice Cream/Gelato,"Piazza del Quartiere Latino, 16 31100
","Treviso, Italy",https://www.grom.it/en/gelateria-treviso.html,39 0422 56669,,
Grom,Ice Cream/Gelato,"Piazza Duomo, 27 38100
","Trento, Italy",https://www.grom.it/en/gelateria-trento.html,39 0461 260351,,
Grom,Ice Cream/Gelato,"Via Banchi di Sopra 11/13
","Siena, Italy",https://www.grom.it/en/gelateria-siena.html,39 0577-289303,,
Grom,Ice Cream/Gelato,"Corso Garibaldi, 2 angolo P.zza
 Cristoforo Colombo
","Sanremo, Italy",https://www.grom.it/en/gelateria-sanremo.html,39 0184591806,,
Grom,Ice Cream/Gelato,"P.za Navona 1, angolo via Agonale 3-3A
","Rome, Italy",https://www.grom.it/en/gelateria-roma.html,"
39 06 68807297",,
Grom,Ice Cream/Gelato,"Via della maddalena, 30A
","Rome, Italy
",https://www.grom.it/en/gelateria-roma.html,39 06 68210447,,
Grom,Ice Cream/Gelato,"C.so Italia 13
","Novara, Italy",https://www.grom.it/en/gelateria-novara.html,39 0321-6230303,,
Grom,Ice Cream/Gelato,"Via Mazzini, 31
","Perugia, Italy
",https://www.grom.it/en/gelateria-perugia.html,39 0755731323,,
Grom,Ice Cream/Gelato,"Strada Luigi Carlo Farini 8/A
","Parma, Italy",https://www.grom.it/en/gelateria-parma.html,39 0521-239318,,
Grom,Ice Cream/Gelato,"Piazza dei Signori, 33 35139","Padua, Italy",https://www.grom.it/en/gelateria-padova.html,9 049 8754373,,
Grom,Ice Cream/Gelato,"Via S. Margherita (a 100mt dal Teatro
alla Scala) - 20121
","Milan, Italy
",https://www.grom.it/en/gelateria-milano.html,39 02 80581041,,
Grom,Ice Cream/Gelato,"Via A. da Giussano, 1 - 20145
","Milan, Italy",https://www.grom.it/en/gelateria-milano.html,39 02 4351 1942,,
Grom,Ice Cream/Gelato,"Piazza XX Settembre 
Lungolario Isonzo 23 -23900
","Lecco, Italy",https://www.grom.it/en/gelateria-lecco.html,39 0341 286031,,
Grom,Ice Cream/Gelato,"Centro commerciale I Gigli
via San Quirico, 164
","Florence, Italy
",https://www.grom.it/en/gelateria-firenze.html,39 0558974670,,
Grom,Ice Cream/Gelato,Via del campanile 2,"Florence, Italy",https://www.grom.it/en/gelateria-firenze.html,39 055216158,,
Grom,Ice Cream/Gelato,P.zza Trento e Trieste 58,"
Ferrara, Italy
",https://www.grom.it/en/gelateria-ferrara.html,39 0532-241917,,
Grom,Ice Cream/Gelato,"Piazza Tancredi Duccio
Galimberti 2, 12100","Cuneo, Italy",https://www.grom.it/en/gelateria-cuneo.html,39 0171693109,,
Grom,Ice Cream/Gelato,"Via Bernardino Luini 32
","Como, Italy
",https://www.grom.it/en/gelateria-como.html,39 031271840,,
Grom,Ice Cream/Gelato,"Via Luigi Einaudi c/o Elnos Shopping
","Brescia, Italy",https://www.grom.it/en/gelateria-brescia.html,39 0307827881,,
Grom,Ice Cream/Gelato,"Via D’Azeglio 13
","Bologna, Italy",https://www.grom.it/en/gelateria-bologna.html,39 051273437,,
Grom,Ice Cream/Gelato,"Viale Papa Giovanni XXIII, 60 - 24122","
Bergamo, Italy
",https://www.grom.it/en/gelateria-bergamo.html,39 035219730,,
Grom,Ice Cream/Gelato,Piazza San Secondo 11,"
Astia, Italy
",https://www.grom.it/en/gelateria-asti.html,39 0141592923,,
Grom,Ice Cream/Gelato,"Via Jean-Baptiste De Tillier, 70","
Aosta, Italy
",https://www.grom.it/en/gelateria-aosta.html,39 016541055,,
Grom,Ice Cream/Gelato,"Via Milano, 1, 15121","
Alessandria AL, Italy
",https://www.grom.it/en/gelateria-alessandria.html,39 0131253282,,
Grom,Ice Cream/Gelato,"Lotte Shopping Avenue, Ground Floor 
Unit No. 25, Jl. Profesor Doktor Satrio
 No. 3-5 - 12940
","Jakarta, Indonesia
",https://www.grom.it/en/gelateria-jakarta.html,62 2129889091,,
Grom,Ice Cream/Gelato,"Pacific Place Mall, 1st Floor, Unit No.
70, Jl. Jenderal Sudirman Kav. 52-53 - 12190
","Jakarta, Indonesia",https://www.grom.it/en/gelateria-jakarta.html,62 2157973834,,
Grom,Ice Cream/Gelato,Rue de Seine 81,"Paris, France",https://www.grom.it/en/gelateria-paris.html,44 0140469260,,
Grom,Ice Cream/Gelato,"Rue Sufflot 19
","Paris, France",https://www.grom.it/en/gelateria-paris.html,44 0142033580,,
Grom,Ice Cream/Gelato,"6 Rue Massena, 06000","Nice, France",https://www.grom.it/en/gelateria-nizza.html,33 0497083118,,
Grom,Ice Cream/Gelato,"Centre Commercial CAP 3000, 317
Avenue Eugene Donadei, 06700
Sain Laurent du Var","Nice, France",https://www.grom.it/en/gelateria-nizza.html,33 0493563667,,
Grom,Ice Cream/Gelato,"No. 772, West Nanjing Road, Jingan District
","Shanghai, China",https://www.grom.it/en/gelateria-shanghai.html,86 8602152980278,,
Grom,Ice Cream/Gelato,Centre Commecial Prado Vélodrome,"Marseille, 41 Boulevard Michelet, 13008
Marseille, France",https://www.grom.it/en/gelateria-Marseilles.html,33 491756749,,
Glutenfreie Welt Husi?,Bakery,Main street 50,"Aesch, Switzerland 4147",http://www.glutenfreie-welt.ch/,41 79 337 69 96,,info@glutenfreie-welt.ch
Wellzones Gluten Free Artisan Bakery,Bakery,10/436 Burke Road,"Camberwell, Victoria, Australia 3124",www.wellzones.com.au,61 3 9889 0736,,
Treat No Wheat,Bakery,15-17 Follett Rd,"        
Cheltenham, Victoria, Australia 3192",,61 419 808 566,https://www.facebook.com/pages/Treat-No-Wheat/871948852930497,
Nodo Donuts,Bakery,"1 Ella Street (Corner Chester Street)
","Newstead, Queensland, Australia 4006",https://nododonuts.com/,61 (07) 3184 4200,,
Covenant Garden,Restaurant,142 Boundary St,"West End Brisbane, Queensland 4101",https://www.coventgarden.com.au,61 07 3844 0142,,
Modern Bread and Bagel,Bakery,472 Columbus Ave,"New York, NY 10024",https://www.modernbreadandbagel.com/,1 646-775-2985,,
Sante Cafe Maru,Restaurant,"14-20, Sohara, Sawara-ku","Fukuoka, Fukuoka",https://savorjapan.com/0006109036/,81 92-846-2261,,
Santina,Restaurant,820 Washington St.,"New York, NY 10014",https://www.santinanyc.com/,1 212-254-3000,,
Cheska's,Restaurant,348 Bowery,"New York, NY 10012",https://www.cheskasny.com/,1 347-806-1295,,
La Esquina Taqueria,Restaurant,114 Kenmare Street,"New York, NY 10012",https://esquinanyc.com/,1 646-613-7100 ,,
La Esquina Taqueria,Restaurant,"1402 2nd Avenue
","New York, NY 10021",https://esquinanyc.com/,1 646-861-3356,,
La Esquina Taqueria,Restaurant,200 W 55th St,"New York, NY 10019",https://esquinanyc.com/,1 646-707-3950,,
Mänchi,Cafe,224 West 35th Street,"New York, NY 10001",https://manchimeansgood.com/,1 212-564-8418,,
Posh Pop Bakeshop,Bakery,"192 Bleecker St.
","New York, NY 10012
",https://poshpopbakeshop.com/,1 212-674-7674,,info@sansbakery-nyc.com
Sans Bakery,Bakery,"The Falchi Building
31-00 47th Avenue","Long Island City, NY 11101",https://sansbakery-nyc.com/,1 718-707-9800,,
Krumville Bakeshop,Bakery,630 Flushing Ave,"New York City, NY",https://www.krumvillebakeshop.com/,1 917-406-7447,,
Vibrant,Cafe/Restaurant,1931 Fairview,"Houston, TX 77019",https://www.wearevibrant.com/,1 832-409-6423,,
Wild Kitchen,Cafe,Cnr Florence & Macquarie Streets,"Brisbane, Queensland, Australia 4005",,61 07 3161 2088,,
Cloisters,Cafe,"500 – 8109
 Gifu prefecture Gifu city 10 Asahi-machi
 Arrow Court Underground Floor
","Gifu, Japan",https://www.cloisters.info,81 058-214-4948,,
Japan Crepe,Cafe,"Saga Prefecture
Kanzaki 113-1 Red Brick Hall
","Kanzaki, Japan",https://akarengacrepe.amebaownd.com,81 080-2742-6863,,
Dovetail on Overend,Bakery/Cafe,85 Overend Street,"Norman Park, Queensland, Australia 4170",,61 497 876 553,https://www.facebook.com/DovetailOnOverend,
Donde Thiago,Food Truck,check website for locations,"Falmouth, Massachusetts",https://www.dondethiago.com/,1 339-832-6079,,info@dondethiago.com
Sweet Sense Gluten Free Baked Goods,Bakery,17R Court St.,"Plymouth, MA 02360",https://www.sweetsensegf.com/,1 781-248-1594,,info@sweetsensegf.com
Little Rabbit Baking Company,Bakery,1648 Whitney Avenue ,"Hamden, CT 06517",https://www.littlerabbitbaking.com,1 203-626-1140,,
Auntie Cathie's Kitchen,Bakery/Cafe,159 Main Street,"Agawam, MA 01001",https://www.auntiecathies.com,1 413-788-0022,,
Vinland,Restaurant,593 Congress St,"Portland, ME 04101",http://vinland.me,1 207-653-8617,,
