name,category,Website,phone_no,fb_address,contact_email,lat,lng,map_id,street,city
La Otilia Bakery,Bakery,http://laotilia.com.mx/,52 55 5207 2546,,,19.4189964,-99.1679156,https://goo.gl/maps/GKHkTKDYhieWxRqK9,"158 Orchard St
","New York, NY 10002"
Gula Sana,Cafe,http://www.gulasana.com/,34 930 24 52 35,https://www.facebook.com/gulasanaglutenfree/,,41.3962585,2.1745223,https://goo.gl/maps/ojSrwzQ8eao672N86,Kongensgate 28,"
Ålesund, Norway 6002
"
Sweetpea Cafe,Bakery,http://www.sweetpeacafe.hk/,852 3689 7269,https://www.facebook.com/pg/SweetpeaPatisserieHK/photos/?ref=page_internal,,22.2840913,114.1520688,https://goo.gl/maps/HA5HT3kXjM7s6uvP9,"contact online
","Camano Island, WA"
As Quoted,Restaurant,http://www.eatasquoted.com/,1 415-914-0689,https://www.facebook.com/asquoted,hello@eatasquoted.com,37.7873332,-122.4522858,https://goo.gl/maps/8mNt23Kq17Y17uabA,"Nerima-ku
Tokyo Sekimachikita 3-50-1
","Tokyo, Japan"
Gokuraku Curry,Restaurant,https://gokurakucurry.com/,81 467-61-1807,,,35.3138441,139.5435751,https://goo.gl/maps/6jcfGVWvA6ghBzXG9,948 N Coast Hwy 101,"Encinitas, CA 92024"
Strawberry Blonde Bakery,Bakery,https://www.strawberryblondebakery.com/,1 613-725-2253,,,45.3990479,-75.7369283,https://goo.gl/maps/pZAkx46chc7BzaRk8,97 Thistle Street Gordon Park ,"Brisbane, Queensland, Australia"
The Sweet Beet,Bakery/Cafe,https://www.thesweetbeet.net/,1 860-653-2338,,thesweetbeetllc@gmail.com,41.9841613,-72.8006586,https://goo.gl/maps/8H9xK5r1xYptrjQL7,54 Frasers Road,"Ashgrove, Queensland, Australia"
Choice,Cafe/Restaurant,http://choice-hs.net/,81 75-762-1233,,,35.0094909,135.7735025,https://goo.gl/maps/a8MVLWFN8DAWHHty7,"52, Kikuicho, Shinjuku
","Tokyo 162-0044, Japan
"
Vitapek,Bakery,https://vitapek.si/,386 51 766 555,,,46.7868201,16.2786689,https://goo.gl/maps/n7Jd1XcnAi4qNQfz9,"???3?4?6
 Minato-ku","Tokyo, Japan 106-0032
"
The Juice Laundry,Cafe,https://www.thejuicelaundry.com/,1 434-202-8839,,,38.0344654,-78.4999972,https://goo.gl/maps/koKHUbo6FULWaMCY9,Cnr Florence & Macquarie Sts Teneriffe,"Brisbane, Queensland, QLD 4006 Australia"
The Juice Laundry,Cafe,https://www.thejuicelaundry.com/,1 434-234-3044,,,38.0358099,-78.4902007,https://goo.gl/maps/QHVAYdm9Ysgau9Fw7,"200 Este de la Iglesia Santa Teresita
Barrio Escalante","San José, Costa Rica"
Taco Revolution,Food Truck,http://www.tacorevolution.ca/,1 250-244-6492,https://www.facebook.com/TacoRev,uprise@tacorevolution.ca,,,,11 3rd St,"Hood River, OR 97031"
Hell Yeah Gluten Free,Online,https://www.hygf.co/,1 813-514-5275,,,,,,24 Arden Street,"Waverley, New South Wales, Australia"
Ella's Bellas,Bakery/Cafe,,1 845-765-8502,,,41.5028933,-73.9660722,https://goo.gl/maps/QB7nHy6nrhy1co577,online,"Sydney, Australia"
Della Bowls,Online,http://www.dellabowls.com/,1 786-813-5682,,,,,,"Valladolid 76 A, Roma Nte., 06700
","Ciudad de México, CDMX, Mexico
 "
Cure Cafe,Cafe,https://www.curecafemiami.com,1 786-601-1949,,,25.7580861,-80.1991486,https://goo.gl/maps/fbterZX9HTFiKwLt5,"Diputación 361/Paseo San Juan
","Barcelona, Spain 08009"
Manna Life Food,Cafe,http://mannalifefood.com,1 786-717-5060,,,25.7750353,-80.1905546,https://goo.gl/maps/fT8HGSb1mHXA1pT97,4 Shin Hing Street,Central Hong Kong
Chocolatree,Cafe/Restaurant,https://chocolatree.com/,1 928-282-2997,,,34.862984,-111.7885358,https://goo.gl/maps/ugRMugdykNGMrGN38,3613 Sacramento St,"t
San Francisco, CA 94118
"
Gluten Free is the New Black,Bakery,https://www.glutenfreeisthenewblack.info/,81 80-6189-7925,,,34.6858613,135.8214766,https://goo.gl/maps/Q1xuSYzzpERpaukF7,3 Chome-3-9-47 Yuigahama,"Kamakura-shi, Kanagawa-ken, Japan 248-0014"
Revitalive Cafe & Juice Bar,Cafe,http://www.revitalive.com/,1 855-584-2328,,,42.8096048,-70.8680033,https://goo.gl/maps/6Lxgo6RmxkV5qqEg9,114B Grange Ave.,"Ottawa, Ontario, Canada K1Y 3B1"
Revitalive Cafe & Juice Bar,Cafe,http://www.revitalive.com/,1 855-584-2328,,,42.6537544,-71.1393162,https://goo.gl/maps/pLnokQQtQLwJRTV97,498 Salmon Brook St,"Granby, CT 06035"
Mother Juice,Cafe,http://www.motherjuice.com/,1 617-945-7357,,,42.3644678,-71.0820873,https://goo.gl/maps/nQPY6ZhYiGHQs4nG7,2Q5F+QG Kyoto,"Kyoto Prefecture, Japan"
Mother Juice,Cafe,http://www.motherjuice.com/,1 857-263-7401,,,42.3489804,-71.0851993,https://goo.gl/maps/h6EpHgAhUQ2PUxoi9,Domanjševci 139,Domanjševci 9206 Križevci v Prekmurju
Mother Juice,Cafe,http://www.motherjuice.com/,,,,42.3620748,-71.057869,https://goo.gl/maps/E2dQNKQ6bhSLo4dj8,"1654 N Coast Hwy
","Newport, OR 97365
"
Thirst Juice Co.,Cafe,http://www.thirstjuiceco.com/,1 857-233-4535,,,42.3576138,-71.0599424,https://goo.gl/maps/UqeViDTemSBBgtnh6,"1411 University Ave.
","Charlottesville, VA 22903
"
Brodo - Upper West Side,Cafe,https://www.brodo.com/,1 646-858-1494,,,40.7809997,-73.9809168,https://goo.gl/maps/BfTb7zvvrXgmeZQr5,"722 Preston Ave. Ste 105
","Charlottesville, VA 22903
"
Brodo - SoHo,Cafe,https://www.brodo.com/,1 646-490-4010,,,40.7225121,-73.9973379,https://goo.gl/maps/ACHo4T9kRupNbBEp9,check online for location,"Vancouver, Canada"
Brodo - Upper West Side,Cafe,https://www.brodo.com/,1 646-844-1862,,,40.7810299,-73.9810979,https://goo.gl/maps/BxCA7JQsjKxMg4VC8,Order online,"Atlanta, GA"
Brodo - East Village,Cafe,https://www.brodo.com/,1 646-602-1300,,,40.7300511,-73.9834179,https://goo.gl/maps/HZ8UjtKRLdSn7c6VA,418 Main Street,"Beacon, NY 12508"
Pure Organic Kitchen & Juicery,Cafe,https://www.facebook.com/purevashon/,1 206-259-3179,,,47.4472944,-122.4616145,https://goo.gl/maps/1QqxYHDsmDERDFQo9,56 NW 29th St,"Miami, FL 33127"
Longevity Foods,Cafe,https://longevityfoodz.com/index.html,1 425-788-2332,,,47.73337,-121.9880878,https://goo.gl/maps/ocz1ZJnkaDXuBpQT7,1800 SW 1st Ave,"Miami, FL 33129"
Viva Tacoma,Restaurant,http://www.viva4life.com/,1 253-503-6498,,,47.2713802,-122.4894341,https://goo.gl/maps/xvhQdUzeh9xpfAAM9,80 NE 2nd Ave.,"Miami, FL 33132"
Café Organique,Cafe,http://www.cafeorganique.us/,1 425-298-4575,,,47.7055792,-122.2104622,https://goo.gl/maps/3UU89r4y4CDmmRjs8,"1650 W. SR 89A Ste. A
","Sedona, AZ 86336
"
Aime's Love,Bakery/Cafe,http://www.aimeslove.com/,1 720-340-4636,,,40.1645903,-105.103016,https://goo.gl/maps/mCz3W3gxu3GSqz2a9,"601 E Piccadilly Dr #35
","Flagstaff, AZ 86001
"
Boulder Tamales,Catering/Meal Delivery,http://www.bouldertamales.com,1 303-415-1916,,,39.9984621,-105.2536525,https://goo.gl/maps/ivbakyYPgZoVz4HN7,"1595 W State Route 89A
","Sedona, AZ 86336
"
Thrive,Restaurant,http://thriveraw.com/,1 720-616-7785,,thriveraw@gmail.com,40.0148806,-105.2744671,https://goo.gl/maps/EtHmduiPSpKbnPP76,"??? 11-43??????? ????
??? 114?
","Nara, Japan 630-8114"
honey B's macarons,Bakery,,1 303-565-6700,https://www.facebook.com/honeybsmacarons/,,39.5592891,-104.9880292,https://goo.gl/maps/6q4o196JCR9JvkQF8,50 Water Street,"Newburyport, MA 01950"
Butterfly Belly Asian Cuisine,Restaurant,http://www.butterflybellyasiancuisine.com/,1 503-788-7327,,,45.525577,-122.6797456,https://g.page/ButterflyBellyPho?share,93 Main St,"Andover, MA 01810"
Prasad,Restaurant,https://www.prasadpdx.com/,1 503-224-3993,,info@prasadpdx.com,45.5232126,-122.6540579,https://goo.gl/maps/HkPLp5bfHbHLSMWaA,"625 West Kendall St.
","Cambridge, MA 02142
"
Bang Bang,Restaurant,http://www.bangbangpdx.com/,1 503-287-3846,,,45.548548,-122.6145581,https://goo.gl/maps/VZvk8qAbeg4Wxb5o7,"291 Newbury St.
","Boston, MA 02115"
Pines Coffee,Cafe,https://www.pinescoffee.co/,1 360-524-2748,,,45.624342,-122.5900708,https://goo.gl/maps/SPFWR7M5sgRCnRQXA,100 Hanover St.,"Boston, MA 02108"
Rolling Table Newberg,Food Truck,,1 360-525-7606,https://www.facebook.com/rollingtablenewberg/,,45.3000348,-122.9701665,https://goo.gl/maps/wmybJfyXbmtQvE6d8,44 School St,"Boston, MA 02108"
Delta Blues Hot Tamales,Restaurant,https://www.deltablueshottamales.com/,1 205-502-7298,,,33.4978152,-86.7953067,https://goo.gl/maps/ySjFMuTxFmeUzm1DA,2144 Broadway,"New York, NY 10023"
Hype Food Co.,Cafe/Restaurant,https://www.hypefoodco.ca/,1 416-840-7430,,media@hypefoodco.ca,43.669294,-79.3360048,https://g.page/HypeFoodCo?share,236 Lafayette St,"New York, NY 10012"
Misters,Cafe,https://misters.co/,64 9-379 9939,,hello@misters.co,-36.847448,174.7648802,https://goo.gl/maps/LQSuXpzSzLx4mhE96,281 Bleecker St,"New York, NY 10014"
Gluten Free Donuts,Online,,61 407 924 655,https://www.facebook.com/gfreedonuts/,,,,,200 1st Avenue,"New York, NY 10009"
Taco Medic,Food Truck,,64 3-442 8174,https://www.facebook.com/tacomedic/,,-45.0327833,168.6608994,https://goo.gl/maps/m2xHqKDQp6qz3DVS9,20 West 20th street Suite 215,"New York, NY 10011"
Blue Moon Bakery,Bakery,https://www.bluemoonbakingco.com/,1 503-730-2844,,bluemoonbakery@gmail.com,45.516577,-122.9838624,https://goo.gl/maps/eW4tuprzZFzMK2uv8,"9925 SW Bank Rd
","Vashon, WA 98070
"
Health Freak Cafe Busselton,Cafe,http://www.healthfreakcafe.com.au/,61 8 9754 6590,,,-33.6556058,115.3403313,https://goo.gl/maps/2G9tGv39oBGoa2En7,3308 Uddenberg Lane,"
Gig Harbor, WA 98335"
Health Freak Cafe Joondalup,Cafe,http://www.healthfreakcafe.com.au/,61 8 9301 5547,,,-31.7443269,115.7672283,https://goo.gl/maps/EruQDsxx1xeGynw16,14701 Main Street NE Suite A1,"Duvall, WA 98109"
Health Freak Cafe Cockburn,Cafe,http://www.healthfreakcafe.com.au/,61 8 9414 6799,,,-32.130624,115.8571073,https://goo.gl/maps/UDa1pQPQHVkjNrjTA,"2602 N Proctor St Ste D
","Tacoma, WA 98407
"
Health Freak Cafe Applecross,Cafe,http://www.healthfreakcafe.com.au/,61 8 6150 7011,,,-32.0210822,115.8348698,https://goo.gl/maps/P997JamN5ussGqjc8,"11656 98th Ave NE
","Kirkland, WA 98034
"
Health Freak Cafe Scarborough,Cafe,http://www.healthfreakcafe.com.au/,61 8 9245 3761,,,-31.8933673,115.7595358,https://goo.gl/maps/hWLwTTNKhrZTkzuo6,94 Leonard Street,"London, UK EC2A 4RH"
Health Freak Cafe South Perth,Cafe,http://www.healthfreakcafe.com.au/,61 8 9474 2729,,,-31.9725713,115.8523356,https://goo.gl/maps/Bbs9YEUeg6tKi74w8,26 Chapel Hill,"Huddersfield, UK HD1 3EB"
Health Freak Cafe Kings Park,Cafe,http://www.healthfreakcafe.com.au/,61 (08) 9321 2279,,,31.9563496,31.9563496,https://goo.gl/maps/1ZdaaEAFSTyycvh59,331 Main Street,"Longmont, CO 80501"
Health Freak Cafe North Ryde,Cafe,http://www.healthfreakcafe.com.au/,61 2 9888 6282,,,-33.7768932,"151.1192339,",https://goo.gl/maps/JhK2iyhZiSo2JYAv5,"Pick up by appointment from
upstairs kitchen at The Boulder Broker:
555 30th St., ","Boulder, CO 80303"
Kith & Kin Bakeshop,Bakery,http://www.kkbakeshop.com/,1 716-471-3305,https://www.facebook.com/KithandKinBakeshopandBistro/,,43.1404172,-78.6974282,https://goo.gl/maps/EoZzR5oBqkFzuYxC7,"1509 Arapahoe Ave
","Boulder, CO 80302
"
Iki Japanese Bistro,Restaurant,https://lazymeal.com/menu/iki?frame=t,1 604-876-4114,https://www.facebook.com/Iki-Japanese-Bistro-244511665676500/,,49.2638546,-123.1675515,https://goo.gl/maps/p7GYEwbEiGRMkd5J8,40 Springer Dr,"Highlands Ranch, CO 80129"
SushiLOVE,Food Truck,,,https://www.facebook.com/sushilovepdx/,,45.5169524,-122.6395617,https://goo.gl/maps/wU4VLjNtVZk5TaFq5,"6036 SE Division St
","Portland, OR 97206
"
Teote ,Restaurant,http://www.teotepdx.com/,1 971-888-5281,,,45.5114622,-122.6560631,https://goo.gl/maps/4Fw6CMdsBVN8v3CY9,"21 NE 12th Ave.
","Portland, OR 97232
"
Schilling Cider House,Restaurant,https://www.schillingciderhouse.com/,1 971-352-6109,,jennie@schillingcider.com,45.5304125,-122.6766789,https://goo.gl/maps/GaTeCcmCBUfFSiEb9,"4727 NE Fremont
","Portland, OR 97213
"
Life is Sweet Bakery & Cafe,Bakery/Cafe,https://lifeissweetbakeryandcafe.com/,1 925-718-5818,,,37.8215388,-122.0016064,https://goo.gl/maps/q7wY3PPyVX45Dpiz8,"8086 E Mill Plain Blvd
","Vancouver, WA 98664
"
Simple Superfood Cafe,Cafe,https://www.simplesuperfoodcafe.com/,1 563-355-9000,,,41.5384842,-90.59003,https://goo.gl/maps/S8x72CGd79DKunU46,"910 E 1st St
","Newberg, OR 97132
"
Organic Bliss Deli & Bakery,Bakery/Cafe,http://organicblissmarket.com/,1 419-517-7,,,41.6836515,-83.7236053,https://goo.gl/maps/PXQSyDUwE1yUqcHj7,"1318 Cobb Ln
","Birmingham, AL 35205"
Renee's Gourmet Pizzeria,Restaurant,http://www.reneesgourmetpizzeria.com/,1 248-280-7800,,,42.5467866,-83.1719216,https://goo.gl/maps/p24N3qhfbo5E5wYJ7,1060 Gerrard St E,"Toronto, Ontario, Canada M4M 1Z8"
Renee's Gourmet Pizzeria,Restaurant,http://www.reneesgourmetpizzeria.com/,1 248-208-6000,,,42.5053756,-83.3183501,https://goo.gl/maps/i5zQD1qjp3wnSWE89,155 Long Road “Gallery Walk”     ,"Eagle Heights, Queensland 4272"
Vibe Organic Kitchen & Juice,Cafe,https://www.eatdrinkvibe.com/,1 949-478-4118,https://www.facebook.com/eatdrinkvibe/,hello@eatdrinkvibe.com,33.6585696,-117.8672521,https://goo.gl/maps/exfsX6SzMfHSCvW7A,"Ground Floor, 12 Wyndham St.
","Auckland City, New Zealand"
Rae Rae's,Bakery,http://raeraesbakery.com/,1 406-534-2609,https://www.facebook.com/raeraesbakery/,tselkranch@gmail.com,45.7850448,-108.5893434,https://g.page/raeraesbakery?share,look online to find them!,"Queensland, Australia"
Betty BOT,Bakery,https://squareup.com/store/bettybot-shop,1 773-495-4615,https://www.facebook.com/botbakery/,,41.7659977,-87.5631092,https://goo.gl/maps/VosRYeynK4w2y4sc6,South Searle Lane,"Queenstown, New Zealand 9300"
Spudz Fish and Chips,Cafe,https://www.spudz.kiwi/,64 7-562 8004,https://www.facebook.com/spudzcafe/,spudzacc@gmail.com,-37.7513646,176.1044612,https://goo.gl/maps/xMxyJxhwkMLRf9tU6,"560 SE 4th Ave
","Hillsboro, OR 97123"
Pan Per Me,Bakery,http://www.panperme.it/,39 02-3598 8094,https://www.facebook.com/panperme/,panperme@panperme.it,45.4593946,9.206665,https://goo.gl/maps/nFEsrcLPesCMbNjd6,"Shop 2, Power Centre Bussleton
86 West Street","West Bussleton, Western Australia 6280"
Boris Bistro,Restaurant,http://borisbistro.com/en/,1 514-848-9575,https://www.facebook.com/borisbistro/,,45.5009305,-73.5586351,https://goo.gl/maps/ZVm3T3WaSguP54eE8,420 Joondalup Drive,"Joondalup, Western Australia 6027"
Edible Options,Bakery,https://stcatharinesstreet.com/2017/07/02/edible-options-bakery-house/,1 905-688-1000,https://m.facebook.com/Edible-Options-454474674651965/?__tn__=%2Cg,jessie@stcatharinesstreet.com,43.1539903,-79.2753991,https://goo.gl/maps/JPSr3RWprNPZjMD5A,"Shop G-333 Cockburn Gateway
Shopping City, 816 Beeliar Drive","Success, Western Australia 6164"
Crystany's Brasserie,Restaurant,https://crystanysbrasserie.com/,1 902-582-3663,https://www.facebook.com/crystanysbrasserie/,,45.157106,-64.420102,https://goo.gl/maps/qyxfASnrH6FHtYof6,22 Scarborough Beach Rd,"Scarborough, Western Australia 6019"
Crumbs & Roses,Bakery,http://crumbsandroses.ca/wp/,1 250-575-0154,https://www.facebook.com/Crumbsandroses/,info@crumbsandroses.ca,49.8847061,-119.4222785,https://goo.gl/maps/PxxsoVmr4NxEe7Sj6,"Shop 5, 787 Canning Highway
Cnr of Kearns Cres","Applecross, Western Australia 6153"
Kinnikinnick,Bakery,https://getitfresh.ca/,1 780-732-7527,https://www.facebook.com/KinnikinnickGF/,,53.5572162,-113.5291728,https://goo.gl/maps/Xj8Y2YS2vNBVGHWw5,"Shop 37B, 85 The Esplanade","South Perth, Western Australia 6151"
Wild Orchid,Restaurant,http://www.wildorchidbistro.com/,1 403-675-0755,https://www.facebook.com/WildOrchidAsianBistro/,dine@wildorchidbistro.com,51.100708,-115.359167,https://goo.gl/maps/V4oJpyPCSVmyQyZU8,"1st Level, Quest Apartments
(Bottom of Jacobs Ladder) 130 Mounts Bay Road
","Perth, Western Australia 6000"
GlutenNo,Restaurant,http://www.glutenno.rs/en/welcome/,381 66 6306042,https://www.facebook.com/glutenNo1/,info@glutenno.rs,44.8054185,20.4090517,https://goo.gl/maps/Np5yr8MqU6mGSHcYA,"Shop 3347 Macquarie Centre
Herring & Waterloo Road","North Ryde New South Wales, Australia 2113"
Sintaxis Gluten Free,Restaurant,http://www.sintaxisglutenfree.com/,54 11 2071-2960 ,https://www.facebook.com/SintaxisGlutenFree/,,-34.586277,-58.4274666,https://goo.gl/maps/GooPTr3fKeGoMMW27,5850 South Transit Road,"Lockport , NY 14094"
Mor Bakery & Cafe,Bakery/Cafe,http://www.morfoodsmke.com/,1 414-249-3316,https://www.facebook.com/morfoodsmke/,info@morfoodsmke.com,43.0075916,-87.9105246,https://g.page/morbakeryandcafe?share,633 East 15th Avenue,"Vancouver, British Columbia, Canada V5T 2R6
"
Wauwatiki Bar & Grill,Restaurant,https://www.wauwatikis.com/,1 414-323-7555,https://www.facebook.com/Wauwatiki/,Wauwatikisbar@gmail.com,43.0609544,-87.9938335,https://goo.gl/maps/VT876QTzSRzqxFmv7,"1112 SE Tacoma St
","Portland, OR 97202"
Café Grüner Salon,Cafe,http://gruener-salon.at/,43 677 61965445,https://www.facebook.com/cafegruenersalon/,cafe@gruener-salon.at,48.1938797,16.3483988,https://goo.gl/maps/57eJE3riHY6NmCJH6,"1615 SE 12th Ave.
","Portland, OR 97214
"
Vegana Indiana,Restaurant,http://www.vegana-indiana.at/,43 1 8102300,https://www.facebook.com/veganaindiana/,office@vegana-indiana.at,48.1836963,16.3331412,https://goo.gl/maps/Z1kMzrej33ECTWCW9,930 SE 10th Ave,"Portland, OR 97214"
Wave the Grain,Bakery,https://wavethegrain.com/,1 303-721-7547,https://www.facebook.com/WaveTheGRAIN/,info@wavethegrain.com,39.5679554,-104.9222525,https://g.page/WaveTheGRAIN?share,"155 Railroad Avenue
","Danville, California 94526"
Fox and Son Fancy Corn Dogs,Food Truck,http://www.foxandsonphilly.com/,1 215-372-7935,https://www.facebook.com/foxandsonphilly/,foxandsonphilly@gmail.com,39.953104,-75.158998,https://goo.gl/maps/AaM1BVSUtDuexhF67,2209 Falcon Ave,"Bettendorf, IA 52722"
Wilder Wood,Restaurant,http://www.wilderwoodrestaurantandbar.com/,1 512-628-0184,https://www.facebook.com/wilderwoodaustin/,,30.2650289,-97.7286528,https://goo.gl/maps/bvijj4z7NZeSGNRN9,1132 West Locust Street,"Davenport, IA 52804"
Pie Jacked,Bakery,http://piejacked.wixsite.com/glutenfreepies,1 512-815-7959,https://www.facebook.com/PieJacked/,PieJacked@gmail.com,30.497956,-97.675439,https://goo.gl/maps/fsnpqpoHvbnPhdhC9,"Sylvania, OH 43617","Sylvania, OH"
Nancy's Sky Garden,Cafe,http://www.nancysskygarden.com/,1 512-554-2060,https://www.facebook.com/nancysskygarden,,30.6388744,-97.6779105,https://goo.gl/maps/mRYbRzsuBX8eQnQh9,1937 W. Maple Rd.,"Troy, MI 48084"
Zero Zero Grano,Restaurant,http://www.zerozerograno.it/,39 081 060 6698,https://www.facebook.com/zerozerograno/,info@zerozerograno.it,40.8375469,14.2469557,https://goo.gl/maps/w1SY195LXkgjnsLH9,29705 Northwestern Hwy.,"Southfield, MI 48034"
Amiette Gluten Free Bakery,Bakery,http://www.amiette.com/,34 935 30 79 06,https://www.facebook.com/AmietteBakery/,,41.3779474,2.1570735,https://goo.gl/maps/iwRGRxfZA6JjX3cy6,6909 Melrose Ave.,"Los Angeles, CA 90038"
Rio Gostoso,Cafe,http://www.riogostoso.at/,,https://www.facebook.com/riogostoso/,info@riogostoso.at,48.1952683,16.3668513,https://goo.gl/maps/Twe9RHnFHcwykzYTA,1000 Bristol St N,"Newport Beach, California 92660"
Ballin' Out,Food Truck,https://ballinoutco.com/,1 720-295-7115,https://www.facebook.com/ballinoutco/,info@ballinoutco.com,N/A,N/A,N/A,1505 Rehberg Lane,"Billings, MT 59102"
Mediterranea Restaurant & Bakery,Restaurant,https://www.mediterraneaatl.com,1 404-748-4219,https://www.facebook.com/MediterraneaATL/,info@mediterraneaatl.com,33.7316334,-84.3767904,https://goo.gl/maps/RQWHLq6ALV5QYweV9,7100 S Shore Drive 1st Floor,"Chicago, IL 60649"
The Wild Muffin,Bakery,http://www.glutenfreebakerynashvilletn.com/,1 615-353-3998,https://www.facebook.com/glutenfreebakerynashvilletn/,form on website,36.129007,-86.90273,https://goo.gl/maps/y5y2X3xPngbGiAG89,"Unit 4/1 Caslani Lane, Pyes Pa","Tauranga, New Zealand 3112"
Rolln,Cafe,https://www.rollnco.com,1 646-869-0826,https://www.facebook.com/rollnco/,info@rollnco.com,40.7403714,-73.9874137,https://g.page/rolln?share,Viale Monte Nero 57,"Milan, Italy"
Red Oak Bakery,Bakery,http://redoakbakery.com/,1 830-609-9912,https://www.facebook.com/TheRedOakBakery/,redoakbakery@gmail.com,29.6973623,-98.1191609,https://goo.gl/maps/yUTdgqKJw1B81ESCA,465 McGill St.,"Montreal, Quebec, Canada H2Y 2H1"
Nourish Bakery,Bakery,https://nourishbakery.ca/,1 709-747-2867,https://www.facebook.com/NourishNewfoundland/,Info@nourishbakery.ca,47.534278,-52.840394,https://goo.gl/maps/CjKn6F89qGjTycHt5,"300 E Fourth Avenue, Unit 7","St. Catharine’s, Canada L2R 6P9"
pikanik,Bakery,https://pikanik.ca/,1 604-210-6585,https://www.facebook.com/pikanikcreations/,questions@pikanik.ca,49.037943,-122.801525,https://goo.gl/maps/dWa4r7cxb6T2BRxv8,9848 NS-221,"Canning, Nova Scotia, Canada B0P 1H0, CA"
ATX Cocina,Restaurant,http://atxcocina.com/,1 512-263-233,https://www.facebook.com/ATXCocina/,ATXInfo@atxcocina.com,30.2649158,-97.7493159,https://goo.gl/maps/DWrCQU3w3vV6xNXo9,443 Banks Rd.,"Kelowna, British Columbia, Canada V1X 7C6"
Fiocco di Neve,Ice Cream/Gelato,,39 06 8880 5474,https://www.facebook.com/FioccodiNeveRoma/,,41.8999302,12.4766663,https://goo.gl/maps/E1LHdTSpjRAqVA3a7,10940-120 Street,"Edmonton, Alberta, Canada T5h 3P7"
Chomp Vegan Eatery,Cafe/Restaurant,https://www.chompveganeatery.com,1 604-917-0201,https://www.facebook.com/chompveganeatery/?tn-str=k*F,info@chompveganeatery.com,49.281013,-123.059116,https://goo.gl/maps/bUVeXi2BgPAxNhNN9,"1818 Mountain Ave
","Canmore, Alberta, Canada"
East London Juice Co.,Cafe,https://eastlondonjuice.com/,44 7553 791315,https://www.facebook.com/eastlondonjuice/,,51.5254162,-0.0772849,https://goo.gl/maps/wcD5rRKRGMpkx2jL8,"Jurija Gagarina 14e, naselje Belville,
Zgrada Ljubicica, lokal 11","Novi Beograd, Serbia 11070"
Grom,Ice Cream/Gelato,https://www.grom.it/en/gelateria-London.html,44 20 7287 5300,https://www.facebook.com/GromItalia/,,51.50959,-0.135702,https://goo.gl/maps/YNdXFRXRX35Ufwpe9,"Nicaragua 4849
C1414 CABA","Buenos Aires, Argentina"
The Silly Yak,Bakery,https://sillyyak.ca/,1 613-583-2014,https://www.facebook.com/sillyyak.ca/,,44.2758025,-76.5740689,https://goo.gl/maps/hNUSK3mXwCWZxd2BA,"2018 S 1st St, Unit 102","Milwaukee, WI 53207"
Juliet Gluten Free Bakery,Bakery,https://www.e17glutenfree.com/,44 20 8509 3213,https://www.facebook.com/Julietglutenfreebakery/,,51.579841,-0.004023,https://goo.gl/maps/EX4j2KAvyPaFfKtC9,6502 W North Ave,"Wauwatosa, WI 53213"
Vida Bakery,Bakery,http://vidabakery.co.uk/,+44 7879 860108,https://www.facebook.com/vidabakery/,,51.5238826,-0.0715851,https://goo.gl/maps/8AfDUa5Z7pSYRTUo8,Hirschengasse 8,"Vienna, Austria 1060"
Ardiciocca,Restaurant,https://www.ardiciocca.com,44 20 3848 6830,https://www.facebook.com/ardicioccarestaurant/,info@ardiciocca.com,51.4804034,-0.1987162,https://goo.gl/maps/zo6SPpfugWLyz9vq7,Schönbrunnerstraße 235,"Vienna, Austria 1120"
Cafe-Creperie,Cafe,http://bearfoodsmarket.com/cafe-and-creperie/,1 509-682-5535,https://www.facebook.com/pages/category/Grocery-Store/Bear-Foods-Natural-Market-Caf%C3%A9Cr%C3%A9p%C3%A8rie-114176588594242/,contact@bearfoodsmarket.com,47.8401838,-120.0178408,https://goo.gl/maps/jwtwM6qeJBeLRyuSA,"8172 South Holly Street
","Centennial, CO 80122"
Mullner Gluten Free Bakery,Bakery,https://mullner-gluten-free-bakery-pastry-shop.negocio.site/,506 8847 3054,https://www.facebook.com/Mullner.12/,,9.9290366,-84.1083901,https://goo.gl/maps/KRSHGrqHvQxN4Ht38,"51 N. 12th Street
","Philadelphia, PA 19107
"
Marie Anita's Gluten Free Health Cafe,Cafe,www.marieanitas.com.au,61 07 3857 3456,https://www.facebook.com/marieanitas/,eat@marieanitas.com.au,-28.050332,153.435951,https://goo.gl/maps/CAo11JCYcgHpG6X87,"1300 E 7th St.
","Austin, Texas 78702
"
Sweet Pepper Venezuelan Food Bar,Cafe,https://www.sweetpepperchgo.com/,1 872-208-5665,https://www.facebook.com/sweetpepperchicago/,SWEETPEPPERCHICAGO@GMAIL.COM,41.9687789,-87.69417,https://g.page/sweetpepperchicago?share,"1105 S Mays St, Ste. 200
","Round Rock, TX 78664
"
Sundail Gluten-Free Cafe,Cafe,https://www.sundialcafeeugene.com/,1 541-636-3838,https://www.facebook.com/sundialcafe55/,,44.0330337,-123.081509,https://goo.gl/maps/iJ74djBX17iJXT1D9,"501 S Austin Ave, 4th Floor
","Georgetown, TX 78626
"
BimBeriBon,Cafe,http://bimberibon.com/,1 828-505-0328,https://www.facebook.com/pages/category/Restaurant/bimberibon.feelgood/about/,,35.5775886,-82.5915847,https://goo.gl/maps/T4Rf1r7X4kGPqcYi7,"Via Carlo de Cesare, 40","Naples, Italy 80132"
Dobra Tea,Cafe,http://www.dobrateanc.com,1 828-505-4307,https://www.facebook.com/Dobra-Tea-Asheville-NC-136528306376795/,,35.5776643,-82.5920203,https://goo.gl/maps/ryPmQ3xwDC57MfeNA,"Calabria, 65
","Barcelona, Spain 08015
"
Dobra Tea,Cafe,http://www.dobrateanc.com,1 828-575-2424,https://www.facebook.com/Dobra-Tea-Asheville-NC-136528306376795/,,35.5974047,-82.5534358,https://goo.gl/maps/Aa7S88pX7tnDXCAt7,"Wiedner Hauptstrasse 34
","Vienna, Austria 1040"
C Casa,Cafe,http://www.myccasa.com/,1 707-226-7700,https://www.facebook.com/myccasa/,info@myccasa.com,38.301894,-122.281719,https://goo.gl/maps/TkgeyJJQQt32GpoG9,check website,"Denver, CO"
C Casa,Cafe,http://www.myccasa.com/,1 510-679-1800,https://www.facebook.com/myccasa/,info@myccasa.com,37.8414026,-122.2937861,https://goo.gl/maps/AyCijw3w9UWsFfFW7,332 Ormond St SE,"Atlanta, GA 30315"
Love Yourself Cafe,Cafe,https://www.lightvesselsantafe.com/love-yourself-cafe/,1 505-473-1200,https://www.facebook.com/LoveYourSelfCafe/,lightvesselsantafe@gmail.com,35.6929786,-105.9491484,https://goo.gl/maps/TzE63FkpjAniTCcn8,6 Stillwater Ave.,"Orono, ME 04473"
Mama Jim's Gluten Free Kitchen,Food Truck,http://mamajims.com/,1 480-213-5577,https://www.facebook.com/MamaJimAZ/,Contact@MamaJims.com,N/A,N/A,N/A,"38 E 23rd St
","New York, NY 10010
"
Craft Kafe,Bakery,http://www.craftkafe.com/,1 727-914-7443,https://www.facebook.com/craftkafe/,craftkafe@gmail.com,27.7712962,-82.7296961,https://goo.gl/maps/LqY2Qjyotzi4hLnaA,"596 S Castell Ave.
","New Braunfels, TX 78130
"
Craft Kafe,Bakery,http://www.craftkafe.com/,1 727-256-8587,https://www.facebook.com/craftkafe/,craftkafe@gmail.com,27.771039,-82.635745,https://goo.gl/maps/hiMjoHrkvUos8rtq9,"#127 - 1959 152nd St
","South Surrey, British Columbia, Canada V4A 9E3"
Fittnass Cukormentes Cukrászda,Cafe/Restaurant,http://fittnass.hu/,36 309074214,https://www.facebook.com/fittnass.cukraszda/,fittnasskft@gmail.com,47.5057747,19.059491,https://goo.gl/maps/FNQGTzts7nUjbpDv7,"110 San Antonio St Suite 170
","Austin, TX 78701
"
Bite Me Kupcakez,Bakery,https://www.bitemekupcakez.com/,1 603-674-4459,https://www.facebook.com/bmkupcakez/,,42.8384198,-71.4913315,https://goo.gl/maps/YJes9wyd1T3kixeX6,"Via Adda, 103 - 00198
","Rome, Italy
"
Dakhin,Restaurant,https://www.dakhin.com,44 0141 553 2585,https://www.facebook.com/dakhinrestaurant/,info@dakhin.com,55.858886,-4.245711,https://g.page/dakhin?share,2234 E Hastings,"Vancouver, British Columbia, Canada"
Tio Pablo,Restaurant,https://www.tiopablotacos.com,1 804-643-4828,https://www.facebook.com/TioPabloTacos/,tiopablorichmond@gmail.com,37.53404,-77.427405,https://goo.gl/maps/v6FmJAnDMvey3Ekg6,"Ace Hotel
","London, UK E1 6J"
Thingy Ma Jigs café,Cafe,,44 7849356178,https://www.facebook.com/thingymajigs5/,,54.5355943,-1.0508359,https://goo.gl/maps/E36W2ENtPHoBkbaU7,18 Piccadilly,"London, UK W1J 0DF"
Sincerity & Food,Restaurant,http://sincerityandfood.it/en/,39 3938104610,https://www.facebook.com/sincerityandfood/,info@sincerityandfood.it,45.520528,11.450547,https://goo.gl/maps/nxx7y6WHe6w2LgfU8,1365 Midland Ave unit 130,"Kingston, Ontario, Canada K7P 2W5"
Kitch Organic,Cafe,http://www.kitchorganic.com/,1 732-741-5400,https://www.facebook.com/kitchorganic/,team@kitchorganic.com,40.3440245,-74.0784902,https://goo.gl/maps/y15TontY7nuMk13L6,787 Lea Bridge Road,"London, UK E17 9DZ"
Smokin’ Bowls,Cafe,http://www.smokinbowls.com/,1 707-665-5265,https://www.facebook.com/smokinbowls/,contact@smokinbowls.net,38.3351089,-122.7061386,https://goo.gl/maps/211CPuaT692bQu5EA,139 Brick Lane,"London, UK E1 6SB"
Eugene Glutenvrije Bakery,Bakery,https://www.zondergluten.be/,32 32331989,https://www.facebook.com/pages/category/Bakery/GlutenvrijBakkerijEugene/posts/,,51.2114086,4.3967522,https://goo.gl/maps/p79VoZRk7FPK8tYA9,"461 465 North End Rd, Fulham","London, UK SW6 1NZ"
Mastino V,"Cafe/Restaurant
",https://mastinovegan.nl/,31 20 845 0731,https://www.facebook.com/mastinov/, info@mastinovegan.nl,52.3665417,4.8723563,https://goo.gl/maps/uwEWHiW1A68kc8Ha8,"25 E Woodin Ave
","Chelan, Washington 98816
"
Nourish Cafe & Market ,Cafe,https://nourishcafemarket.com/,1 573-818-2240,https://www.facebook.com/NourishCafeMarket/,kalle@nourishcafemarket.com,38.9517028,-92.3240496,https://goo.gl/maps/h83dT65QCbEvYYv26,"Sabana Sur, Calle 66, Avenida 16B
casa #97","San José, Costa Rica 1000"
Whole Sol,Cafe,https://wholesol.com/,1 720-372-7862,https://www.facebook.com/WholeSolBlendBar/,HI@WHOLESOL.COM,39.7554172,-105.0018478,https://goo.gl/maps/GX2muHLjyPXbBqtK7,2364 Gold Coast Hwy,"Mermaid Beach, Queensland, Australia 4218"
Whole Sol,Cafe,https://wholesol.com/,1 720-475-1355,https://www.facebook.com/WholeSolBlendBar/,HI@WHOLESOL.COM,40.0182777,-105.2789524,https://goo.gl/maps/SWchvn3zrD8QDrQ26,2604 West Lawrence Avenue,"Chicago, Illinois 60625"
Bedrock Eats & Sweets,Cafe,https://bedrockeatsandsweets.com/,1 901-512-5374,https://www.facebook.com/BedrockEatsandSweets/,,35.1374214,-90.0571705,https://goo.gl/maps/Cy6dzNV95FDhR2Z97,2435 Hilyard St.,"Eugene, OR 97401"
Bounty on Broad,Cafe,https://bountyonbroad.com/,1 901-410-8131,https://www.facebook.com/bountyonbroad/,,35.1478027,-89.9753527,https://goo.gl/maps/hnufci4D1miSbW156,"697 Haywood Rd
","Asheville, North Carolina 28806
"
100% Vivre,Cafe,,351 968 739 024,https://www.facebook.com/cemporcentolivre/,cemporcentolivre.3@gmail.com,37.1368495,-8.023552,https://goo.gl/maps/qVLmu9t9qGy8W5qf7,707 Haywood Rd,"Asheville, North Carolina 28806"
Wholesome Eating,Bakery,https://www.wholesomeeatingllc.com/,1 913-522-3098,https://www.facebook.com/ajikeoyin/,atolulope3@aol.com,29.571948,-98.517869,https://goo.gl/maps/NRJM5Xc1xfe2MeK1A,78 N. Lexington Ave,"Asheville, North Carolina 28801"
PharmTable,Cafe,https://www.pharmtable.com/,1 210-802-1860,https://www.facebook.com/PharmTable/,support@pharmtable.com,29.4297568,-98.488109,https://g.page/PharmTable?share,"610 1st Street
","Napa, CA 94559"
Viva Vegeria,Restaurant,http://www.myvegeria.com/,1 210-465-9233,https://www.facebook.com/myvegeria/,,29.3992021,-98.5125358,https://g.page/vivavegeria?share,5959 Shellmound St,"Emeryville, CA 94608"
Powerhouse Bakery,Bakery,https://powerhousebakery.com/,1 210-722-8464,https://www.facebook.com/powerhousebakery/,suzanne@powerhousebakery.com,29.5312627,-98.5860905,https://goo.gl/maps/tk64uZWWcNjcudzS6,199 Paseo De Peralta Ste D,"Santa Fe, New Mexico 87501"
The Preacher's Son,"Bakery
",http://www.thepreachersson.com/,1 479-445-6065,https://www.facebook.com/The-Preachers-Son-699585026858273/,,36.3731525,-94.2103708,https://goo.gl/maps/aMhtfog8H4aCW94u9,"762/13 sukhumvit rd, khwaeng khlong
tan, khet khlong toei
","Bangkok, Thailand 10110
"
Olly Makes Bakery,Bakery,,1 501-470-6978,https://www.facebook.com/ollymakesbakery/,,36.3741646,-94.2083901,https://goo.gl/maps/XQs3A9rYzgAKN4Tw9,check website,"Phoenix, AZ"
Arepa Mia,Cafe,http://www.arepamiaatlanta.com/,1 404-880-8575,https://www.facebook.com/arepamia/,,33.77707,-84.267488,https://g.page/arepamiaatlanta?share,6653 Central Ave,"St. Pete, Florida 33710"
Arepa Mia,Cafe,http://www.arepamiaatlanta.com/,1 404-880-8575,https://www.facebook.com/arepamia/,,33.754189,-84.379763,https://goo.gl/maps/K354mf97xkh4ty5L8,200 Central Ave.,"St. Petersburg, FL 33703"
Good Karma Coffee House,Cafe,http://www.goodkarmacoffeehouse.com/,1 404-499-0999,https://www.facebook.com/GoodKarmaCoffeeHouse/,,33.7761431,-84.2658138,https://goo.gl/maps/FSu34mqug1LFD3jp7,"Zichy Jen? utca 43.
","Budapest, Hungary 1066
"
Foo Dog Curry Traders,Cafe,http://www.badwolftraders.com/,1 904-551-0327,https://www.facebook.com/pages/category/South-Indian-Restaurant/Foo-Dog-Curry-Traders-121963405159763/,pr@foodogjax.com,30.3156682,-81.6893796,https://goo.gl/maps/DxSbpmyDocuZSMKVA,4 Mound Ct,"Merrimack, NH 03054"
Comeconoco Laboratory & Cafe,Bakery/Cafe,https://comeconoco.com/en,+81 6-4301-4600,https://www.facebook.com/comeconoco/,,34.6887864,135.5132213,https://goo.gl/maps/jhNnHrinv1p2NmaD8,"89 Candleriggs, Merchant City","Glasgow, UK G1 1NP"
Silly Axe Cafe,Cafe,,1 502-290-7197,https://www.facebook.com/thesillyaxe/,,38.2237489,-85.6938244,https://goo.gl/maps/8quW336Rg1Sv99Qp8,1703 East Franklin Street,"
Richmond, VA 23223
"
Blooming Lotus,Bakery,http://www.blbmke.com/,1 414-212-8010,https://www.facebook.com/BloomingLotusGourtmetBakery/,info@blbmke.com,43.0600012,-87.8830831,https://goo.gl/maps/oDdGgq3SuxnnNNKTA,5 Bow Street,"Guisborough, UK TS14 6BP"
Brazilian Tapioca,Food Truck,https://braziliantapioca.com.au/,61 488137310,https://www.facebook.com/braziliantapioca/,,-26.4761913,152.9519911,https://goo.gl/maps/vH2zPtHE3v7YCmxUA,"Via Roma, 5 36051
","Creazzo, Italia"
Zest Ubud,Cafe,https://www.zestubud.com/,62 82340065048,https://www.facebook.com/zestubud/,hello@zestubud.com,-8.5054206,115.2539139,https://goo.gl/maps/A4EVrygijesfceus5,75 Leighton Avenue,"Red Bank, NJ 07701
"
Sawobali Sapodilla,Cafe,http://sawobali.com/,62 361737061,https://www.facebook.com/sawobaliveganglutenfree/,,-8.511911,115.268422,https://goo.gl/maps/tB5WpD4eNpQQbLEQ9,295 Southwest Blvd.,"Rohnert Park, CA 94528"
The Birds and The Bees Ubud,Cafe,,62 81246419567,https://www.facebook.com/thebirdsandbeesubud/,,-8.5140016,115.2605295,https://goo.gl/maps/BQmXgX7pzcokcZMR8,"Volkstraat 15, 2000","Antwerp, Belgium"
The Fussy Bird,Cafe,http://fussybirdbali.weebly.com/,62 361 4792356,https://www.facebook.com/FussyBirdBaLi/,,-8.506833,115.268442,https://goo.gl/maps/bLZv7MRQZe3vLEh17,"Bilderdijkstraat 192
","Amsterdam, Netherlands"
Rice Manhattan Beach,Restaurant,https://www.ricemb.com/,1 310-798-7722,https://www.facebook.com/ricemb/,,33.8828697,-118.4093782,https://goo.gl/maps/Ru1Vgwvo36cC3PYS8,"1201 E Broadway, Ste B","Columbia, MO 65201"
F?nuts,Bakery,https://fonuts.com/,1 323-592-3075,https://www.facebook.com/fonuts/,,34.0719562,-118.3661642,https://goo.gl/maps/9oc79Bap2Y46TCKP7,"1735 Chestnut Place
","Denver, CO 80202
"
Figg's Ordinary,Cafe/Restaurant,https://www.figgsordinary.com/,1 443-282-0061,https://www.facebook.com/FiggsOrdinary/,ingrid@figgsordinary.com,39.2077476,-76.0676093,https://goo.gl/maps/5Dca97eRBf1V693x7,"1420 Pearl St
","Boulder, CO 80302
"
Lucky Santo,Cafe/Restaurant,luckysanto.com,1 206-294-3921,https://www.facebook.com/LuckySantoSea/,,47.6904269,-122.397965,https://goo.gl/maps/598yMRaPR5GwQTJC6,"327 S. Main
","Memphis, TN 38103
"
Third Coast Bakery,Bakery,http://www.thirdcoastbakery.com,1 231-421-8696,https://www.facebook.com/ThirdCoastBakery/,info@thirdcoastbakery.com,44.758095,-85.577591,https://goo.gl/maps/ohSzt8A7xZ3cj1mu8,"2519 Broad Ave
","Memphis, TN 38112
"
Straight up Coffee and Food,Cafe,http://www.straightupcoffeeandfood.com.au/,61 3 6236 9237,https://www.facebook.com/straightupcoffeeandfood/,,-42.8844797,147.3238132,https://goo.gl/maps/x1SqEyE79uNdXBL28,"Rua 1º de Dezembro, nº38
","Loulé, Portugal 8100-505
"
Intentional Foods,"Cafe/Restaurant
",https://intentionalfoods.org,1 480-264-7002,https://www.facebook.com/IntentionalFoods/,,33.36296,-111.8745161,https://goo.gl/maps/kPT9PMfG3Cy8p8THA,13455 Blanco Rd.,"San Antonio, TX 78216"
Wild Poppy Bistro,Cafe,http://www.wildpoppybistro.ca/,1 250-924-8696,https://www.facebook.com/WildPoppyBistroLadysmith/,,48.993937,-123.8180868,https://goo.gl/maps/pphLwd789C7KuWDp8,"106 Auditorium Cir
","San Antonio, TX 78205
"
Sapiens Paleo Kitchen,Cafe,https://sapienskitchen.com/,1 480-771-5123,https://www.facebook.com/SapiensKitchen/,,33.6273601,-111.8563551,https://g.page/PaleoPhoenix?share,"1422 Nogalitos Street
","San Antonio, TX 78204"
Joi Cafe,Cafe,https://www.joicafe.com/,,https://www.facebook.com/joicafe/,INFO@JOICAFE.COM,34.1510306,-118.8236983,https://g.page/joicafe?share,"4902 Golden Quail, Ste. 101
","San Antonio, TX 78240
"
Choice Superfood Bar & Juicery,Cafe,http://choicejuicery.com/,1 858-704-4346,https://www.facebook.com/ChoiceJuicery/,,32.9867859,-117.2707861,https://goo.gl/maps/3C7qCcYFXoDnW7uY7,"201 NW A St
","Bentonville, AR 72712
"
Choice Superfood Bar & Juicery,Cafe,http://choicejuicery.com/,1 619-450-7970,https://www.facebook.com/ChoiceJuicery/,,32.7201728,-117.1681606,https://goo.gl/maps/WfCTmBMV3y4E7ErL7,"220 N Main St
","Bentonville, AR 72712
"
Choice Superfood Bar & Juicery,Cafe,http://choicejuicery.com/,1 858-832-7905,https://www.facebook.com/ChoiceJuicery/,,33.0213012,-117.1250871,https://goo.gl/maps/x4kPo41uiRDEKrFn6,10 N Claredon Ave.,"Avondale Estates, GA 30002"
Choice Superfood Bar & Juicery,Cafe,http://choicejuicery.com/,1 760-994-0013,https://www.facebook.com/ChoiceJuicery/,,33.1596183,-117.3489668,https://goo.gl/maps/GcVTWcmn7DT7GpTg8,"209 Edgewood Ave. SE
","Atlanta, GA 30303"
AERA Bread,Bakery,https://aerabread.com/,#ERROR!,AERA Bread,,52.5023785,13.3279805,https://goo.gl/maps/bo8KsCqurMKciP6r6,31 N. Avondale Plaza,"Avondale Estates, GA 30002"
Glutanada,Cafe,https://www.glutanada.com/,49 30 22329650,https://www.facebook.com/glutanada/,,52.4891274,13.3902112,https://goo.gl/maps/hckHBfGMfkmf5h8P8,869 Stockton St,"Jacksonville, FL 32204"
Glutenfreie Bäckerei Konditorei Eis Voh,Bakery,https://m.facebook.com/Eisvoh.glutenfrei/?ref=page_internal,49 30 85402065,https://www.facebook.com/Eisvoh.glutenfrei/,,52.4683744,13.3285549,https://goo.gl/maps/jdcnornSmDQvVPqaA,"2-2-3 #101 Shimamachi, Chuo-ward","Osaka, Japan"
Simply Keto,Bakery/Cafe,https://simplyketo.de/,49 1575 3671914,https://www.facebook.com/simplyketo/,support@simplyketo.de,52.5322114,13.3962409,https://goo.gl/maps/AfmpRZ3hwGFczsd99,2216 Dundee Rd,"Louisville, KY 40205"
Yellow Button Bakery,Online,,1 530-676-1598,https://www.facebook.com/yellowbuttonbakery/,,,,,"2215 East North Avenue
","Milwaukee, WI 53202"
Randy's Pizza,Restaurant,http://www.randyspizza.com/,1 651-777-1400,https://www.facebook.com/RandysPizzaonline/,,45.0215885,-92.9842551,https://goo.gl/maps/GcMdEbuccWVxiDZ58,"Noosa Farmers Markets 
155 Weyba Rd, Noosaville QLD 4566","Queensland, Australia"
Celebrate Gluten Free Bakery & Cafe,Bakery,https://www.celebrateglutenfree.com,1 780-758-8030,https://www.facebook.com/CelebrateGlutenFree/,celebrateglutenfree@shaw.ca,53.5411346,-113.5841181,https://goo.gl/maps/aXSdAALpzq3BV2BW6,"80 Memorial Drive – Eumundi QLD 462 

Every Sunday at Noosa Farmers Markets 
155 Weyba Rd, Noosaville QLD 4566","Queensland, Australia"
Patti's Perfect Pantry,Bakery,http://www.pattisperfectpantry.com,1 408-779-7300,https://www.facebook.com/PattisPerfectPantry,patti@pattisperfectpantry.com,37.1106967,-121.6428887,https://goo.gl/maps/ftPg79U8xHyEjBeG9,Jl Raya Penestanan Kelod no.8,"
Ubud, Bali, Indonesia 80571
"
Pizelle Bakery,Bakery,https://www.pizzellebakery.com,1 919-943-5130,https://www.facebook.com/pizzellebakery/,kelly@pizzellebakery.com,35.9122959,-79.0601415,https://goo.gl/maps/CZkT75tEVXRPP9np8,"Jalan Hanoman #73
","Ubud, Bali, Indonesia 80571
"
Sunny Bridge Gluten-Free Bakery,Bakery,https://sunnybridgenaturalfoods.com/gluten-free-bakery/,1 724-942-5800,https://www.facebook.com/SunnyBridge/,,40.2905909,-80.1124763,https://g.page/SunnyBridge?share,"Jl. Tirta Tawar No. 32 Kutuh Kelod
","Ubud, Bali 80571
"
Eat Well PDX Food Truck,Food Truck,,1 971-352-1889,https://www.facebook.com/EatWellPDX/,,45.5339053,-122.6013173,https://goo.gl/maps/ZxvXgPj2uzWBtQ7g7,"820 Manhattan Ave
","Manhattan Beach, CA 90266
"
Portland Juice Co (@Firebrand Sports),Cafe,http://www.portlandjuicepress.com/,1 503-888-3808,https://www.facebook.com/PortlandJuiceCo/,,45.526619,-122.6851401,https://goo.gl/maps/1qMxVDEpuGjrBZtQA,"8104 West 3rd Street
","Los Angeles, CA 90048"
Portland Juice Co,Cafe,http://www.portlandjuicepress.com/,1 503-913-3367,https://www.facebook.com/PortlandJuiceCo/,,45.500536,-122.652777,https://goo.gl/maps/BtZjf2Yba4E8ZhAb9,207 S. Cross St. #102,"Chestertown, MD 21620"
The Whole Bowl,Food Truck,http://www.thewholebowl.com/,1 971-212-6154,,,45.5382565,-122.6156298,https://goo.gl/maps/mAcVPHewAGa31bjV8,3127 NW 85th St.,"
Seattle WA 98117
"
The Whole Bowl,Food Truck,http://www.thewholebowl.com/,1 971-212-5849,,,45.5264541,-122.6827698,https://goo.gl/maps/Si3aoPp2DEmHKDUL9,523 Munson Ave,"Traverse City, MI 49686"
The Whole Bowl,Cafe,http://www.thewholebowl.com/,1 971-212-4626,,,45.5205977,-122.6810894,https://goo.gl/maps/5dKujqbaN8VArhQz6,202 Liverpool Street,"Hobart, Tasmania, Australia 7000"
The Whole Bowl,Food Truck,http://www.thewholebowl.com/,1 503-753-7071,,,45.5121365,-122.6167546,https://goo.gl/maps/aQ8U4poJBnXqy6p86,"Address: 1837 W. Guadalupe Rd. #103
","Mesa, AZ 85202
"
The Whole Bowl,Cafe,http://www.thewholebowl.com/,1 503-493-5991,,,45.5488844,-122.6677833,https://goo.gl/maps/yqREtSfz16NoYJNHA,541 1st Ave,"Ladysmith, British Columbia, Canada V9G 1A1"
The Whole Bowl,Cafe,http://www.thewholebowl.com/,,,,45.5169906,-122.6752885,https://goo.gl/maps/VtkbbeG5z8DeAHCv7,"10411 E McDowell Mt Ranch Rd
","Scottsdale, AZ 85255
"
The Whole Bowl,Food Truck,http://www.thewholebowl.com/,1 503-901-0405,,,45.5187324,-122.6796876,https://goo.gl/maps/uzBQZHb73pTVyFj5A,"2855 Agoura Road
","Westlake Village, CA 91361"
The Whole Bowl,Cafe,http://www.thewholebowl.com/,1 503-449-0891,,,45.5336593,-122.6991341,https://goo.gl/maps/8Hf2oD1X61UGxU2h6,Address: 437 Hwy 101 #118,"Solana Beach, CA 92075"
The Whole Bowl,Food Truck,http://www.thewholebowl.com/,1 503-901-0405,,,45.5187324,-122.6796876,https://goo.gl/maps/GGKhTAKzAkyswy9s7,"1425 India St
","San Diego, CA 92101
"
The Whole Bowl Cincinnati,Food Truck,http://www.thewholebowl.com/,1 513-751-2695,https://www.facebook.com/pages/category/Vegetarian-Vegan-Restaurant/The-Whole-Bowl-Cincinnati-1222786134435663/,,39.1439829,-84.5219726,https://goo.gl/maps/Xmxu1tQvDudjzZHk6,"17135 Camino Del Sur Suite 125
","San Diego, CA 92127"
The Whole Bowl,Food Truck,http://www.thewholebowl.com/,1 602-339-4415,https://www.facebook.com/thewholebowlphx/,,33.4493152,-112.0736656,https://goo.gl/maps/MLMSgEHy4cDiCsKX9,"430 Carlsbad Village Dr.
","Carlsbad, CA 92008
"
Tiffin Asha,Restaurant,http://tiffinasha.com/,1 503-936-7663,https://www.facebook.com/tiffinasha/,tiffinasha@gmail.com,45.5626217,-122.6479429,https://goo.gl/maps/88irdjYnVYfFPfYEA,Fasanenstrasse 74,"Berlin, Germany 10719"
The Green Spork,Cafe,https://greensporkcafe.wordpress.com,1 912-323-6046,https://www.facebook.com/TheGreenSporkCafeMarket/,info@greensporkcafe.com,31.9393295,-81.3035351,https://goo.gl/maps/jeD8o6xQjZfFBgv4A,"Nostitzstraße 33
","Berlin, Germany 10965"
Cole's Gluten Free Bakery & Cafe,Bakery/Cafe,https://www.colesfinefoods.com,1 509-413-1739  ,https://www.facebook.com/colesbakeryandcafe ,,47.7444078,-117.4019399,https://goo.gl/maps/9KYGA4cZA3CzZBKYA,"Bundesallee 118
","Berlin, Germany 12161 Phone: +49 30 85402065"
Picazzo’s Organic Italian Kitchen,Restaurant,https://picazzos.com,1 480-785-0522,https://www.facebook.com/Picazzos/,,33.3350137,-111.944569,https://goo.gl/maps/JGymyn8DiKCJo3p9A,"Invalidenstraße 154
","Berlin, Germany 10115
"
Picazzo’s Organic Italian Kitchen,Restaurant,https://picazzos.com,1 928-282-4140,https://www.facebook.com/Picazzos/,,34.863414,-111.792379,https://goo.gl/maps/3Qh3zz8rUTPu6kYM8,"1203 Mission Street
","Santa Cruz, CA 95060
"
Picazzo’s Organic Italian Kitchen,Restaurant,https://picazzos.com,1 480-990-2212,https://www.facebook.com/Picazzos/,,33.637175,-111.922462,https://goo.gl/maps/z8oUNZUQ1scZ6Bqn7,"Home based business
","Home based biz in Diamond Springs, CA"
Picazzo’s Organic Italian Kitchen,Restaurant,https://picazzos.com,1 602-923-6001,https://www.facebook.com/Picazzos/,,33.597347,-111.981268,https://goo.gl/maps/aFVNhBvtzby3wWSy9,6030 50th St N,"Oakdale, MN 55128-1349"
Picazzo’s Organic Italian Kitchen,Restaurant,https://picazzos.com,1 623-466-0228,https://www.facebook.com/Picazzos/,,33.652974,-112.235864,https://goo.gl/maps/qf45891HCMb8aBZf6,15213 Stony Plain Road NW,"Edmonton, Alberta, Canada T5P 3Y4"
Vanilla Jill's Cafe,Cafe,,1 541-345-2466,https://www.facebook.com/pg/VanillaJillsScoopsSoups,,44.056654,-123.110526,https://goo.gl/maps/jpk3mq4FLJyn4o3n7,435 Vineyard Town Center,"Morgan Hill, CA 95037"
The Dotted Lime,Cafe,https://www.thedottedlime.com,1 931-548-8445,https://www.facebook.com/thedottedlime/,eat@thedottedlime.com,35.5981,-87.058032,https://goo.gl/maps/neWCo8BdDgWmt7wD7,"Find inside: Blue Dogwood Public
Market
306 W. Franklin St., Suite G","Chapel Hill, NC 27516"
The Green Plate,Cafe,https://thegreenplatellc.com/,1 774-813-0200,https://www.facebook.com/thegreenplatellc/,,42.112744,-71.6586675,https://goo.gl/maps/mUEqh84mBGBwhKwLA,"130 Gallery Drive
","McMurray, PA 15317"
The Bald Strawberry,Bakery,,1 321-458-5529,https://www.facebook.com/TheBaldStrawberry,,28.0892979,-80.5740714,https://goo.gl/maps/Xn1kJf7QzKatMbas5,"6035 SE Halsey - Stall 8
","Portland, Oregon 97202
"
Ad Hoc Fish n Chips,Cafe/Restaurant,https://adhocfishandchips.wixsite.com/adhoc,1 514-419-8777,https://www.facebook.com/adhoc.fishandchips/,,45.5302612,-73.5554336,https://goo.gl/maps/2ZbGjWdDFBmmu2xx6,500 NW 14th Ave,"Portland, OR 97209"
Carnivore,Restaurant,http://carnivoreballard.com,1 206-566-6113,https://www.facebook.com/CarnivorePaleoKitchen/?rf=1659783014036339,info@carnivoreballard.com,47.6665588,-122.3837548,https://goo.gl/maps/gbGSLpuWxoyXeQuC7,"1212 SE Powell Blvd. Suite B
","Portland, OR 97202
"
The Creperie and Cafe,Cafe,https://creperieandcafe.com,1 828-484-9448,https://www.facebook.com/Creperie.Cafe.Of.Weaverville/,,35.7003023,-82.5603165,https://goo.gl/maps/Be96NAW5yNsGExuj7,"4615 NE Sandy Blvd
","Portland, OR 97213"
C and D’s Kuntry Kitchen,Cafe,,1 804-447-5462,https://www.facebook.com/pg/cadskuntrykitchen,,37.4455356,-77.581462,https://goo.gl/maps/h5oMeqRXkkmp9r1Q9,"1100 NW Glisan St
","Portland, OR 97209"
521 Biscuits & Waffles,Cafe,https://521rva.com/,1 804-482-8924,https://www.facebook.com/521rva/,info@521rva.com,37.5399336,-77.4393758,https://goo.gl/maps/j23WeKgAsuNSu9Bj6,SW 9th and Alder,"
Portland, OR 97205"
Thyme & Caramel Cakes Bali,Online,https://www.thymeandcaramel.com/,62 813-3892-7578,https://www.facebook.com/thymeandcaramel/,,,,,"4411 SE Hawthorne
","Portland, OR 97215"
Leyda's Cafe,Cafe,http://www.leydas.com,1 306-244-0707,https://www.facebook.com/leydasrestaurant/,,52.126192,-106.67077,https://goo.gl/maps/gEUswB9gHGozXMYL6,"3540 N Vancouver Ave
","Portland, OR 97227"
The Little Mustard Seeds Cafe,Cafe,http://www.thelittlemustardseedcafe.com/,1 586-716-9255,https://www.facebook.com/TheLittleMustardSeedCafeAndShoppe/,littlemustardnb@gmail.com,42.68044,-82.73624,https://goo.gl/maps/LfdQ1krDhSX7RcUd8,"827 SW. 2nd Ave
","Portland, OR 97204"
The Cackling Goose Market,Cafe,https://cacklinggoosemarket.ca,1 506-536-2303,https://www.facebook.com/cacklinggoosemarket/,cacklinggoosemarket@gmail.com,45.8981727,-64.3706183,https://goo.gl/maps/Xb3CEd1T4orozNZ59,701 SW. 6th Ave,"Portland, OR 97204"
Guncles Gluten Free Bakery,Bakery,https://www.gunclesgf.com,1 251-800-1348,https://www.facebook.com/GunclesGlutenFree/,Yum@GunclesGF.com,30.6764646,-87.8490942,https://goo.gl/maps/8zK68Vqwjd1HJdpW8,1515 NW 23rd,"Portland, OR 97210"
White Lion Baking,Online,http://www.whitelionbaking.com/,1 774-228-2946,https://www.facebook.com/whitelionbaking/,whitelionbakingco@gmail.com,41.616386,-70.519769,https://goo.gl/maps/9amL2QnNofT8Smjh8,"240 SE Clay
","Portland, OR 97214"
Healthy Sins Inc,Cafe,http://www.hsvegancafelockport.com/,1 815-838-4626,https://www.facebook.com/vegancafelockport/,rum96@comcast.net,41.588676,-88.0576186,https://goo.gl/maps/AfQ5uPZJLsUoKLx29,"Unitis Plaza, 1300 SW 6th Ave","Portland, OR 97201"
K Fresh,Cafe,https://www.hellokfresh.com/,1 425-212-9863,https://www.facebook.com/hellokfresh/,eat@hellokfresh.com,47.979572,-122.2153082,https://g.page/hellokfresh?share,"364 Ludlow Ave
","Cincinnati, OH 45220
"
Celest Cafe,Cafe,https://celestcafemagic.wixsite.com/home,1 206-370-0036,https://www.facebook.com/CelestCafe/,,47.7125093,-122.344383,https://g.page/CelestCafeSeattle?share,"11 E Adams St.
(SE corner of Central & Adams)
","Phoenix, AZ 85034"
Newton's No Gluten,Bakery,http://www.newtonsnogluten.com,1 519-837-3337,https://www.facebook.com/newtonsnogluten/,,43.5481545,-80.2984969,https://goo.gl/maps/ZvTVqtn91X8RafKw6,"1670 NE Killingsworth Street
","Portland, OR 97211
"
The Polly Fox,Bakery/Cafe,http://www.thepollyfox.com,1 604-744-1881,https://www.facebook.com/thepollyfox/,hello@thepollyfox.com,49.048806,-122.289546,https://goo.gl/maps/phZsFjNh8HW2ig2f8,10747 Ford Avenue,"Richmond Hill, GA 31324"
Circle Kitchen,Cafe,https://www.circlekitchenwpg.com,,https://www.facebook.com/circlekitchenwpg/,hello@circlekitchenwpg.com,49.8714078,-97.1520564,https://goo.gl/maps/nmSq6sJXudL9EwTp9,"521 E. Holland, Suite 20","Spokane, WA 99218"
Happy Goat Bakery,Bakery,https://www.happygoat.biz,1 740-621-4628,https://www.facebook.com/happygoatgf/,,39.720354,-82.605592,https://g.page/happygoatgf?share,440 W. Warner Rd.,"
Tempe, AZ 85284
"
Bradley Gluten-Free Bake Shop,Bakery,https://thebradleybakeshop.com,1 201-343-0444,https://www.facebook.com/bradleybakeshop/,,40.8712003,-74.0328866,https://g.page/bradleybakeshop?share,"1855 W. Highway 89A
","Sedona, AZ 86336
"
TnD Bakery,Bakery,http://tndglutenfreebakery.com,,https://www.facebook.com/T-n-D-Bakery-1263150630378704/,,26.9373458,-82.0483268,https://goo.gl/maps/6igJZi4GvUP1pbL97,"7325 Frank Lloyd Wright
","Scottsdale, AZ 85260
"
TnD Bakery,Bakery,http://tndglutenfreebakery.com,1 941-585-9443,https://www.facebook.com/T-n-D-Bakery-1263150630378704/,TnDBAKERY@yahoo.com,26.937334,-82.0481887,https://goo.gl/maps/z1Y8Xg7CAMqSFZJaA,"4669 E. Cactus Rd.
","Phoenix, AZ 85032
"
Wildflour - Gluten Free Cupcakes,Online,http://www.wildflourgfree.com/,1 978-771-5244 ,https://www.facebook.com/wildflourgfree/,wildflourgfree@gmail.com,47.6285256,-122.1589704,https://goo.gl/maps/v7o58xn7i5fqA5269,"8280 W. Union Hills Dr.
","Glendale, AZ 85308
"
Tamaliza,Restaurant,http://www.sedonatamaliza.com/,1 928-202-9056,https://www.facebook.com/sedonatamaliza/,claudi_tqm@icloud.com,34.8622665,-111.7814162,https://goo.gl/maps/ckkuAqd3yKKRzsEL6,"298 Blair Blvd
","Eugene, Oregon 97402
"
De Glutenvrije Winkel,Bakery,https://www.glutenvrijewinkelamsterdam.nl/,31 20 210 0251,https://www.facebook.com/GlutenvrijewinkelAmsterdam,,52.3556454,4.9253327,https://goo.gl/maps/Ekkk2nkFweu9vNsS9,"1907 Shady Brook St.
","Columbia, TN 38401
"
New EraNew Era: Fine Fermentations,Restaurant,https://neffbrewing.com/,1 918-367-0640,https://www.facebook.com/NewEraFineFermentations/,,36.1548985,-95.984497,https://goo.gl/maps/m7HMtYy7zYq58r579,167 Church St,"Whitinsville, MA 01588"
Valley Girl Sweets,Bakery,https://www.valleygirlsweets.com/,1 814-364-1685,https://www.facebook.com/valleygirlsweetsco/,info@valleygirlsweets.com,40.8395598,-77.6780841,https://goo.gl/maps/hvgFLXFS5iRs5B6VA,427 Fifth Avenue,"Indialantic, Florida 32903"
Pu’uwai Aloha Bakery,Bakery,,1 808-631-1717,https://www.facebook.com/puuwaialohabakeryofficial/,,21.3150249,-157.8521854,https://goo.gl/maps/9Ynsf6JUsp9ztknJ7,"2281, rue Ontatio Est","Montreal, H2K 1V9"
Deliciously Alicia's,Bakery,,1 201-957-5938,https://www.facebook.com/DeliciouslyAlicia/,kristen@valleygirlsweets.com,40.994762,-74.0074812,https://goo.gl/maps/cFiorUSWrR4GMYTe7,5313 Ballard Ave NW,"
Seattle, WA 98107
"
Kind Crumbs,Bakery,http://www.kindcrumbs.com,1 616-881-6388,,,43.016254,-85.7890893,https://goo.gl/maps/vzK1tJjBnKwVn8Xz6,"113 N. Main St.
","Weaverville, NC, 28787"
No Label at the Table,Bakery,https://nolabelatthetable.com/,,,,39.9781479,-86.1311092,https://goo.gl/maps/zrchLvsqGMwRDYfy6,"3511 Courthouse Road
","Richmond, VA 23236"
Los Loros,Cafe/Restaurant,http://www.losloros.gr/index.php,30 21 0324 3232,https://www.facebook.com/pg/loslorosathens,,"37.974344,",23.7310903,https://goo.gl/maps/18yK2EH29pawiYjW7,"521 E Main St
","Richmond VA 23219
"
Sano Pecado,Bakery/Cafe,,507 388-6575,https://www.facebook.com/SanoPecado/,,8.9953139,-79.5134787,https://goo.gl/maps/fNWc19tqM7fq6v3K6,order online,"Bali, Indonesia"
Ro's Pantry,Bakery/Cafe,,507 209-4005,https://www.facebook.com/Rospantry/,,8.9878801,-79.5202748,https://goo.gl/maps/kV6QAPP1L5F8Hamz6,112 20th St W,"Saskatoon, SK S7M 0W6"
AVOCAT Organic Deli,Bakery/Cafe,https://avocat-organic-deli.negocio.site/,507 388-2138,,,8.995137,-79.5111337,https://g.page/AvocatOrganicDeli?share,51111 Washington,"New Baltimore, MI 48047"
Karaköy Güllüoglu,Bakery,https://www.karakoygulluoglu.com/,90 212 293 09 10,,info@karakoygulluoglu.com,41.0229083,28.9752611,https://goo.gl/maps/uHDqGbJxS4Nb9UPh6,38 York Street,"Sackville, NB, Canada E4L 4R4"
Glutensiz ADA,Restaurant,https://shop.glutensizada.com,90 216 441 34 22,,,40.9269985,29.1211061,https://goo.gl/maps/cooKDpQX7aDFR91r6,"11247 US Hwy 31
","Spanish Fort, AL 36527
"
Shimmy Shack,Cafe,https://shimmyshack.com/,1 734-228-5990,,,42.3593734,-83.4825372,https://goo.gl/maps/ptVcUgVfJfn5VD776,Find online and in MA,"Mashpee, MA"
Grainmaker,Cafe,https://www.eatgrainmaker.com,1 617-482-0131,,info@eatgrainmaker.com,42.3538867,-71.0606532,https://g.page/eatgrainmaker?share,"2345 Ashland St, Ste 201
","Ashland, OR 97520
"
The Cold Pressed Juicery,Cafe,https://www.thecoldpressedjuicery.com/,31 (0)20 370 11 84,,info@thecoldpressedjuicery.com,52.375054,4.8742524,https://goo.gl/maps/AZLDhpNeSnK1zbbP7,"928 S State Street
","Lockport, IL 60441
"
The Cold Pressed Juicery,Cafe,https://www.thecoldpressedjuicery.com/,31 (0)20 215 94 99,,info@thecoldpressedjuicery.com,52.3580197,4.8688914,https://goo.gl/maps/J53XzDq8m1ioYdjc9,"1105 Hewitt Avenue
","Everett, WA 98201
"
The Cold Pressed Juicery,Cafe,https://www.thecoldpressedjuicery.com/,31 (0)20 370 11 83,,info@thecoldpressedjuicery.com,"52.3722144,",4.8786312,https://goo.gl/maps/YnAiarWhxNv7m8AaA,"1100 North 115th Street
","Seattle, WA 98133
"
The Cold Pressed Juicery,Cafe,https://www.thecoldpressedjuicery.com/,31 (0)20 753 09 19,,info@thecoldpressedjuicery.com,52.358021,4.8688914,https://goo.gl/maps/3ghKyg6Up3souPB9A,340 Woodlawn Rd W,"Guelph, Ontario, Canada N1H 7K6"
Odell's Gluten Free Bakery & Cafe,Bakery/Cafe,,1 902-405-6465,https://odellscafe.com,,44.672159,-63.6672837,https://goo.gl/maps/MAv3bzGdyCWo7vPy8,"33780 Essendene Ave Unit 130
","Abbotsford, British Columbia Canada V2S 2H2"
Det Glutenfri Bageatelier,Cafe/Restaurant,https://detglutenfribageatelier.dk/,45 60550003,,,55.977315,12.4048983,https://goo.gl/maps/k5WBq6EejHupw9Cw6,1 - 709 Corydon Avenue,"Winnipeg, MB, Canada R3M 0W4"
Lilóri,Bakery,http://www.lilori.com.br/,55 1130688061,,,-23.5650476,-46.6637961,https://goo.gl/maps/m98AjSdfuR6JExZD6,608 Forest Rose Ave,"Lancaster, OH 43130"
Nambu Cozinha de Raiz,Restaurant,http://namburestaurante.com/,55 1138041577,https://www.facebook.com/namburestaurante/,,-23.5457006,-46.6604397,https://goo.gl/maps/Wndnbxeq2LDHAMXd7,55B River Road,"Bogota, NJ 07603"
Joylato,Ice Cream/Gelato,http://www.joylato.is/,35 45551327,https://www.facebook.com/joylato.is/,info@joylato.is,64.1446173,-21.9299373,https://goo.gl/maps/ptTBytYd7imFYtqH7,Downtown Punta Gorda Farmers Market - Taylor St & Olympia Ave.,"Punta Gorda, FL"
Wheat Free For You,Online,,60 13-879 2833,https://www.facebook.com/wheatfreeforyou/,,3.2009013,101.6527689,https://goo.gl/maps/LDg7oRDE5DgTNYsf8,122 Nesbit St Unit 114 ,"Punta Gorda, FL 33950"
Grom,Ice Cream/Gelato,https://www.grom.it/en/gelateria-newyork.html,1 212-974-3444,http://www.facebook.com/pages/GROM/20907403110,http://www.grom.it/fr/contacts.php,40.7672136,-73.981263,https://goo.gl/maps/drwBxeunKDzLhm4K9,"order online
","Holden, MA"
Grom,Ice Cream/Gelato,https://www.grom.it/en/gelateria-newyork.html,1 212-206-1738,http://www.facebook.com/pages/GROM/20907403110,http://www.grom.it/fr/contacts.php,40.730464,-74.0024412,https://goo.gl/maps/ffALhyQa5nQSbLeZA,"1155 W State Rt. 89A
","Sedona, AZ 86336
"
Grom,Ice Cream/Gelato,https://www.grom.it/en/gelateria-malibu.html,1 310-456-9797,http://www.facebook.com/pages/GROM/20907403110,http://www.grom.it/fr/contacts.php,34.0353117,-118.6841587,https://goo.gl/maps/1PpHV98EzYM8sbcx6,"Pretoriusstraat 37
","Amsterdam, Netherlands 1092 EZ
"
Grom,Ice Cream/Gelato,https://www.grom.it/en/gelateria-losangeles%20.html,213-349-0999,http://www.facebook.com/pages/GROM/20907403110,http://www.grom.it/fr/contacts.php,34.0587167,-118.4181824,https://goo.gl/maps/y62sAS8TAK4azksq7,"321 S Frankfort Ave.
","Tulsa, OK 74120
"
Grom,Ice Cream/Gelato,https://www.grom.it/en/gelateria-hollywood.html,1 323-873-2990,http://www.facebook.com/pages/GROM/20907403110,http://www.grom.it/fr/contacts.php,34.101888,-118.340115,https://goo.gl/maps/xxwpc7K5sXLjL5TXA,"409 S Pennsylvania Ave
","Centre Hall, PA 16828
"
Grom,Ice Cream/Gelato,https://www.grom.it/en/gelateria-dubai%20.html,971 564080079,http://www.facebook.com/pages/GROM/20907403110,http://www.grom.it/fr/contacts.php,25.2029545,55.2513036,https://goo.gl/maps/HmUmrDu2vZgDvQLn6,1670 Lusitana Street,"Honolulu, HI 96813"
Grom,Ice Cream/Gelato,https://www.grom.it/en/gelateria-dubai%20.html,971 43445574,http://www.facebook.com/pages/GROM/20907403110,http://www.grom.it/fr/contacts.php,25.202006,55.2507894,https://goo.gl/maps/kokZFmiK3tTJe5os7,669 Westwood Avenue,"River Vale, NJ 07675"
Grom,Ice Cream/Gelato,https://www.grom.it/en/gelateria-lisbona.html,351 939 990 567,http://www.facebook.com/pages/GROM/20907403110,http://www.grom.it/fr/contacts.php,38.7108895,-9.1405598,https://goo.gl/maps/2UdJtC6y4x6JwyyJ8,"find all throughout Grand Rapids area
","Grand Rapids, MI"
Grom,Ice Cream/Gelato,https://www.grom.it/en/gelateria-verona.html,39 045 592794,http://www.facebook.com/pages/GROM/20907403110,http://www.grom.it/fr/contacts.php,45.4399556,10.9941556,https://goo.gl/maps/kR2LvxBDYSSD6aRd9,"111 W Main St, Suite 145","Carmel, IN 46033"
Grom,Ice Cream/Gelato,https://www.grom.it/en/gelateria-vercelli.html,39 016-1212619,http://www.facebook.com/pages/GROM/20907403110,http://www.grom.it/fr/contacts.php,45.3233515,8.4182474,https://goo.gl/maps/MZcgXaHH5t7xvZZG7,14 Xenofontos & Nikis,"Athens, Greece 10554"
Grom,Ice Cream/Gelato,https://www.grom.it/en/gelateria-venezia.html,41 2602349,http://www.facebook.com/pages/GROM/20907403110,http://www.grom.it/fr/contacts.php,45.4413096,12.3341221,https://goo.gl/maps/E9jnQf2poodKBArD6,"San Francisco, Calle 68, Casa rosada una
cuadra antes de llegar a Vía Porras","Panama City, Panama"
Grom,Ice Cream/Gelato,https://www.grom.it/en/gelateria-venezia.html,39 041 920648,http://www.facebook.com/pages/GROM/20907403110,http://www.grom.it/fr/contacts.php,45.4595574,12.2127337,https://goo.gl/maps/b8wWv68gDggkX4Bk9,"Ave. Samuel Lewis, Plaza Downtown
 Obarrio (Calle 59)","
Panama City, Panama
"
Grom,Ice Cream/Gelato,https://www.grom.it/en/gelateria-udine.html,39 0432 500877,http://www.facebook.com/pages/GROM/20907403110,http://www.grom.it/fr/contacts.php,46.0622986,13.2337266,https://goo.gl/maps/jrSrTAzXND9MURha7,71 East Street,"San Francisco, Panama
"
Grom,Ice Cream/Gelato,https://www.grom.it/en/gelateria-torino.html,39 011 5579095,http://www.facebook.com/pages/GROM/20907403110,http://www.grom.it/fr/contacts.php,45.0697508,7.6855078,https://goo.gl/maps/bxKKzUxUTCs9RoDB6,R?ht?m Cad. No:3 - 4 Karaköy,"Istanbul, Turkey 34425"
Grom,Ice Cream/Gelato,https://www.grom.it/en/gelateria-torino.html,39 011 5119067,http://www.facebook.com/pages/GROM/20907403110,http://www.grom.it/fr/contacts.php,45.0639389,7.6788156,https://goo.gl/maps/fiLaAqccxrgTsXDF9,Sahil Yolu Yaylada 195/6 Maltepe,"Istanbul, Turkey"
Grom,Ice Cream/Gelato,https://www.grom.it/en/gelateria-treviso.html,39 0422 56669,http://www.facebook.com/pages/GROM/20907403110,http://www.grom.it/fr/contacts.php,45.6650543,12.249439,https://goo.gl/maps/ZnmCQYHQojwCca5K9,1440 Sheldon Road,"Plymouth, MI 48170"
Grom,Ice Cream/Gelato,https://www.grom.it/en/gelateria-trento.html,39 0461 260351,http://www.facebook.com/pages/GROM/20907403110,http://www.grom.it/fr/contacts.php,46.0672947,11.1209449,https://goo.gl/maps/Lwsrrhdq9w8UGAtH8,91 Summer St.,"Boston, MA 02110"
Grom,Ice Cream/Gelato,https://www.grom.it/en/gelateria-siena.html,39 0577-289303,http://www.facebook.com/pages/GROM/20907403110,http://www.grom.it/fr/contacts.php,43.3193681,11.3312775,https://goo.gl/maps/fvEff96a4eejeLNm7,Vollenhovenschans 94,"Almere-Stad, Flevoland, Netherlands 1324HW"
Grom,Ice Cream/Gelato,https://www.grom.it/en/gelateria-sanremo.html,39 0184591806,http://www.facebook.com/pages/GROM/20907403110,http://www.grom.it/fr/contacts.php,43.8188321,7.7786308,https://goo.gl/maps/jEtoQexdT1UvzQMp7,"Prinsengracht 154
1016 HA
","Amsterdam, Netherlands
"
Grom,Ice Cream/Gelato,https://www.grom.it/en/gelateria-roma.html,"
39 06 68807297",http://www.facebook.com/pages/GROM/20907403110,http://www.grom.it/fr/contacts.php,41.9002177,12.473238,https://goo.gl/maps/EmS7oXkVBPoTMAF27,"Nieuwe Passeerdersstraat 12
1016 HP","Amsterdam, Netherlands"
Grom,Ice Cream/Gelato,https://www.grom.it/en/gelateria-roma.html,39 06 68210447,http://www.facebook.com/pages/GROM/20907403110,http://www.grom.it/fr/contacts.php,41.9010663,12.4764589,https://goo.gl/maps/Sfi4J83w8X22KnnDA,"Herengracht 245
1016 BH
","Amsterdam, Netherlands"
Grom,Ice Cream/Gelato,https://www.grom.it/en/gelateria-novara.html,39 0321-6230303,http://www.facebook.com/pages/GROM/20907403110,http://www.grom.it/fr/contacts.php,45.4467501,8.6205514,https://goo.gl/maps/rtQT12GCPbs8Q9QF8,"Willemsparkweg 8III
1071 HD","Amsterdam, Netherlands"
Grom,Ice Cream/Gelato,https://www.grom.it/en/gelateria-perugia.html,39 0755731323,http://www.facebook.com/pages/GROM/20907403110,http://www.grom.it/fr/contacts.php,43.1107098,12.389395,https://goo.gl/maps/cywQVXgq1fve7jgU9,"30 Farnham Gate Rd, Halifax","Nova Scotia, Canada B3M 4R8"
Grom,Ice Cream/Gelato,https://www.grom.it/en/gelateria-parma.html,39 0521-239318,http://www.facebook.com/pages/GROM/20907403110,http://www.grom.it/fr/contacts.php,44.8007236,10.3279628,https://goo.gl/maps/BZHsaBdZrpvaN7269,"1598 S County Trl
","East Greenwich, RI 02818
"
Grom,Ice Cream/Gelato,https://www.grom.it/en/gelateria-padova.html,9 049 8754373,http://www.facebook.com/pages/GROM/20907403110,http://www.grom.it/fr/contacts.php,45.4079384,11.8732666,https://goo.gl/maps/BcYhN9YXC6HbgWBy7,"Stationsvej 2, 3480","Fredensborg, Denmark"
Grom,Ice Cream/Gelato,https://www.grom.it/en/gelateria-milano.html,39 02 80581041,http://www.facebook.com/pages/GROM/20907403110,http://www.grom.it/fr/contacts.php,45.4663175,9.189046,https://goo.gl/maps/HkGdaL1uZsQr26A5A,"Rua Peixoto Gomide, 1486 - Jardins","São Paulo - SP, 01409-002, Brazil"
Grom,Ice Cream/Gelato,https://www.grom.it/en/gelateria-milano.html,39 02 4351 1942,http://www.facebook.com/pages/GROM/20907403110,http://www.grom.it/fr/contacts.php,45.4672824,9.1648495,https://goo.gl/maps/pQfWdxx5SL14DGkx6,"R. Alagoas, 651 - Higienópolis
","São Paulo - SP, 01242-001, Brazil"
Grom,Ice Cream/Gelato,https://www.grom.it/en/gelateria-lecco.html,39 0341 286031,http://www.facebook.com/pages/GROM/20907403110,http://www.grom.it/fr/contacts.php,45.8550582,9.389462,https://goo.gl/maps/zYLWMq6Pv8c5cLQo8,"Njálsgata 1, 101
","Reykjavík, Iceland"
Grom,Ice Cream/Gelato,https://www.grom.it/en/gelateria-firenze.html,39 0558974670,http://www.facebook.com/pages/GROM/20907403110,http://www.grom.it/fr/contacts.php,43.8461804,11.1426858,https://goo.gl/maps/gmwGQKYe9XWwiuAh8,"contact online
","Kuala Lumpur, Malaysia"
Grom,Ice Cream/Gelato,https://www.grom.it/en/gelateria-firenze.html,39 055216158,http://www.facebook.com/pages/GROM/20907403110,http://www.grom.it/fr/contacts.php,43.7722502,11.2558365,https://goo.gl/maps/L4cwc79pWnogB7Gu6,"contact on website or call
","Jerusaelm, Israel"
Grom,Ice Cream/Gelato,https://www.grom.it/en/gelateria-ferrara.html,39 0532-241917,http://www.facebook.com/pages/GROM/20907403110,http://www.grom.it/fr/contacts.php,44.8348063,11.6207872,https://goo.gl/maps/a1ZTqZKxTMfmjG7M7,"1796 Broadway
","New York, NY 10019"
Grom,Ice Cream/Gelato,https://www.grom.it/en/gelateria-cuneo.html,39 0171693109,http://www.facebook.com/pages/GROM/20907403110,http://www.grom.it/fr/contacts.php,44.3905364,7.5481125,https://goo.gl/maps/M92KVRZtKxf3DR4BA,233 Bleecker Street,"New York, NY 10014"
Grom,Ice Cream/Gelato,https://www.grom.it/en/gelateria-como.html,39 031271840,http://www.facebook.com/pages/GROM/20907403110,http://www.grom.it/fr/contacts.php,45.8102013,9.0829397,https://goo.gl/maps/GCXgNaTorDNoiUFAA,"3888 Cross Creek Rd.
","Malibu, CA 90265
"
Grom,Ice Cream/Gelato,https://www.grom.it/en/gelateria-brescia.html,39 0307827881,http://www.facebook.com/pages/GROM/20907403110,http://www.grom.it/fr/contacts.php,45.5329408,10.164434,https://goo.gl/maps/fBcuaGLxL9NcsSei8,"10250 Santa Monica Blvd.
","Los Angeles, CA 90067"
Grom,Ice Cream/Gelato,https://www.grom.it/en/gelateria-bologna.html,39 051273437,http://www.facebook.com/pages/GROM/20907403110,http://www.grom.it/fr/contacts.php,44.4928651,11.3420434,https://goo.gl/maps/SRsXo3veqxaNa8L66,"6801 Hollywood Blvd.
","Los Angeles, CA 90028
"
Grom,Ice Cream/Gelato,https://www.grom.it/en/gelateria-bergamo.html,39 035219730,http://www.facebook.com/pages/GROM/20907403110,http://www.grom.it/fr/contacts.php,45.6929943,9.671814,https://goo.gl/maps/Yu8Mi38u3G2YDL5n7,"Financial Centre Road Downtown
","Dubai, UAE"
Grom,Ice Cream/Gelato,https://www.grom.it/en/gelateria-asti.html,39 0141592923,http://www.facebook.com/pages/GROM/20907403110,http://www.grom.it/fr/contacts.php,44.8990091,8.2047414,https://goo.gl/maps/VrXBT6B2HuCoqs4VA,"Al Wasl Road, Boxpark
","Dubai, UAE"
Grom,Ice Cream/Gelato,https://www.grom.it/en/gelateria-aosta.html,39 016541055,http://www.facebook.com/pages/GROM/20907403110,http://www.grom.it/fr/contacts.php,45.736471,7.317194,https://goo.gl/maps/ZatAn9Z3k46tdEpM8,"Rua Garrett 42, Chiado
","Lisbon, Portugal
"
Grom,Ice Cream/Gelato,https://www.grom.it/en/gelateria-alessandria.html,39 0131253282,http://www.facebook.com/pages/GROM/20907403110,http://www.grom.it/fr/contacts.php,44.914035,8.6137647,https://goo.gl/maps/PGeo4GPWYiAFZqrd8,"Via Mazzini, 75 37121
","Verona, Italy
"
Grom,Ice Cream/Gelato,https://www.grom.it/en/gelateria-jakarta.html,62 2129889091,http://www.facebook.com/pages/GROM/20907403110,http://www.grom.it/fr/contacts.php,-6.2242564,106.8232633,https://goo.gl/maps/WJUqVUZyhLbLqYUP7,C.so Libertà 4,"Vercelli, Italy"
Grom,Ice Cream/Gelato,https://www.grom.it/en/gelateria-jakarta.html,62 2157973834,http://www.facebook.com/pages/GROM/20907403110,http://www.grom.it/fr/contacts.php,-6.2247259,106.8098833,https://goo.gl/maps/pwDJDNTEZ8gVVUa49,"Cannaregio, 3844 Strada Nuova (Cà d'Oro) 30121","Venice, Italy"
Grom,Ice Cream/Gelato,https://www.grom.it/en/gelateria-paris.html,44 0140469260,http://www.facebook.com/pages/GROM/20907403110,http://www.grom.it/fr/contacts.php,48.8533728,2.3371026,https://goo.gl/maps/LjhMyr4bZtDbTnAv9,"Via Pietro Arduino, 20 30175 Marghera
","Venice, Italy"
Grom,Ice Cream/Gelato,https://www.grom.it/en/gelateria-paris.html,44 0142033580,http://www.facebook.com/pages/GROM/20907403110,http://www.grom.it/fr/contacts.php,48.8469842,2.341389,https://goo.gl/maps/kdvhzTtynJDvpqwV7,"Via Rialto 12/c angolo via Cancian
 33100","Udine, Italy"
Grom,Ice Cream/Gelato,https://www.grom.it/en/gelateria-nizza.html,33 0497083118,http://www.facebook.com/pages/GROM/20907403110,http://www.grom.it/fr/contacts.php,43.697805,7.268041,https://goo.gl/maps/r3ggCSq5j4ELfGRZA,"Via Accademia delle Scienze, 4 – 10123
","Turin, Italy
"
Grom,Ice Cream/Gelato,https://www.grom.it/en/gelateria-nizza.html,33 0493563667,http://www.facebook.com/pages/GROM/20907403110,http://www.grom.it/fr/contacts.php,43.658843,7.1952183,https://goo.gl/maps/DCP6nN7yKx7oDTB38,"Piazza Paleocapa, 1/D – 10121
","Turin, Italy"
Grom,Ice Cream/Gelato,https://www.grom.it/en/gelateria-shanghai.html,86 8602152980278,http://www.facebook.com/pages/GROM/20907403110,http://www.grom.it/fr/contacts.php,31.231089,121.4596222,https://goo.gl/maps/M9UR5YJrnkcXdL3q6,"Piazza del Quartiere Latino, 16 31100
","Treviso, Italy"
Grom,Ice Cream/Gelato,https://www.grom.it/en/gelateria-Marseilles.html,33 491756749,http://www.facebook.com/pages/GROM/20907403110,http://www.grom.it/fr/contacts.php,43.270847,5.3922433,https://goo.gl/maps/A8DmeTQakKLfWZoVA,"Piazza Duomo, 27 38100
","Trento, Italy"
Glutenfreie Welt Husi?,Bakery,http://www.glutenfreie-welt.ch/,41 79 337 69 96,https://www.facebook.com/pages/category/Personal-Blog/Glutenfreie-Welt-Husi%C4%87-1917406591846126/,info@glutenfreie-welt.ch,47.466484,7.598634,https://goo.gl/maps/mjCcDTRuCG2Ak2mq9,"Via Banchi di Sopra 11/13
","Siena, Italy"
Wellzones Gluten Free Artisan Bakery,Bakery,www.wellzones.com.au,61 3 9889 0736,http://www.facebook.com/wellzonesgf,,-37.8438796!,145.0546349,https://goo.gl/maps/NAhdqDDcLkcKYXYF6,"Corso Garibaldi, 2 angolo P.zza
 Cristoforo Colombo
","Sanremo, Italy"
Treat No Wheat,Bakery,,61 419 808 566,https://www.facebook.com/pages/Treat-No-Wheat/871948852930497,,-37.9705652,145.066638,https://goo.gl/maps/yKL1efeTHSqDxReXA,"P.za Navona 1, angolo via Agonale 3-3A
","Rome, Italy"
Nodo Donuts,Bakery,https://nododonuts.com/,61 (07) 3184 4200,https://www.facebook.com/nododonuts/,HELLO@NODO.COM.AU,-27.454245,153.040653,https://goo.gl/maps/eDgz8d3Fjkaux8997,"Via della maddalena, 30A
","Rome, Italy
"
Nodo Donuts CBD,Bakery,https://nododonuts.com/,61 (07) 3184 4200,https://www.facebook.com/nododonuts/,HELLO@NODO.COM.AU,-27.4677273,153.0289548,https://goo.gl/maps/7AhvznznfXKmqKWz9,"C.so Italia 13
","Novara, Italy"
Yum AZ,Food Truck,,61 467 270 123,https://www.facebook.com/YumAzVic/,,N/A,N/A,N/A,"Via Mazzini, 31
","Perugia, Italy
"
Covent Garden - Gin Bar & Restaurant,Restaurant,https://www.coventgarden.com.au,61 07 3844 0142,https://www.facebook.com/CoventGardenWE/,info@coventgarden.com.au,-27.4805546,153.0122412,https://goo.gl/maps/34PDFz1CDGrQLWSP9,"Strada Luigi Carlo Farini 8/A
","Parma, Italy"
Modern Bread and Bagel,Bakery,https://www.modernbreadandbagel.com/,1 646-775-2985,https://www.facebook.com/modernbreadandbagel/,,40.7844796,-73.9740551,https://goo.gl/maps/qRFsUgNQ2gRfgV976,"Piazza dei Signori, 33 35139","Padua, Italy"
Sante Cafe Maru,Restaurant,https://savorjapan.com/0006109036/,81 92-846-2261,https://www.facebook.com/sharer/sharer.php?u=https%3A%2F%2Fhitosara.com%2Finfo%2Fcontact%2F,,33.5804016,130.3573352,https://goo.gl/maps/gxnotH4RDizGhDfq5,"Via S. Margherita (a 100mt dal Teatro
alla Scala) - 20121
","Milan, Italy
"
Santina,Restaurant,https://www.santinanyc.com/,1 212-254-3000,https://www.facebook.com/santinanyc/,,40.7396079,-74.008443,https://goo.gl/maps/gJzDis4NgRXz7yyH7,"Via A. da Giussano, 1 - 20145
","Milan, Italy"
Cheska's,Restaurant,https://www.cheskasny.com/,1 347-806-1295,http://facebook.com/cheskasny,hello@cheskasny.com,40.726679,-73.9920706,https://goo.gl/maps/Lsw8UGHmbcnDFji18,"Piazza XX Settembre 
Lungolario Isonzo 23 -23900
","Lecco, Italy"
La Esquina - SoHo,Restaurant,https://esquinanyc.com/,1 646-613-7100 ,https://www.facebook.com/La-Esquina-120665684613663/,info@esquinanyc.com,40.721368,-73.9975291,https://goo.gl/maps/xWHp6UNXkCKijdDW9,"Centro commerciale I Gigli
via San Quirico, 164
","Florence, Italy
"
La Esquina - UES,Restaurant,https://esquinanyc.com/,1 646-861-3356,https://www.facebook.com/La-Esquina-120665684613663/,info@esquinanyc.com,40.7693264,-73.9577738,https://goo.gl/maps/mwUrSPwPkBn3ndFaA,Via del campanile 2,"Florence, Italy"
La Esquina - Midtown,Restaurant,https://esquinanyc.com/,1 646-707-3950,https://www.facebook.com/La-Esquina-120665684613663/,info@esquinanyc.com,40.7642955,-73.9813804,https://goo.gl/maps/Jj18GcDd98k4wk139,P.zza Trento e Trieste 58,"
Ferrara, Italy
"
Mänchi,Cafe,https://manchimeansgood.com/,1 212-564-8418,https://www.facebook.com/Manchimeansgood/?ref=page_internal,info@manchimeansgood.com,40.7518385,-73.991313,https://goo.gl/maps/wsCMBukMPpG9xCzX7,"Piazza Tancredi Duccio
Galimberti 2, 12100","Cuneo, Italy"
Posh Pop Bakeshop,Bakery,https://poshpopbakeshop.com/,1 212-674-7674,https://www.facebook.com/PoshPopBakeshop/,,40.7292238,-74.0015358,https://goo.gl/maps/vnQZLWgZsZdpLSnz6,"Via Bernardino Luini 32
","Como, Italy
"
Sans Bakery,Bakery,https://sansbakery-nyc.com/,1 718-707-9800,https://www.facebook.com/SansBakery/,info@sansbakery-nyc.com,40.7420043,-73.935431,https://goo.gl/maps/JTdhqyYmz2vUd6Qd9,"Via Luigi Einaudi c/o Elnos Shopping
","Brescia, Italy"
Krumville Bakeshop,Bakery,https://www.krumvillebakeshop.com/,1 917-406-7447,https://www.facebook.com/KrumvilleBakeShop/,orders@krumvillebakeshop.com,40.6996109,-73.9479221,https://goo.gl/maps/UWFXUZxJgbGrKY7G6,"Via D’Azeglio 13
","Bologna, Italy"
Vibrant,Cafe/Restaurant,https://www.wearevibrant.com/,1 832-409-6423,https://www.facebook.com/vibranthoutx/,,29.7445548,-95.4057563,https://goo.gl/maps/UgvuNEULjv6EX8317,"Viale Papa Giovanni XXIII, 60 - 24122","
Bergamo, Italy
"
Wilde Kitchen,Cafe,http://www.wildekitchen.com.au/,61 07 3161 2088,https://www.facebook.com/wildekitchenaus/,info@wildekitchen.com.au,-27.4563007,153.0497727,https://goo.gl/maps/pd9DsC6981cnLijW6,Piazza San Secondo 11,"
Astia, Italy
"
Cloisters,Cafe,https://www.cloisters.info,81 058-214-4948,https://www.facebook.com/cloisters.gf,?,?,?,?,"Via Jean-Baptiste De Tillier, 70","
Aosta, Italy
"
Japan Crepe,Cafe,https://akarengacrepe.amebaownd.com,81 080-2742-6863,?,?,33.309816,130.374164,https://goo.gl/maps/4wLKbzfcuqPBmp9MA,"Via Milano, 1, 15121","
Alessandria AL, Italy
"
Dovetail on Overend,Bakery/Cafe,,61 497 876 553,https://www.facebook.com/DovetailOnOverend,,-27.4760113,153.0607568,https://goo.gl/maps/LEPGHAUUPUJpZ2uL9,"Lotte Shopping Avenue, Ground Floor 
Unit No. 25, Jl. Profesor Doktor Satrio
 No. 3-5 - 12940
","Jakarta, Indonesia
"
Donde Thiago,Food Truck,https://www.dondethiago.com/,1 339-832-6079,https://www.facebook.com/dondethiago/,info@dondethiago.com,N/A,N/A,N/A,"Pacific Place Mall, 1st Floor, Unit No.
70, Jl. Jenderal Sudirman Kav. 52-53 - 12190
","Jakarta, Indonesia"
Sweet Sense Gluten Free Baked Goods,Bakery,https://www.sweetsensegf.com/,1 781-248-1594,https://www.facebook.com/sweetsenseglutenfree/,info@sweetsensegf.com,41.9575283,-70.6656068,https://goo.gl/maps/szLR4WmcPsGLYrJG6,Rue de Seine 81,"Paris, France"
Little Rabbit Baking Company,Bakery,https://www.littlerabbitbaking.com,1 203-626-1140,https://www.facebook.com/littlerabbitbaking/,,41.359524,-72.910014,https://goo.gl/maps/Qyx3ipjwCkV9LaAN7,"Rue Sufflot 19
","Paris, France"
Auntie Cathie's Kitchen,Bakery/Cafe,https://www.auntiecathies.com,1 413-788-0022,https://www.facebook.com/pages/category/Cafe/Auntie-Cathies-Kitchen-288012575275/,,42.086475,-72.621169,https://goo.gl/maps/RgrgY2T8uZdn7YT57,"6 Rue Massena, 06000","Nice, France"
Vinland,Restaurant,http://vinland.me,1 207-653-8617,https://www.facebook.com/vinlandmaine/,info@vinland.me,43.6544019,-70.2629967,https://goo.gl/maps/hTFCBEcUG6bdkXtZ7,"Centre Commercial CAP 3000, 317
Avenue Eugene Donadei, 06700
Sain Laurent du Var","Nice, France"
Sweet Cindy's Gluten Free Bakery,Bakery,http://www.sweetcindysglutenfreebakery.com/home.html,1 315-598-3669,https://www.facebook.com/Sweet-Cindys-Gluten-Free-Bakery-352678074935918/,sweetcindygf@hotmail.com,43.3221112,-76.4215435,https://goo.gl/maps/gq76WAuLMYyi67tU7,"No. 772, West Nanjing Road, Jingan District
","Shanghai, China"
Deborah's Sweet Treats,Bakery,http://www.deborahssweettreats.net/,1 315 635-2400,https://www.facebook.com/DeborahsSweetTreats/,deborahgratton@yahoo.com,43.1289743,-76.2236106,https://goo.gl/maps/AvRbksxAHqTH3tmA9,Centre Commecial Prado Vélodrome,"Marseille, 41 Boulevard Michelet, 13008
Marseille, France"
Out of the Box,Cafe,,1 907-903-1203,https://www.facebook.com/outoftheboxfoodtruck/,,61.1861893,-149.9159779,https://goo.gl/maps/VbxzZoyviTvb6Drg6,Main street 50,"Aesch, Switzerland 4147"
Bistro Red Beet,Cafe,,1 907-376-1400,https://www.facebook.com/Bistro-Red-Beet-137185883016790/,,61.585439,-149.3236044,https://goo.gl/maps/Q8S1YiS9mYTpdrzW7,10/436 Burke Road,"Camberwell, Victoria, Australia 3124"
Bayou By You,Food Truck,https://www.bayoubyyou.com/,1 928-607-2318,https://www.facebook.com/BayouByYouFood/,,35.2503876,-112.1878929,https://goo.gl/maps/dH1JvZGRxYinQpAX8,15-17 Follett Rd,"        
Cheltenham, Victoria, Australia 3192"
Mr Dewie's Cashew Creamery,Ice Cream/Gelato,https://www.mrdewies.com/,1 510-225-9534,https://www.facebook.com/MrDewies/,,37.8901839,-122.2983645,https://goo.gl/maps/r7YXmZdVvydCp4WQA,"1 Ella Street (Corner Chester Street)
","Newstead, Queensland, Australia 4006"
Mr. Dewie's Emeryville,Ice Cream/Gelato,https://www.mrdewies.com/,1 510-350-8171,https://www.facebook.com/MrDewies/,,37.8415385,-122.2938642,https://goo.gl/maps/JQ344WLsP5d3oB849,142 Boundary St,"West End Brisbane, Queensland 4101"
Modern Grub,Catering/Meal Delivery,https://eatmoderngrub.com/,1 661-695-9006,,info@eatmoderngrub.com,35.367589,-119.1102368,https://goo.gl/maps/ru6WRMdG4DHvncGt8,472 Columbus Ave,"New York, NY 10024"
Detox Kitchen and Juice Bar,Cafe,https://www.detoxkitchenandjuicebar.com/,1 650-264-8211,,Info@detoxkitchenandjuicebar.com,37.5189045,-122.2746016,https://goo.gl/maps/5btjxnuRTtchPXiD9,"14-20, Sohara, Sawara-ku","Fukuoka, Fukuoka"
Gracie Jones' GF Bake Shop,Bakery,https://www.graciejonesbakeshop.com/,1 415-606-6107,,Graciejonesbakeshop.com,37.4332266,-122.129619,https://goo.gl/maps/n3m9DPFZGHE6mPx57,820 Washington St.,"New York, NY 10014"
Bread Srsly,Online,http://www.breadsrsly.com/,1 844-432-7323 ,https://www.facebook.com/breadsrsly,,,,,348 Bowery,"New York, NY 10012"
No Cow Cafe Gluten & Dairy Free Bakery,Bakery/Cafe,http://www.nocowneeded.com/,1 303-919-1850,,,39.374192,-104.8609968,https://goo.gl/maps/mx2kTTDdQUj5wfCL7,114 Kenmare Street,"New York, NY 10012"
Cafe Red Point,Cafe,https://caferedpoint.com/,1 719-425-9688,https://www.facebook.com/caferedpointcs/,info@caferedpoint.com,38.8712906,-104.8222377,https://goo.gl/maps/dZc4tvx1Y9WuoMdf7,"1402 2nd Avenue
","New York, NY 10021"
Karen's Corner Bakery,Bakery,,1 719-210-5361,https://www.facebook.com/Karenscornerbakery/,,38.8464519,-104.8632254,https://goo.gl/maps/LmUiw1TtJ5wXL1ii6,200 W 55th St,"New York, NY 10019"
Cafe Profusion,Cafe,http://cafeprofusion.com/,1 970-513-8336,,bill@cafeprofusion.com,39.6274743,-106.0460033,https://goo.gl/maps/YEpsD97PTC7aH3QK6,224 West 35th Street,"New York, NY 10001"
Maize Blaze - Colombian Street Food,Food Truck,https://maizeblaze.com/,44 7786 071591,https://www.facebook.com/maizeblaze,HELLO@MAIZEBLAZE.COM,51.5410217,-0.1464711,https://goo.gl/maps/eDcaRzBnXao9441v8,"192 Bleecker St.
","New York, NY 10012
"
,,,,,,,,,"The Falchi Building
31-00 47th Avenue","Long Island City, NY 11101"
,,,,,,,,,630 Flushing Ave,"New York City, NY"
,,,,,,,,,1931 Fairview,"Houston, TX 77019"
,,,,,,,,,Cnr Florence & Macquarie Streets,"Brisbane, Queensland, Australia 4005"
,,,,,,,,,"500 – 8109
 Gifu prefecture Gifu city 10 Asahi-machi
 Arrow Court Underground Floor
","Gifu, Japan"
,,,,,,,,,"Saga Prefecture
Kanzaki 113-1 Red Brick Hall
","Kanzaki, Japan"
,,,,,,,,,85 Overend Street,"Norman Park, Queensland, Australia 4170"
,,,,,,,,,check website for locations,"Falmouth, Massachusetts"
,,,,,,,,,17R Court St.,"Plymouth, MA 02360"
,,,,,,,,,1648 Whitney Avenue ,"Hamden, CT 06517"
,,,,,,,,,159 Main Street,"Agawam, MA 01001"
,,,,,,,,,593 Congress St,"Portland, ME 04101"
